{"version": 0.6, "generator": "Overpass API 0.7.62.5 1bd436f1", "osm3s": {"timestamp_osm_base": "2025-02-19T00:38:11Z", "copyright": "The data included in this document is from www.openstreetmap.org. The data is made available under ODbL."}, "elements": [{"type": "node", "id": 269276984, "lat": 43.7321832, "lon": -79.4773158}, {"type": "node", "id": 269276985, "lat": 43.7290043, "lon": -79.4766564}, {"type": "node", "id": 363995346, "lat": 43.7320134, "lon": -79.4779775}, {"type": "node", "id": 406897279, "lat": 43.7316751, "lon": -79.4830617}, {"type": "node", "id": 406897283, "lat": 43.7322319, "lon": -79.4807276}, {"type": "node", "id": 406897287, "lat": 43.7314372, "lon": -79.4805356}, {"type": "node", "id": 406897291, "lat": 43.7310538, "lon": -79.4822372}, {"type": "node", "id": 406897293, "lat": 43.7305917, "lon": -79.4821157}, {"type": "node", "id": 406897296, "lat": 43.7304864, "lon": -79.482785}, {"type": "node", "id": 406897350, "lat": 43.7302495, "lon": -79.4769075}, {"type": "node", "id": 406897353, "lat": 43.7300132, "lon": -79.478025}, {"type": "node", "id": 406897355, "lat": 43.7286936, "lon": -79.4777433}, {"type": "node", "id": 406897359, "lat": 43.7283182, "lon": -79.4776167}, {"type": "node", "id": 406897360, "lat": 43.7285676, "lon": -79.4765356}, {"type": "node", "id": 417649693, "lat": 43.7315646, "lon": -79.4798565}, {"type": "node", "id": 417649694, "lat": 43.731188, "lon": -79.479694}, {"type": "node", "id": 417649695, "lat": 43.7311151, "lon": -79.4797724}, {"type": "node", "id": 417649696, "lat": 43.7310381, "lon": -79.4800975}, {"type": "node", "id": 417649697, "lat": 43.7297788, "lon": -79.4795649}, {"type": "node", "id": 417649698, "lat": 43.7296622, "lon": -79.4795649}, {"type": "node", "id": 632985247, "lat": 43.7362726, "lon": -79.4863528}, {"type": "node", "id": 632985250, "lat": 43.7359245, "lon": -79.486267}, {"type": "node", "id": 632985255, "lat": 43.7359555, "lon": -79.4860524}, {"type": "node", "id": 689777505, "lat": 43.7292065, "lon": -79.4882337}, {"type": "node", "id": 689777506, "lat": 43.7289662, "lon": -79.4892315}, {"type": "node", "id": 689777507, "lat": 43.7280169, "lon": -79.4888238}, {"type": "node", "id": 689777508, "lat": 43.728227, "lon": -79.4878218}, {"type": "node", "id": 692299175, "lat": 43.732693, "lon": -79.4663331}, {"type": "node", "id": 692299177, "lat": 43.732523, "lon": -79.4671413}, {"type": "node", "id": 692299181, "lat": 43.7333958, "lon": -79.4666162}, {"type": "node", "id": 692299185, "lat": 43.7332258, "lon": -79.4674244}, {"type": "node", "id": 2029176777, "lat": 43.7350055, "lon": -79.4864448}, {"type": "node", "id": 2029176778, "lat": 43.7350941, "lon": -79.4858306}, {"type": "node", "id": 2029176779, "lat": 43.7362173, "lon": -79.4867323}, {"type": "node", "id": 2337403301, "lat": 43.7335399, "lon": -79.4644837}, {"type": "node", "id": 2337403303, "lat": 43.7336827, "lon": -79.4638746}, {"type": "node", "id": 2337403305, "lat": 43.733886, "lon": -79.4646317}, {"type": "node", "id": 2337403306, "lat": 43.7339228, "lon": -79.4646474}, {"type": "node", "id": 2337403307, "lat": 43.733962, "lon": -79.4646642}, {"type": "node", "id": 2337403310, "lat": 43.7340589, "lon": -79.4647057}, {"type": "node", "id": 2337403317, "lat": 43.7342738, "lon": -79.4647976}, {"type": "node", "id": 2337403324, "lat": 43.7344049, "lon": -79.4648537}, {"type": "node", "id": 2337403333, "lat": 43.7347526, "lon": -79.4650066}, {"type": "node", "id": 2337403334, "lat": 43.7348812, "lon": -79.464373}, {"type": "node", "id": 3109981054, "lat": 43.7281142, "lon": -79.4883931}, {"type": "node", "id": 3109981055, "lat": 43.7281203, "lon": -79.4883203}, {"type": "node", "id": 4642775115, "lat": 43.7300044, "lon": -79.478061}, {"type": "node", "id": 4642775116, "lat": 43.7299028, "lon": -79.4785092}, {"type": "node", "id": 6302437244, "lat": 43.7360031, "lon": -79.4866815}, {"type": "node", "id": 9559519867, "lat": 43.7320864, "lon": -79.4776372}, {"type": "node", "id": 9571982096, "lat": 43.7319468, "lon": -79.4819228}, {"type": "node", "id": 9571982103, "lat": 43.7318906, "lon": -79.4806451}, {"type": "node", "id": 9571982113, "lat": 43.7311089, "lon": -79.4820067}, {"type": "node", "id": 9571982114, "lat": 43.7318625, "lon": -79.4806383}, {"type": "node", "id": 9571982136, "lat": 43.7304675, "lon": -79.4827616}, {"type": "node", "id": 9571982137, "lat": 43.7304725, "lon": -79.4827779}, {"type": "node", "id": 11929940543, "lat": 43.7339728, "lon": -79.4646688}, {"type": "node", "id": 11932070475, "lat": 43.736267, "lon": -79.4863912}, {"type": "node", "id": 11932070478, "lat": 43.7362311, "lon": -79.4866375}, {"type": "way", "id": 34794681, "nodes": [406897279, 9571982096, 406897283, 9571982103, 9571982114, 406897287, 9571982113, 406897291, 406897293, 9571982136, 9571982137, 406897296, 406897279], "tags": {"addr:city": "North York", "addr:housenumber": "2829", "addr:postcode": "M3M 2G7", "addr:street": "Keele Street", "amenity": "school", "fax": "+1-416-395-4481", "isced:level": "1", "name": "Downsview Public School", "operator": "Toronto District School Board", "operator:short": "TDSB", "operator:type": "public", "operator:wikidata": "Q1189302", "operator:wikipedia": "en:Toronto District School Board", "phone": "+1-416-395-2340", "school:language": "english", "source": "Contains public sector Datasets made available under the City of Toronto's Open Data License v2.0.", "website": "https://www.tdsb.on.ca/MOSS/asp_apps/school_landing_page/index.asp?schno=3094"}}, {"type": "way", "id": 34794686, "nodes": [406897350, 406897353, 406897355, 406897359, 406897360, 269276985, 406897350], "tags": {"addr:city": "Toronto", "addr:housenumber": "20", "addr:postcode": "M3K 1V5", "addr:street": "Dubray Avenue", "amenity": "school", "denomination": "catholic", "fax": "+1-416-397-6088", "isced:level": "3", "mascot": "Phoenix", "name": "Madonna Catholic Secondary School", "operator": "Toronto Catholic District School Board", "operator:short": "TCDSB", "operator:type": "public", "operator:wikidata": "Q405337", "phone": "+1-416-393-5506", "religion": "christian", "school:language": "english", "source": "yahoo;survey", "website": "http://madonna.tcdsb.org"}}, {"type": "way", "id": 35668101, "nodes": [269276984, 9559519867, 363995346, 417649693, 417649694, 417649695, 417649696, 417649697, 417649698, 4642775116, 4642775115, 406897353, 406897350, 269276984], "tags": {"addr:city": "North York", "addr:housenumber": "7", "addr:postcode": "M3K 1W3", "addr:street": "Hawksdale Road", "amenity": "school", "fax": "+1-416-395-4455", "isced:level": "3", "mascot": "Mustangs", "name": "Downsview Secondary School", "operator": "Toronto District School Board", "operator:short": "TDSB", "operator:type": "public", "operator:wikidata": "Q1189302", "operator:wikipedia": "en:Toronto District School Board", "phone": "+1-416-395-3200", "school:language": "english", "source": "Contains public sector Datasets made available under the City of Toronto's Open Data License v2.0.", "website": "https://schoolweb.tdsb.on.ca/downsview", "wikidata": "Q55639600", "wikipedia": "en:List of high schools in Ontario"}}, {"type": "way", "id": 54780823, "nodes": [689777505, 689777506, 689777507, 3109981054, 3109981055, 689777508, 689777505], "tags": {"addr:city": "Toronto", "addr:housenumber": "3", "addr:postcode": "M3M 2K2", "addr:street": "Gade Drive", "amenity": "school", "denomination": "catholic", "fax": "+1-416-393-5127", "isced:level": "1;2", "name": "St. Raphael Catholic School", "operator": "Toronto Catholic District School Board", "operator:short": "TCDSB", "operator:type": "public", "operator:wikidata": "Q405337", "phone": "+1-416-393-5285", "religion": "christian", "school:language": "english", "source": "Yahoo", "website": "http://straphael.tcdsb.org"}}, {"type": "way", "id": 55042234, "nodes": [692299181, 692299185, 692299177, 692299175, 692299181], "tags": {"addr:city": "North York", "addr:housenumber": "44", "addr:postcode": "M3K 1S6", "addr:street": "Ancaster Road", "amenity": "school", "fax": "+1-416-394-2014", "isced:level": "1", "name": "Ancaster Public School", "operator": "Toronto District School Board", "operator:short": "TDSB", "operator:type": "public", "operator:wikidata": "Q1189302", "operator:wikipedia": "en:Toronto District School Board", "phone": "+1-416-395-2010", "school:language": "english", "source": "Contains public sector Datasets made available under the City of Toronto's Open Data License v2.0.", "website": "https://schoolweb.tdsb.on.ca/ancaster"}}, {"type": "way", "id": 192359470, "nodes": [2029176778, 2029176777, 6302437244, 2029176779, 11932070478, 11932070475, 632985247, 632985250, 632985255, 2029176778], "tags": {"addr:city": "North York", "addr:housenumber": "25", "addr:postcode": "M3M 2C9", "addr:street": "Blaydon Avenue", "amenity": "school", "fax": "+1-416-395-2072", "isced:level": "1", "name": "Blaydon Public School", "operator": "Toronto District School Board", "operator:short": "TDSB", "operator:type": "public", "operator:wikidata": "Q1189302", "operator:wikipedia": "en:Toronto District School Board", "phone": "+1-416-395-2070", "school:language": "english", "source": "Contains public sector Datasets made available under the City of Toronto's Open Data License v2.0.", "website": "https://www.tdsb.on.ca/MOSS/asp_apps/school_landing_page/index.asp?schno=3030"}}, {"type": "way", "id": 224896192, "nodes": [2337403333, 2337403334, 2337403303, 2337403301, 2337403305, 2337403306, 2337403307, 11929940543, 2337403310, 2337403317, 2337403324, 2337403333], "tags": {"PD:amount": "6", "addr:city": "Toronto", "addr:district": "North York", "addr:housenumber": "60", "addr:neighbourhood": "Downsview", "addr:postcode": "M3K 1R6", "addr:street": "Maniza Road", "addr:ward": "9", "amenity": "school", "denomination": "catholic", "fax": "+1-416-393-5187", "grades": "-2 - 8", "grades:amount": "11", "isced:level": "1;2", "name": "St. Norbert Catholic School", "opening_hours": "08:30-15:10", "operator": "Toronto Catholic District School Board", "operator:short": "TCDSB", "operator:type": "public", "operator:wikidata": "Q405337", "phone": "+1-416-393-5309", "religion": "christian", "school:language": "english", "website": "http://stnorbert.tcdsb.org"}}]}