{"version": 0.6, "generator": "Overpass API 0.7.62.5 1bd436f1", "osm3s": {"timestamp_osm_base": "2025-03-11T10:43:56Z", "copyright": "The data included in this document is from www.openstreetmap.org. The data is made available under ODbL."}, "elements": [{"type": "node", "id": 339908850, "lat": 43.7316235, "lon": -79.3119188}, {"type": "node", "id": 339908854, "lat": 43.7319636, "lon": -79.3102976}, {"type": "node", "id": 339908856, "lat": 43.731283, "lon": -79.3100468}, {"type": "node", "id": 339908859, "lat": 43.730941, "lon": -79.3099475}, {"type": "node", "id": 339908860, "lat": 43.7304691, "lon": -79.3098969}, {"type": "node", "id": 339908861, "lat": 43.7302941, "lon": -79.311398}, {"type": "node", "id": 343282973, "lat": 43.7349138, "lon": -79.3209839}, {"type": "node", "id": 343282980, "lat": 43.7352029, "lon": -79.3215274}, {"type": "node", "id": 343282997, "lat": 43.7356392, "lon": -79.3211047}, {"type": "node", "id": 343283008, "lat": 43.7359064, "lon": -79.3215802}, {"type": "node", "id": 343283022, "lat": 43.7349574, "lon": -79.3226671}, {"type": "node", "id": 343283033, "lat": 43.7345375, "lon": -79.3221237}, {"type": "node", "id": 343283040, "lat": 43.7343248, "lon": -79.3224935}, {"type": "node", "id": 343283041, "lat": 43.7336758, "lon": -79.3218066}, {"type": "node", "id": 343283046, "lat": 43.7339812, "lon": -79.3212405}, {"type": "node", "id": 343283052, "lat": 43.7347556, "lon": -79.3204932}, {"type": "node", "id": 343283057, "lat": 43.7347502, "lon": -79.3207574}, {"type": "node", "id": 343283117, "lat": 43.7353879, "lon": -79.315265}, {"type": "node", "id": 343283122, "lat": 43.7366545, "lon": -79.3148934}, {"type": "node", "id": 343283155, "lat": 43.7364775, "lon": -79.3132233}, {"type": "node", "id": 343283165, "lat": 43.7361156, "lon": -79.3130807}, {"type": "node", "id": 343283173, "lat": 43.7360345, "lon": -79.31327}, {"type": "node", "id": 343283180, "lat": 43.7356575, "lon": -79.3130985}, {"type": "node", "id": 343283187, "lat": 43.7353632, "lon": -79.3145351}, {"type": "node", "id": 343283197, "lat": 43.7353167, "lon": -79.3148782}, {"type": "node", "id": 423796273, "lat": 43.7168632, "lon": -79.3046195}, {"type": "node", "id": 423796274, "lat": 43.7167759, "lon": -79.3035452}, {"type": "node", "id": 424014509, "lat": 43.7160131, "lon": -79.3035366}, {"type": "node", "id": 424014510, "lat": 43.7160193, "lon": -79.3041031}, {"type": "node", "id": 424014511, "lat": 43.7160752, "lon": -79.3047639}, {"type": "node", "id": 955598550, "lat": 43.7304144, "lon": -79.3105825}, {"type": "node", "id": 2024044487, "lat": 43.7348837, "lon": -79.3209422}, {"type": "node", "id": 6604292203, "lat": 43.7310493, "lon": -79.3099789}, {"type": "node", "id": 11539149531, "lat": 43.7317837, "lon": -79.3102255}, {"type": "node", "id": 11539149532, "lat": 43.7315537, "lon": -79.3101434}, {"type": "node", "id": 11539149536, "lat": 43.7318449, "lon": -79.3102473}, {"type": "node", "id": 11539149538, "lat": 43.7312235, "lon": -79.3117543}, {"type": "node", "id": 11539149544, "lat": 43.7304416, "lon": -79.3101846}, {"type": "node", "id": 11539220076, "lat": 43.7305294, "lon": -79.3114735}, {"type": "node", "id": 11539220091, "lat": 43.7305508, "lon": -79.3114822}, {"type": "way", "id": 30733222, "nodes": [339908850, 339908854, 11539149536, 11539149531, 11539149532, 339908856, 6604292203, 339908859, 339908860, 11539149544, 955598550, 339908861, 11539220076, 11539220091, 11539149538, 339908850], "tags": {"addr:city": "North York", "addr:housenumber": "110", "addr:postcode": "M4A 2B1", "addr:street": "Sloane Avenue", "amenity": "school", "fax": "+1-416-395-4213", "isced:level": "1", "name": "Sloane Public School", "operator": "Toronto District School Board", "operator:short": "TDSB", "operator:type": "public", "operator:wikidata": "Q1189302", "operator:wikipedia": "en:Toronto District School Board", "phone": "+1-416-397-2920", "school:language": "english", "source": "Contains public sector Datasets made available under the City of Toronto's Open Data License v2.0.", "website": "https://schoolweb.tdsb.on.ca/sloane/"}}, {"type": "way", "id": 30861496, "nodes": [343282973, 343282980, 343282997, 343283008, 343283022, 343283033, 343283040, 343283041, 343283046, 343283052, 343283057, 2024044487, 343282973], "tags": {"addr:city": "North York", "addr:housenumber": "150", "addr:postcode": "M4A 2K7", "addr:street": "Carnforth Road", "amenity": "school", "fax": "+1-416-397-2084", "isced:level": "1", "name": "\u00c9cole \u00e9l\u00e9mentaire Jeanne-Lajoie", "name:fr": "Ecole Jeanne-Lajoie", "operator": "Conseil scolaire Viamonde", "operator:type": "public", "operator:wikidata": "Q2994271", "phone": "+1-416-397-2080", "school:language": "french", "start_date": "1976-09-01", "website": "http://jeannelajoie.csviamonde.ca/"}}, {"type": "way", "id": 30861503, "nodes": [343283122, 343283155, 343283165, 343283173, 343283180, 343283187, 343283197, 343283117, 343283122], "tags": {"addr:city": "North York", "addr:housenumber": "88", "addr:postcode": "M4A 1T7", "addr:street": "Sweeney Drive", "amenity": "school", "fax": "+1-416-397-2935", "isced:level": "1", "name": "Victoria Village Public School", "operator": "Toronto District School Board", "operator:short": "TDSB", "operator:type": "public", "operator:wikidata": "Q1189302", "operator:wikipedia": "en:Toronto District School Board", "phone": "+1-416-397-2930", "school:language": "english", "source": "Contains public sector Datasets made available under the City of Toronto's Open Data License v2.0.", "website": "https://schoolweb.tdsb.on.ca/victoriavillage"}}, {"type": "way", "id": 36355572, "nodes": [423796274, 424014509, 424014510, 424014511, 423796273, 423796274], "tags": {"addr:city": "North York", "addr:housenumber": "1665", "addr:postcode": "M4A 1W5", "addr:street": "O'Connor Drive", "amenity": "school", "fax": "+1-416-397-2982", "isced:level": "1", "name": "O'Connor Public School", "operator": "Toronto District School Board", "operator:short": "TDSB", "operator:type": "public", "operator:wikidata": "Q1189302", "operator:wikipedia": "en:Toronto District School Board", "phone": "+1-416-397-2980", "school:language": "english", "source": "Contains public sector Datasets made available under the City of Toronto's Open Data License v2.0.", "website": "https://www.tdsb.on.ca/Find-your/Schools/schno/3208"}}]}