{"version": 0.6, "generator": "Overpass API 0.7.62.5 1bd436f1", "osm3s": {"timestamp_osm_base": "2025-02-19T16:00:11Z", "copyright": "The data included in this document is from www.openstreetmap.org. The data is made available under ODbL."}, "elements": [{"type": "node", "id": 371010025, "lat": 43.7066926, "lon": -79.5083404}, {"type": "node", "id": 371010028, "lat": 43.7062872, "lon": -79.5100824}, {"type": "node", "id": 371010030, "lat": 43.7059707, "lon": -79.508145}, {"type": "node", "id": 371010032, "lat": 43.7055989, "lon": -79.5097623}, {"type": "node", "id": 371010718, "lat": 43.7039644, "lon": -79.5123899}, {"type": "node", "id": 371010720, "lat": 43.703342, "lon": -79.5121184}, {"type": "node", "id": 371010731, "lat": 43.7031893, "lon": -79.5127882}, {"type": "node", "id": 371010735, "lat": 43.7025914, "lon": -79.5125084}, {"type": "node", "id": 371010740, "lat": 43.7034095, "lon": -79.5090116}, {"type": "node", "id": 371010743, "lat": 43.7043647, "lon": -79.5094277}, {"type": "node", "id": 371010746, "lat": 43.7041099, "lon": -79.5104862}, {"type": "node", "id": 371010748, "lat": 43.7043844, "lon": -79.5105905}, {"type": "node", "id": 1296231020, "lat": 43.7013643, "lon": -79.5123686}, {"type": "node", "id": 1296231021, "lat": 43.701701, "lon": -79.5141011}, {"type": "node", "id": 1296231022, "lat": 43.7021778, "lon": -79.5136461}, {"type": "node", "id": 1296231023, "lat": 43.7012139, "lon": -79.5131117}, {"type": "node", "id": 1296231024, "lat": 43.7011986, "lon": -79.51302}, {"type": "node", "id": 1296231025, "lat": 43.7014344, "lon": -79.512318}, {"type": "node", "id": 1296231026, "lat": 43.7024099, "lon": -79.5127448}, {"type": "node", "id": 1296231027, "lat": 43.7022467, "lon": -79.5135261}, {"type": "node", "id": 2334713808, "lat": 43.7019003, "lon": -79.5207227}, {"type": "node", "id": 2334713809, "lat": 43.7020334, "lon": -79.5202126}, {"type": "node", "id": 2334713810, "lat": 43.7021638, "lon": -79.5204333}, {"type": "node", "id": 2334713811, "lat": 43.7021971, "lon": -79.5216629}, {"type": "node", "id": 2334713812, "lat": 43.7024929, "lon": -79.5196573}, {"type": "node", "id": 2334713813, "lat": 43.7025272, "lon": -79.5196683}, {"type": "node", "id": 2334713814, "lat": 43.7026883, "lon": -79.5212574}, {"type": "node", "id": 2334713815, "lat": 43.7027016, "lon": -79.5209944}, {"type": "node", "id": 2334713816, "lat": 43.7027121, "lon": -79.5213561}, {"type": "node", "id": 2334713817, "lat": 43.7027702, "lon": -79.5211771}, {"type": "node", "id": 2334713818, "lat": 43.7029683, "lon": -79.5208081}, {"type": "node", "id": 2336715510, "lat": 43.7062464, "lon": -79.5082671}, {"type": "node", "id": 2336715511, "lat": 43.7062664, "lon": -79.5081656}, {"type": "node", "id": 2351602251, "lat": 43.7028379, "lon": -79.5201108}, {"type": "node", "id": 2351602253, "lat": 43.7032969, "lon": -79.5196433}, {"type": "node", "id": 2351602255, "lat": 43.7033178, "lon": -79.5213444}, {"type": "node", "id": 2351602261, "lat": 43.7039224, "lon": -79.5209414}, {"type": "node", "id": 3762033462, "lat": 43.7025872, "lon": -79.5214305}, {"type": "node", "id": 6283575712, "lat": 43.7020548, "lon": -79.5212121}, {"type": "node", "id": 6283575715, "lat": 43.703645, "lon": -79.5211263}, {"type": "node", "id": 10731234263, "lat": 43.7013732, "lon": -79.5123449}, {"type": "node", "id": 10731234264, "lat": 43.7013887, "lon": -79.5123228}, {"type": "node", "id": 10731234265, "lat": 43.7014029, "lon": -79.5123144}, {"type": "node", "id": 10731234266, "lat": 43.7014156, "lon": -79.5123123}, {"type": "node", "id": 11307575721, "lat": 43.70398, "lon": -79.5123231}, {"type": "way", "id": 32946166, "nodes": [371010025, 2336715511, 2336715510, 371010030, 371010032, 371010028, 371010025], "tags": {"addr:city": "York", "addr:housenumber": "200", "addr:postcode": "M9N 1K2", "addr:street": "John Street", "amenity": "school", "fax": "+1-416-394-4138", "isced:level": "1", "name": "Weston Memorial Junior Public School", "operator": "Toronto District School Board", "operator:short": "TDSB", "operator:type": "public", "operator:wikidata": "Q1189302", "operator:wikipedia": "en:Toronto District School Board", "phone": "+1-416-394-3150", "school:language": "english", "source": "Contains public sector Datasets made available under the City of Toronto's Open Data License v2.0.", "website": "https://schoolweb.tdsb.on.ca/westonmemorial/"}}, {"type": "way", "id": 32946197, "nodes": [371010718, 371010720, 371010731, 371010735, 371010740, 371010743, 371010746, 371010748, 11307575721, 371010718], "tags": {"addr:city": "Toronto", "addr:housenumber": "100", "addr:postcode": "M9N 2Y9", "addr:street": "Pine Street", "amenity": "school", "fax": "+1-416-394-4429", "isced:level": "3", "mascot": "Ironmen", "name": "Weston Collegiate Institute", "operator": "Toronto District School Board", "operator:short": "TDSB", "operator:type": "public", "operator:wikidata": "Q1189302", "operator:wikipedia": "en:Toronto District School Board", "phone": "+1-416-394-3250", "school:language": "english", "source": "Contains public sector Datasets made available under the City of Toronto's Open Data License v2.0.", "website": "http://www.westonci.ca", "wikidata": "Q7989411", "wikipedia": "en:Weston Collegiate Institute"}}, {"type": "way", "id": 114427959, "nodes": [1296231026, 1296231025, 10731234266, 10731234265, 10731234264, 10731234263, 1296231020, 1296231024, 1296231023, 1296231021, 1296231022, 1296231027, 1296231026], "tags": {"addr:city": "York", "addr:housenumber": "1", "addr:postcode": "M9N 3A8", "addr:street": "Ralph Street", "amenity": "school", "fax": "+1-416-394-4446", "isced:level": "2", "name": "C R Marchant Middle School", "operator": "Toronto District School Board", "operator:short": "TDSB", "operator:type": "public", "operator:wikidata": "Q1189302", "operator:wikipedia": "en:Toronto District School Board", "phone": "+1-416-394-2268", "school:language": "english", "source": "Contains public sector Datasets made available under the City of Toronto's Open Data License v2.0.", "website": "http://crmarchant.com"}}, {"type": "way", "id": 224673394, "nodes": [2334713818, 2334713813, 2334713812, 2334713809, 2334713810, 2334713808, 6283575712, 2334713811, 3762033462, 2334713816, 2334713814, 2334713817, 2334713815, 2334713818], "tags": {"addr:city": "York", "addr:housenumber": "30", "addr:postcode": "M9N 1K9", "addr:street": "King Street", "amenity": "school", "fax": "+1-416-394-4169", "isced:level": "1", "name": "H.J. Alexander Community School", "operator": "Toronto District School Board", "operator:short": "TDSB", "operator:type": "public", "operator:wikidata": "Q1189302", "operator:wikipedia": "en:Toronto District School Board", "phone": "+1-416-394-2359", "school:language": "english", "source": "Contains public sector Datasets made available under the City of Toronto's Open Data License v2.0.", "website": "https://schoolweb.tdsb.on.ca/hjalexander"}}, {"type": "way", "id": 226310737, "nodes": [2351602261, 2351602253, 2351602251, 2351602255, 6283575715, 2351602261], "tags": {"addr:city": "North York", "addr:housenumber": "20", "addr:postcode": "M3L 1A1", "addr:street": "Beverly Hills Drive", "amenity": "school", "denomination": "catholic", "fax": "+1-416-393-5032", "isced:level": "1;2", "name": "St. John the Evangelist Catholic School", "opendata:type": "102003", "operator": "Toronto Catholic District School Board", "operator:short": "TCDSB", "operator:type": "public", "operator:wikidata": "Q405337", "phone": "+1-416-393-5244", "religion": "christian", "school:language": "english", "website": "http://stjohntheevangelist.tcdsb.org"}}]}