{"version": 0.6, "generator": "Overpass API 0.7.62.5 1bd436f1", "osm3s": {"timestamp_osm_base": "2025-03-11T12:54:15Z", "copyright": "The data included in this document is from www.openstreetmap.org. The data is made available under ODbL."}, "elements": [{"type": "node", "id": 410798660, "lat": 43.7607635, "lon": -79.4992241, "tags": {"description": "has Tim Hortons", "name": "SuperStop", "shop": "convenience"}}, {"type": "node", "id": 1111981805, "lat": 43.7742228, "lon": -79.5016527, "tags": {"addr:city": "Toronto", "addr:housenumber": "80", "addr:postcode": "M3J 1P3", "addr:province": "ON", "addr:street": "York Boulevard", "email": "york@grocerycheckout.com", "name": "Grocery Checkout", "phone": "+1 343-884-5255", "shop": "convenience", "wheelchair": "yes"}}, {"type": "node", "id": 1112300333, "lat": 43.7524273, "lon": -79.4671335}, {"type": "node", "id": 1112300342, "lat": 43.7523794, "lon": -79.4669805}, {"type": "node", "id": 1112300409, "lat": 43.752342, "lon": -79.4670472}, {"type": "node", "id": 1112300428, "lat": 43.7524482, "lon": -79.4671559}, {"type": "node", "id": 1112300486, "lat": 43.7523657, "lon": -79.4670727}, {"type": "node", "id": 1112300494, "lat": 43.7524837, "lon": -79.4670925}, {"type": "node", "id": 1131481061, "lat": 43.7738905, "lon": -79.5025215, "tags": {"name": "Gateway", "shop": "convenience"}}, {"type": "node", "id": 1244924659, "lat": 43.7737278, "lon": -79.492129, "tags": {"shop": "convenience"}}, {"type": "node", "id": 1421538657, "lat": 43.7766394, "lon": -79.4696515, "tags": {"addr:city": "North York", "addr:housenumber": "4750", "addr:postcode": "M3H 5S7", "addr:street": "Dufferin Street", "name": "Coppa's Fresh Market", "phone": "+1-416-736-6606", "shop": "supermarket"}}, {"type": "node", "id": 1460719998, "lat": 43.7683317, "lon": -79.4720835, "tags": {"shop": "convenience"}}, {"type": "node", "id": 1985039953, "lat": 43.784114, "lon": -79.4711047}, {"type": "node", "id": 1985039954, "lat": 43.7841241, "lon": -79.4715073}, {"type": "node", "id": 1985039955, "lat": 43.78417, "lon": -79.4716504}, {"type": "node", "id": 1985039956, "lat": 43.7842277, "lon": -79.4714436}, {"type": "node", "id": 1985039957, "lat": 43.7842868, "lon": -79.4715786}, {"type": "node", "id": 1985039958, "lat": 43.7844638, "lon": -79.4723528}, {"type": "node", "id": 1985039961, "lat": 43.7845098, "lon": -79.4724964}, {"type": "node", "id": 1985039962, "lat": 43.7845231, "lon": -79.4723164}, {"type": "node", "id": 1985039963, "lat": 43.784559, "lon": -79.4724661}, {"type": "node", "id": 1985039964, "lat": 43.7846619, "lon": -79.4727876}, {"type": "node", "id": 1985039965, "lat": 43.7848408, "lon": -79.4706271}, {"type": "node", "id": 1985039966, "lat": 43.7849059, "lon": -79.4708305}, {"type": "node", "id": 1985039967, "lat": 43.7849869, "lon": -79.4707807}, {"type": "node", "id": 1985039969, "lat": 43.7849955, "lon": -79.4709692}, {"type": "node", "id": 1985039970, "lat": 43.7850388, "lon": -79.4709427}, {"type": "node", "id": 1985039971, "lat": 43.785207, "lon": -79.4724526}, {"type": "node", "id": 1985039972, "lat": 43.7852227, "lon": -79.4725015}, {"type": "node", "id": 1985039973, "lat": 43.785242, "lon": -79.471739}, {"type": "node", "id": 1985039974, "lat": 43.7852904, "lon": -79.4717092}, {"type": "node", "id": 1985039975, "lat": 43.7852937, "lon": -79.4718743}, {"type": "node", "id": 1985039976, "lat": 43.7853002, "lon": -79.4723981}, {"type": "node", "id": 1985039977, "lat": 43.7853151, "lon": -79.4724447}, {"type": "node", "id": 1985039979, "lat": 43.7853351, "lon": -79.4718488}, {"type": "node", "id": 1985039980, "lat": 43.7853852, "lon": -79.4722697}, {"type": "node", "id": 1985039981, "lat": 43.7854056, "lon": -79.4723333}, {"type": "node", "id": 1985039983, "lat": 43.7854145, "lon": -79.4722516}, {"type": "node", "id": 2384477952, "lat": 43.7626936, "lon": -79.5020368, "tags": {"name": "CONVENIENCE STORE", "note": "Friendliest people in the world. You can buy Nollywood films here.", "opening_hours": "Mo-Su 10:00-10:00", "shop": "convenience"}}, {"type": "node", "id": 3283163145, "lat": 43.7854533, "lon": -79.4737629, "tags": {"brand": "Bulk Barn", "brand:wikidata": "Q4996466", "brand:wikipedia": "en:Bulk Barn", "name": "Bulk Barn", "shop": "supermarket"}}, {"type": "node", "id": 3306493403, "lat": 43.7541597, "lon": -79.4876884, "tags": {"addr:city": "North York", "addr:housenumber": "3685", "addr:postcode": "M3J 3H6", "addr:street": "Keele Street", "alt_name": "Vito's No Frills", "brand": "No Frills", "brand:wikidata": "Q3342407", "brand:wikipedia": "en:No Frills (grocery store)", "name": "No Frills", "opening_hours": "Mo-Su 08:00-21:00", "shop": "supermarket"}}, {"type": "node", "id": 3306518480, "lat": 43.7551773, "lon": -79.4883549, "tags": {"addr:city": "North York", "addr:housenumber": "3701", "addr:postcode": "M3J 1N1", "addr:street": "Keele Street", "name": "Danforth Food Mart", "opening_hours": "Mo-Su 08:00-21:00", "operator": "Mr. Soow", "shop": "supermarket"}}, {"type": "node", "id": 3329263290, "lat": 43.7864522, "lon": -79.4705573, "tags": {"brand": "Circle K", "brand:wikidata": "Q3268010", "brand:wikipedia": "en:Circle K", "name": "Circle K", "operator": "Esso", "shop": "convenience"}}, {"type": "node", "id": 3329263844, "lat": 43.7849607, "lon": -79.4707968, "tags": {"entrance": "yes"}}, {"type": "node", "id": 3329263845, "lat": 43.7850146, "lon": -79.4709575, "tags": {"entrance": "yes"}}, {"type": "node", "id": 3329264094, "lat": 43.7842091, "lon": -79.4716264, "tags": {"amenity": "loading_dock"}}, {"type": "node", "id": 3594694567, "lat": 43.7461503, "lon": -79.4873984, "tags": {"name": "Long Fa Supermarket", "shop": "supermarket"}}, {"type": "node", "id": 3594705798, "lat": 43.7458999, "lon": -79.4874484, "tags": {"name": "Bob Variety Store", "shop": "convenience"}}, {"type": "node", "id": 4228616955, "lat": 43.7645439, "lon": -79.4678185, "tags": {"name": "Yummy Market", "shop": "supermarket", "website": "https://yummymarket.com/"}}, {"type": "node", "id": 4948909588, "lat": 43.7578012, "lon": -79.4880627}, {"type": "node", "id": 4948909589, "lat": 43.7577949, "lon": -79.4880915}, {"type": "node", "id": 4948909590, "lat": 43.7574861, "lon": -79.4879621}, {"type": "node", "id": 4948909591, "lat": 43.7572618, "lon": -79.4889889}, {"type": "node", "id": 4948909592, "lat": 43.7575297, "lon": -79.4891011}, {"type": "node", "id": 4948909593, "lat": 43.7575078, "lon": -79.489201}, {"type": "node", "id": 4948909594, "lat": 43.7575341, "lon": -79.489212}, {"type": "node", "id": 4948909595, "lat": 43.7575238, "lon": -79.4892591}, {"type": "node", "id": 4948909596, "lat": 43.7577827, "lon": -79.4893319}, {"type": "node", "id": 4948909597, "lat": 43.7577869, "lon": -79.4893084}, {"type": "node", "id": 4948909598, "lat": 43.7578895, "lon": -79.4893567}, {"type": "node", "id": 4948909599, "lat": 43.7578975, "lon": -79.4893201}, {"type": "node", "id": 4948909600, "lat": 43.7579598, "lon": -79.4893462}, {"type": "node", "id": 4948909601, "lat": 43.7579752, "lon": -79.4892757}, {"type": "node", "id": 4948909602, "lat": 43.7580126, "lon": -79.4892913}, {"type": "node", "id": 4948909603, "lat": 43.7582408, "lon": -79.4882469}, {"type": "node", "id": 5317563351, "lat": 43.7574271, "lon": -79.4890581}, {"type": "node", "id": 5793561214, "lat": 43.7697182, "lon": -79.502086, "tags": {"name": "Gateway on the Go", "shop": "convenience"}}, {"type": "node", "id": 6709004403, "lat": 43.7540623, "lon": -79.4685692, "tags": {"brand": "The Grocery Outlet", "brand:wikidata": "Q16062155", "brand:wikipedia": "en:The Grocery Outlet", "name": "The Grocery Outlet", "shop": "supermarket"}}, {"type": "node", "id": 7553669559, "lat": 43.7629324, "lon": -79.4914377, "tags": {"shop": "convenience"}}, {"type": "node", "id": 7553669560, "lat": 43.7645938, "lon": -79.4889872, "tags": {"shop": "convenience"}}, {"type": "node", "id": 7553790776, "lat": 43.7815083, "lon": -79.4901462, "tags": {"name": "International Delicatessen Foods", "shop": "supermarket"}}, {"type": "node", "id": 7553862592, "lat": 43.7861594, "lon": -79.4734519, "tags": {"shop": "convenience"}}, {"type": "node", "id": 7553898539, "lat": 43.7682653, "lon": -79.4671017, "tags": {"brand": "Circle K", "brand:wikidata": "Q3268010", "brand:wikipedia": "en:Circle K", "name": "Circle K", "shop": "convenience"}}, {"type": "node", "id": 7553898542, "lat": 43.7676128, "lon": -79.4700336, "tags": {"name": "Downsview Outlet Variety Store", "shop": "convenience"}}, {"type": "node", "id": 9244703436, "lat": 43.7576424, "lon": -79.4880276}, {"type": "node", "id": 10845293439, "lat": 43.7634154, "lon": -79.4994666, "tags": {"addr:housenumber": "45", "addr:street": "Four Winds Drive", "name": "Your Community Grocer", "opening_hours": "Mo-Sa 09:00-22:00; Su 08:00-23:00", "phone": "+1 416-663-6000", "shop": "supermarket", "website": "https://ycgrocer.com/"}}, {"type": "way", "id": 96002161, "nodes": [1112300333, 1112300428, 1112300494, 1112300342, 1112300409, 1112300486, 1112300333], "tags": {"addr:city": "North York", "addr:housenumber": "1138", "addr:postcode": "M3K 2A2", "addr:street": "Sheppard Avenue West", "brand": "Circle K", "brand:wikidata": "Q3268010", "building": "retail", "name": "Circle K", "shop": "convenience"}}, {"type": "way", "id": 187865631, "nodes": [1985039964, 1985039963, 1985039961, 1985039958, 1985039962, 1985039957, 3329264094, 1985039955, 1985039954, 1985039956, 1985039953, 1985039965, 1985039966, 3329263844, 1985039967, 1985039970, 3329263845, 1985039969, 1985039973, 1985039974, 1985039979, 1985039975, 1985039983, 1985039980, 1985039981, 1985039976, 1985039977, 1985039972, 1985039971, 1985039964], "tags": {"addr:city": "North York", "addr:housenumber": "51", "addr:postcode": "M3J 3N4", "addr:province": "ON", "addr:street": "Gerry Fitzgerald Drive", "branch": "Dufferin & Steeles", "brand": "Real Canadian Superstore", "brand:wikidata": "Q7300856", "brand:wikipedia": "en:Real Canadian Superstore", "building": "retail", "building:levels": "2", "gst_number": "12223-5922 RT0001", "name": "Real Canadian Superstore", "opening_hours": "Su-Mo 07:00-23:00", "operator": "Loblaws", "phone": "+1-416-665-3209", "shop": "supermarket", "source": "Bing", "store_name": "Dufferin & Steeles", "website": "https://www.realcanadiansuperstore.ca/store-locator/details/1033"}}, {"type": "way", "id": 504775784, "nodes": [4948909603, 4948909602, 4948909601, 4948909600, 4948909599, 4948909598, 4948909597, 4948909596, 4948909595, 4948909594, 4948909593, 4948909592, 5317563351, 4948909591, 4948909590, 9244703436, 4948909589, 4948909588, 4948909603], "tags": {"brand": "Walmart", "brand:wikidata": "Q483551", "brand:wikipedia": "en:Walmart", "building": "retail", "building:colour": "beige", "building:levels": "2", "name": "Walmart Supercentre", "shop": "supermarket", "store_ref": "01139", "website": "https://www.walmart.ca/en/stores-near-me/toronto-downsview-1139", "website:en": "https://www.walmart.ca/en/stores-near-me/toronto-downsview-1139", "website:fr": "https://www.walmart.ca/fr/magasins-pres-de-chez-moi/toronto-downsview-1139"}}]}