{"version": 0.6, "generator": "Overpass API 0.7.62.5 1bd436f1", "osm3s": {"timestamp_osm_base": "2025-03-11T10:42:53Z", "copyright": "The data included in this document is from www.openstreetmap.org. The data is made available under ODbL."}, "elements": [{"type": "node", "id": 364870906, "lat": 43.7618622, "lon": -79.2448036}, {"type": "node", "id": 418586888, "lat": 43.7791348, "lon": -79.2260781}, {"type": "node", "id": 418586889, "lat": 43.7779574, "lon": -79.2256016}, {"type": "node", "id": 418586890, "lat": 43.7784283, "lon": -79.2235204}, {"type": "node", "id": 418586891, "lat": 43.7793889, "lon": -79.2239238}, {"type": "node", "id": 418586893, "lat": 43.7771393, "lon": -79.2292367}, {"type": "node", "id": 418586894, "lat": 43.7793021, "lon": -79.2301036}, {"type": "node", "id": 418586895, "lat": 43.7794756, "lon": -79.2294083}, {"type": "node", "id": 418586896, "lat": 43.7803308, "lon": -79.2297517}, {"type": "node", "id": 418586897, "lat": 43.7806902, "lon": -79.2280522}, {"type": "node", "id": 418586898, "lat": 43.7776785, "lon": -79.2268849}, {"type": "node", "id": 427667523, "lat": 43.762487, "lon": -79.245559}, {"type": "node", "id": 427667524, "lat": 43.7631063, "lon": -79.2439079}, {"type": "node", "id": 427667525, "lat": 43.7626089, "lon": -79.2436229}, {"type": "node", "id": 427667526, "lat": 43.7622836, "lon": -79.2453031}, {"type": "node", "id": 427676469, "lat": 43.7710542, "lon": -79.2477603}, {"type": "node", "id": 427676470, "lat": 43.7707325, "lon": -79.2472842}, {"type": "node", "id": 427676471, "lat": 43.7705569, "lon": -79.2474634}, {"type": "node", "id": 427676472, "lat": 43.7703259, "lon": -79.2470282}, {"type": "node", "id": 427676473, "lat": 43.7700209, "lon": -79.2473482}, {"type": "node", "id": 427677109, "lat": 43.7690415, "lon": -79.2399518}, {"type": "node", "id": 427677110, "lat": 43.7687243, "lon": -79.2414046}, {"type": "node", "id": 427677111, "lat": 43.7675545, "lon": -79.2409217}, {"type": "node", "id": 427677112, "lat": 43.7678571, "lon": -79.2394731}, {"type": "node", "id": 427690997, "lat": 43.7709258, "lon": -79.2483138}, {"type": "node", "id": 427690998, "lat": 43.7702927, "lon": -79.2482448}, {"type": "node", "id": 427690999, "lat": 43.7699109, "lon": -79.2474714}, {"type": "node", "id": 436764394, "lat": 43.7720223, "lon": -79.2363196}, {"type": "node", "id": 436764395, "lat": 43.7725367, "lon": -79.2350579}, {"type": "node", "id": 436764396, "lat": 43.7718363, "lon": -79.2342339}, {"type": "node", "id": 469622527, "lat": 43.771575, "lon": -79.2360356}, {"type": "node", "id": 469622530, "lat": 43.7710172, "lon": -79.2354262}, {"type": "node", "id": 618411347, "lat": 43.7626403, "lon": -79.2451502}, {"type": "node", "id": 841337569, "lat": 43.765984, "lon": -79.235261}, {"type": "node", "id": 841337570, "lat": 43.7644745, "lon": -79.235127}, {"type": "node", "id": 841337571, "lat": 43.7658644, "lon": -79.2345726}, {"type": "node", "id": 841337572, "lat": 43.7642384, "lon": -79.2350716}, {"type": "node", "id": 1123089193, "lat": 43.7724291, "lon": -79.2349218}, {"type": "node", "id": 1123089194, "lat": 43.7724735, "lon": -79.2348296}, {"type": "node", "id": 2336584772, "lat": 43.770265, "lon": -79.2480917}, {"type": "node", "id": 2336725341, "lat": 43.7780489, "lon": -79.2270285}, {"type": "node", "id": 2336725342, "lat": 43.7783967, "lon": -79.2268646}, {"type": "node", "id": 2336725343, "lat": 43.7790374, "lon": -79.2264111}, {"type": "node", "id": 2336725344, "lat": 43.7799343, "lon": -79.2260956}, {"type": "node", "id": 2336725345, "lat": 43.7805394, "lon": -79.2260266}, {"type": "node", "id": 2336725346, "lat": 43.7811587, "lon": -79.2261449}, {"type": "node", "id": 3951079027, "lat": 43.7568589, "lon": -79.2401353}, {"type": "node", "id": 3951079028, "lat": 43.7573139, "lon": -79.2419019}, {"type": "node", "id": 3951079029, "lat": 43.7580737, "lon": -79.2406031}, {"type": "node", "id": 4826075350, "lat": 43.7653929, "lon": -79.2361173}, {"type": "node", "id": 4826075353, "lat": 43.7640712, "lon": -79.2358302}, {"type": "node", "id": 4826146683, "lat": 43.7651377, "lon": -79.2356214}, {"type": "node", "id": 4827962066, "lat": 43.7658548, "lon": -79.2354594}, {"type": "node", "id": 5298741240, "lat": 43.7659778, "lon": -79.2352594}, {"type": "node", "id": 6406936075, "lat": 43.7699627, "lon": -79.2475498}, {"type": "node", "id": 6597964268, "lat": 43.7784594, "lon": -79.2297658}, {"type": "node", "id": 6597964273, "lat": 43.7805846, "lon": -79.2285516}, {"type": "node", "id": 6605512760, "lat": 43.7641961, "lon": -79.2360937}, {"type": "node", "id": 6605512761, "lat": 43.7573147, "lon": -79.2413426}, {"type": "node", "id": 6605512762, "lat": 43.7572554, "lon": -79.2418796}, {"type": "node", "id": 6605512763, "lat": 43.7566337, "lon": -79.241149}, {"type": "node", "id": 9625420141, "lat": 43.7653305, "lon": -79.2359983}, {"type": "node", "id": 9625420142, "lat": 43.7652851, "lon": -79.2357621}, {"type": "node", "id": 9625420143, "lat": 43.7651758, "lon": -79.2358048}, {"type": "node", "id": 9625420144, "lat": 43.7642904, "lon": -79.2359692}, {"type": "node", "id": 9625420145, "lat": 43.7642285, "lon": -79.2359242}, {"type": "node", "id": 9625420148, "lat": 43.7640301, "lon": -79.2360284}, {"type": "node", "id": 9625420150, "lat": 43.7641106, "lon": -79.2360984}, {"type": "node", "id": 9625420151, "lat": 43.7641525, "lon": -79.2360757}, {"type": "node", "id": 9625420152, "lat": 43.7640821, "lon": -79.2360513}, {"type": "node", "id": 12442809264, "lat": 43.7715114, "lon": -79.2347068}, {"type": "node", "id": 12555787646, "lat": 43.7690275, "lon": -79.2399465}, {"type": "node", "id": 12555787648, "lat": 43.7690342, "lon": -79.2399852}, {"type": "node", "id": 12555787649, "lat": 43.7689634, "lon": -79.2399203}, {"type": "node", "id": 12555787655, "lat": 43.7679414, "lon": -79.2395072}, {"type": "node", "id": 12555787656, "lat": 43.7677017, "lon": -79.2402171}, {"type": "way", "id": 35800152, "nodes": [418586888, 418586889, 418586890, 418586891, 418586888], "tags": {"addr:city": "Toronto", "addr:housenumber": "2300", "addr:postcode": "M1G 3M7", "addr:street": "Ellesmere Road", "amenity": "school", "denomination": "catholic", "fax": "+1-416-397-6297", "isced:level": "1;2", "name": "St. Thomas More Catholic School", "opendata:type": "102003", "operator": "Toronto Catholic District School Board", "operator:short": "TCDSB", "operator:type": "public", "operator:wikidata": "Q405337", "phone": "+1-416-393-5322", "religion": "christian", "school:language": "english", "source": "Yahoo", "website": "http://stthomasmore.tcdsb.org"}}, {"type": "way", "id": 35800153, "nodes": [418586893, 6597964268, 418586894, 418586895, 418586896, 6597964273, 418586897, 2336725341, 418586898, 418586893], "tags": {"addr:city": "Toronto", "addr:housenumber": "2222", "addr:postcode": "M1G 3M3", "addr:street": "Ellesmere Road", "amenity": "school", "fax": "+1-416-396-4569", "isced:level": "3", "mascot": "Wildcats", "name": "Woburn Collegiate Institute", "operator": "Toronto District School Board", "operator:short": "TDSB", "operator:type": "public", "operator:wikidata": "Q1189302", "operator:wikipedia": "en:Toronto District School Board", "phone": "+1-416-396-4575", "school:language": "english", "source": "Contains public sector Datasets made available under the City of Toronto's Open Data License v2.0.", "website": "http://www.woburnci.ca", "wikidata": "Q8028969", "wikipedia:en": "Woburn Collegiate Institute"}}, {"type": "way", "id": 36785083, "nodes": [427667523, 618411347, 427667524, 427667525, 364870906, 427667526, 427667523], "tags": {"addr:city": "Scarborough", "addr:housenumber": "61", "addr:postcode": "M1H 1M4", "addr:street": "Benshire Drive", "amenity": "school", "fax": "+1-416-396-3391", "isced:level": "1", "name": "Bendale Junior Public School", "operator": "Toronto District School Board", "operator:short": "TDSB", "operator:type": "public", "operator:wikidata": "Q1189302", "operator:wikipedia": "en:Toronto District School Board", "phone": "+1-416-396-6045", "school:language": "english", "source": "yahoo", "website": "https://schoolweb.tdsb.on.ca/bendalejr/Home.aspx"}}, {"type": "way", "id": 36786284, "nodes": [427677109, 12555787648, 427677110, 427677111, 12555787656, 427677112, 12555787655, 12555787649, 12555787646, 427677109], "tags": {"addr:city": "Toronto", "addr:housenumber": "960", "addr:postcode": "M1H 1H1", "addr:street": "Bellamy Road North", "amenity": "school", "denomination": "catholic", "fax": "+1-416-397-6482", "isced:level": "1;2", "name": "St. Richard Catholic School", "operator": "Toronto Catholic District School Board", "operator:short": "TCDSB", "operator:type": "public", "operator:wikidata": "Q405337", "phone": "+1-416-393-5301", "religion": "christian", "school:language": "english", "website": "http://strichard.tcdsb.org"}}, {"type": "way", "id": 36787819, "nodes": [427676469, 427690997, 427690998, 2336584772, 6406936075, 427690999, 427676473, 427676472, 427676471, 427676470, 427676469], "tags": {"addr:city": "Scarborough", "addr:housenumber": "29", "addr:postcode": "M1H 2P4", "addr:street": "Aveline Crescent", "amenity": "school", "fax": "+1-416-396-5998", "isced:level": "1", "name": "North Bendale Junior Public School", "operator": "Toronto District School Board", "operator:short": "TDSB", "operator:type": "public", "operator:wikidata": "Q1189302", "operator:wikipedia": "en:Toronto District School Board", "phone": "+1-416-396-6495", "school:language": "english", "source": "Contains public sector Datasets made available under the City of Toronto's Open Data License v2.0.", "website": "https://schoolweb.tdsb.on.ca/northbendale", "wikidata": "Q56916126"}}, {"type": "way", "id": 39205032, "nodes": [436764395, 436764394, 469622527, 469622530, 12442809264, 436764396, 1123089194, 1123089193, 436764395], "tags": {"addr:city": "Scarborough", "addr:housenumber": "470", "addr:postcode": "M1H 2E6", "addr:street": "Brimorton Drive", "amenity": "school", "fax": "+1-416-396-3358", "isced:level": "1", "name": "Bellmere Junior Public School", "operator": "Toronto District School Board", "operator:short": "TDSB", "operator:type": "public", "operator:wikidata": "Q1189302", "operator:wikipedia": "en:Toronto District School Board", "phone": "+1-416-396-6040", "school:language": "english", "source": "Contains public sector Datasets made available under the City of Toronto's Open Data License v2.0.", "website": "https://schoolweb.tdsb.on.ca/bellmere/"}}, {"type": "way", "id": 70509585, "nodes": [841337571, 841337570, 841337572, 4826075353, 9625420148, 9625420152, 9625420150, 9625420151, 6605512760, 9625420145, 9625420144, 4826146683, 9625420143, 9625420142, 9625420141, 4826075350, 4827962066, 5298741240, 841337569, 841337571], "tags": {"addr:city": "Scarborough", "addr:housenumber": "112", "addr:postcode": "M1H 1X9", "addr:street": "Sedgemount Drive", "amenity": "school", "fax": "+1-416-396-6662", "isced:level": "1;2", "name": "Tredway Woodsworth Public School", "operator": "Toronto District School Board", "operator:short": "TDSB", "operator:type": "public", "operator:wikidata": "Q1189302", "operator:wikipedia": "en:Toronto District School Board", "phone": "+1-416-396-6660", "school:language": "english", "source": "yahoo", "website": "https://www.tredway.ca/"}}, {"type": "way", "id": 224818044, "nodes": [418586897, 2336725346, 2336725345, 2336725344, 2336725343, 2336725342, 2336725341, 418586897], "tags": {"addr:city": "Scarborough", "addr:housenumber": "40", "addr:postcode": "M1G 3N2", "addr:street": "Dormington Drive", "amenity": "school", "fax": "+1-416-396-6672", "isced:level": "1", "name": "Woburn Junior Public School", "operator": "Toronto District School Board", "operator:short": "TDSB", "operator:type": "public", "operator:wikidata": "Q1189302", "operator:wikipedia": "en:Toronto District School Board", "phone": "+1-416-396-6670", "school:language": "english", "source": "Contains public sector Datasets made available under the City of Toronto's Open Data License v2.0.", "website": "https://www.tdsb.on.ca/MOSS/asp_apps/school_landing_page/index.asp?schno=4798"}}, {"type": "way", "id": 391848543, "nodes": [6605512762, 3951079028, 3951079029, 3951079027, 6605512763, 6605512761, 6605512762], "tags": {"addr:city": "Toronto", "addr:housenumber": "3220", "addr:postcode": "M1H 1A4", "addr:street": "Lawrence Avenue East", "amenity": "school", "denomination": "catholic", "fax": "+1-416-397-6006", "isced:level": "1;2", "name": "St. Rose of Lima Catholic School", "operator": "Toronto Catholic District School Board", "operator:short": "TCDSB", "operator:type": "public", "operator:wikidata": "Q405337", "operator:wikipedia": "en:Toronto Catholic District School Board", "phone": "+1-416-393-5269", "religion": "christian", "school:language": "english", "website": "http://stroseoflima.tcdsb.org", "wikidata": "Q52864110"}}]}