{"version": 0.6, "generator": "Overpass API 0.7.62.5 1bd436f1", "osm3s": {"timestamp_osm_base": "2025-03-11T10:46:58Z", "copyright": "The data included in this document is from www.openstreetmap.org. The data is made available under ODbL."}, "elements": [{"type": "node", "id": 608746068, "lat": 43.7730825, "lon": -79.2512864, "tags": {"amenity": "restaurant", "name": "All-Star Wings & Ribs"}}, {"type": "node", "id": 1951926239, "lat": 43.782464, "lon": -79.234949}, {"type": "node", "id": 1951926241, "lat": 43.782511, "lon": -79.235022}, {"type": "node", "id": 1951926242, "lat": 43.782529, "lon": -79.234728}, {"type": "node", "id": 1951926263, "lat": 43.782522, "lon": -79.234981}, {"type": "node", "id": 1951926265, "lat": 43.782564, "lon": -79.235085}, {"type": "node", "id": 1951926267, "lat": 43.782573, "lon": -79.235057}, {"type": "node", "id": 1951926269, "lat": 43.782734, "lon": -79.235179}, {"type": "node", "id": 1951926272, "lat": 43.78274, "lon": -79.235161}, {"type": "node", "id": 1951926274, "lat": 43.782763, "lon": -79.235174}, {"type": "node", "id": 1951926275, "lat": 43.782778, "lon": -79.235123}, {"type": "node", "id": 1951926277, "lat": 43.782791, "lon": -79.23513}, {"type": "node", "id": 1951926279, "lat": 43.782825, "lon": -79.235014}, {"type": "node", "id": 1951926281, "lat": 43.782842, "lon": -79.234957}, {"type": "node", "id": 1951926283, "lat": 43.782857, "lon": -79.235032}, {"type": "node", "id": 1951926285, "lat": 43.782856, "lon": -79.234909}, {"type": "node", "id": 1951926287, "lat": 43.782874, "lon": -79.234974}, {"type": "node", "id": 2735377659, "lat": 43.7807367, "lon": -79.2360434, "tags": {"addr:city": "Toronto", "addr:housenumber": "885", "addr:postcode": "M1H 2G3", "addr:street": "Progress Avenue", "amenity": "restaurant", "cuisine": "indian", "name": "Madras Centennial Cafe", "phone": "+1-416-431-1020", "source": "ground survey", "website": "http://www.madrascentennialcafe.ca/"}}, {"type": "node", "id": 3314849644, "lat": 43.7762648, "lon": -79.2343599, "tags": {"addr:city": "Scarborough", "amenity": "restaurant", "name": "Haka legend"}}, {"type": "node", "id": 3739750559, "lat": 43.7785233, "lon": -79.2320906, "tags": {"amenity": "restaurant", "cuisine": "buffet", "name": "Scarborough Buffet"}}, {"type": "node", "id": 6594592576, "lat": 43.7673738, "lon": -79.2287774, "tags": {"amenity": "restaurant", "cuisine": "indian", "name": "Mirchi Dhaba"}}, {"type": "node", "id": 6594604560, "lat": 43.7681254, "lon": -79.2290443, "tags": {"amenity": "restaurant", "name": "Fabian's Cafe"}}, {"type": "node", "id": 6600812039, "lat": 43.7592953, "lon": -79.2293516, "tags": {"amenity": "restaurant", "name": "Lawrence Bar & Grill"}}, {"type": "node", "id": 6600812045, "lat": 43.7601529, "lon": -79.2269673, "tags": {"amenity": "restaurant", "name": "Smilin' Jacks"}}, {"type": "node", "id": 6600812047, "lat": 43.7598236, "lon": -79.2273694, "tags": {"amenity": "restaurant", "cuisine": "indian", "name": "Tanjore"}}, {"type": "node", "id": 7183243395, "lat": 43.7844428, "lon": -79.230689, "tags": {"addr:housenumber": "937", "addr:postcode": "M1G 3T8", "addr:street": "Progress Avenue", "amenity": "restaurant", "name": "The Local Caf\u00e9 & Restaurant", "opening_hours": "Mo-Fr 11:30-13:30,17:00-19:30; Sa,Su 11:00-14:00", "phone": "+1-416-289-5000x6897", "website": "https://thelocalrestaurant.ca"}}, {"type": "node", "id": 7766352990, "lat": 43.7575383, "lon": -79.2386412, "tags": {"amenity": "restaurant", "name": "Bendale Restaurant"}}, {"type": "node", "id": 7766352993, "lat": 43.757485, "lon": -79.238963, "tags": {"amenity": "restaurant", "cuisine": "chinese", "name": "Charcoal Kabob House"}}, {"type": "node", "id": 7766353008, "lat": 43.7579374, "lon": -79.2360185, "tags": {"amenity": "restaurant", "cuisine": "caribbean", "name": "D'Pavilion"}}, {"type": "node", "id": 9554538880, "lat": 43.7764326, "lon": -79.2347677, "tags": {"amenity": "restaurant", "name": "Dspot"}}, {"type": "node", "id": 9554538881, "lat": 43.7763906, "lon": -79.2349717, "tags": {"amenity": "restaurant", "cuisine": "chinese"}}, {"type": "node", "id": 11091247859, "lat": 43.7729563, "lon": -79.2492627, "tags": {"addr:housenumber": "1686", "addr:street": "Ellesmere Road", "amenity": "restaurant", "name": "JC\u2019s Banquet & Grill House", "phone": "+1 416 290 6186"}}, {"type": "node", "id": 12150132263, "lat": 43.7753971, "lon": -79.2387826, "tags": {"amenity": "restaurant", "cuisine": "indian", "name": "Gwalia"}}, {"type": "way", "id": 184693550, "nodes": [1951926287, 1951926281, 1951926285, 1951926242, 1951926239, 1951926263, 1951926241, 1951926267, 1951926265, 1951926269, 1951926272, 1951926274, 1951926275, 1951926277, 1951926279, 1951926283, 1951926287], "tags": {"addr:city": "Toronto", "addr:housenumber": "60", "addr:postcode": "M1H 2Z1", "addr:street": "Estate Drive", "alt_name": "The Keg Steakhouse + Bar - Estate Drive", "amenity": "restaurant", "brand": "The Keg", "brand:wikidata": "Q7744066", "brand:wikipedia": "en:The Keg", "building": "retail", "cuisine": "steak_house", "name": "The Keg", "opendata:type": "107001", "phone": "+1-416-438-1452", "website": "https://thekeg.com/en/locations/estate-drive", "website:en": "https://thekeg.com/en/locations/estate-drive", "website:fr": "https://thekeg.com/fr/restaurants/estate-drive"}}]}