{"version": 0.6, "generator": "Overpass API 0.7.62.5 1bd436f1", "osm3s": {"timestamp_osm_base": "2025-03-11T10:48:00Z", "copyright": "The data included in this document is from www.openstreetmap.org. The data is made available under ODbL."}, "elements": [{"type": "node", "id": 964114001, "lat": 43.732807, "lon": -79.2686589, "tags": {"addr:housenumber": "790", "addr:street": "Kennedy Road", "amenity": "restaurant", "cuisine": "bangladeshi", "name": "Ghoroaa", "note": "formerly Badshah Grill (after Sinopino)", "phone": "+1-416-759-9191", "website": "https://www.ghoroaarestaurant.ca/"}}, {"type": "node", "id": 964114014, "lat": 43.732078, "lon": -79.2707616, "tags": {"amenity": "restaurant", "cuisine": "jamaican", "name": "Sea Town West Indian Restaurant"}}, {"type": "node", "id": 964114057, "lat": 43.7324133, "lon": -79.2692585, "tags": {"amenity": "restaurant", "cuisine": "jamaican", "name": "Caribbean Splash"}}, {"type": "node", "id": 964114136, "lat": 43.7323889, "lon": -79.2693336, "tags": {"amenity": "restaurant", "cuisine": "chinese", "name": "Chung Moi"}}, {"type": "node", "id": 3949308057, "lat": 43.733552, "lon": -79.2661947, "tags": {"amenity": "restaurant", "cuisine": "hakka", "name": "Good Luck Hakka Indian Style Chinese Food"}}]}