{"version": 0.6, "generator": "Overpass API 0.7.62.5 1bd436f1", "osm3s": {"timestamp_osm_base": "2025-02-19T16:05:15Z", "copyright": "The data included in this document is from www.openstreetmap.org. The data is made available under ODbL."}, "elements": [{"type": "node", "id": 385626635, "lat": 43.7202687, "lon": -79.2573996}, {"type": "node", "id": 385626636, "lat": 43.7187398, "lon": -79.2586139}, {"type": "node", "id": 385626637, "lat": 43.7185435, "lon": -79.2582133}, {"type": "node", "id": 385626638, "lat": 43.7177769, "lon": -79.2582785}, {"type": "node", "id": 385626639, "lat": 43.7181462, "lon": -79.2565469}, {"type": "node", "id": 418985167, "lat": 43.7341499, "lon": -79.2523546}, {"type": "node", "id": 418985168, "lat": 43.7345186, "lon": -79.2505148}, {"type": "node", "id": 418985169, "lat": 43.7339461, "lon": -79.2502798}, {"type": "node", "id": 418985170, "lat": 43.7330001, "lon": -79.251099}, {"type": "node", "id": 418985171, "lat": 43.732806, "lon": -79.2514548}, {"type": "node", "id": 418985172, "lat": 43.7327284, "lon": -79.2517704}, {"type": "node", "id": 418985249, "lat": 43.7303791, "lon": -79.2509292}, {"type": "node", "id": 418985251, "lat": 43.7297866, "lon": -79.2513471}, {"type": "node", "id": 418985254, "lat": 43.7280159, "lon": -79.2508543}, {"type": "node", "id": 418985258, "lat": 43.7292077, "lon": -79.2560197}, {"type": "node", "id": 418985259, "lat": 43.7282745, "lon": -79.2601058}, {"type": "node", "id": 418985260, "lat": 43.7279194, "lon": -79.2595305}, {"type": "node", "id": 418985261, "lat": 43.727604, "lon": -79.2588171}, {"type": "node", "id": 418985262, "lat": 43.7270885, "lon": -79.257172}, {"type": "node", "id": 418985263, "lat": 43.7274827, "lon": -79.2552333}, {"type": "node", "id": 418985266, "lat": 43.7271507, "lon": -79.2626684}, {"type": "node", "id": 418985267, "lat": 43.7259692, "lon": -79.262461}, {"type": "node", "id": 429364717, "lat": 43.72851, "lon": -79.2501227}, {"type": "node", "id": 2336690053, "lat": 43.7276394, "lon": -79.2565016, "tags": {"addr:city": "Toronto", "addr:housenumber": "720", "addr:postcode": "M1K 4C9", "addr:street": "Midland Avenue", "amenity": "school", "fax": "+1-416-396-6739", "isced:level": "3", "name": "Scarborough Centre for Alternative Studies", "operator": "Toronto District School Board", "operator:short": "TDSB", "operator:type": "public", "operator:wikidata": "Q1189302", "operator:wikipedia": "en:Toronto District School Board", "phone": "+1-416-396-6921", "school:language": "english", "source": "Contains public sector Datasets made available under the City of Toronto's Open Data License v2.0.", "start_date": "1986-09-01", "website": "http://www.scasonline.com", "wikidata": "Q14875415", "wikipedia": "en:Scarborough Centre for Alternative Studies"}}, {"type": "node", "id": 2520224740, "lat": 43.7265108, "lon": -79.2613725}, {"type": "node", "id": 2520224743, "lat": 43.7266501, "lon": -79.2607517}, {"type": "node", "id": 2520226244, "lat": 43.7273569, "lon": -79.2618151}, {"type": "node", "id": 2615173259, "lat": 43.7284491, "lon": -79.2593214}, {"type": "node", "id": 2615173265, "lat": 43.7285133, "lon": -79.259381}, {"type": "node", "id": 2615173270, "lat": 43.7286412, "lon": -79.2584958}, {"type": "node", "id": 2615173271, "lat": 43.728626, "lon": -79.2585262}, {"type": "node", "id": 2615173273, "lat": 43.7286342, "lon": -79.2591029}, {"type": "node", "id": 2615173274, "lat": 43.7286359, "lon": -79.2586238}, {"type": "node", "id": 2615173276, "lat": 43.7286774, "lon": -79.2589053}, {"type": "node", "id": 2789309343, "lat": 43.7291244, "lon": -79.2656811}, {"type": "node", "id": 2789309344, "lat": 43.729345, "lon": -79.2646403}, {"type": "node", "id": 2789309345, "lat": 43.7295122, "lon": -79.2667221}, {"type": "node", "id": 2789309346, "lat": 43.7296935, "lon": -79.2659342}, {"type": "node", "id": 2789309347, "lat": 43.7299403, "lon": -79.2669067}, {"type": "node", "id": 2789309348, "lat": 43.730161, "lon": -79.2660186}, {"type": "node", "id": 2789309349, "lat": 43.730495, "lon": -79.2651144}, {"type": "node", "id": 4538387112, "lat": 43.7286821, "lon": -79.2519723}, {"type": "node", "id": 4538387113, "lat": 43.7293456, "lon": -79.2516411}, {"type": "node", "id": 5402767525, "lat": 43.7270862, "lon": -79.2629007}, {"type": "node", "id": 5402767527, "lat": 43.7263512, "lon": -79.260624}, {"type": "node", "id": 6624459374, "lat": 43.7178452, "lon": -79.2579585}, {"type": "node", "id": 10061998401, "lat": 43.7288786, "lon": -79.2574298}, {"type": "way", "id": 33725547, "nodes": [385626635, 385626636, 385626637, 385626638, 6624459374, 385626639, 385626635], "tags": {"addr:city": "Scarborough", "addr:housenumber": "725", "addr:postcode": "M1K 1G4", "addr:street": "Danforth Road", "amenity": "school", "fax": "+1-416-396-8547", "isced:level": "1", "name": "Norman Cook Junior Public School", "operator": "Toronto District School Board", "operator:short": "TDSB", "operator:type": "public", "operator:wikidata": "Q1189302", "operator:wikipedia": "en:Toronto District School Board", "phone": "+1-416-396-6485", "school:language": "english", "source": "Contains public sector Datasets made available under the City of Toronto's Open Data License v2.0.", "website": "https://schoolweb.tdsb.on.ca/normancook/"}}, {"type": "way", "id": 35836139, "nodes": [418985167, 418985168, 418985169, 418985170, 418985171, 418985172, 418985167], "tags": {"addr:city": "Scarborough", "addr:housenumber": "45", "addr:postcode": "M1K 4M7", "addr:street": "Falmouth Avenue", "amenity": "school", "fax": "+1-416-396-5774", "isced:level": "1", "name": "Walter Perry Junior Public School", "operator": "Toronto District School Board", "operator:short": "TDSB", "operator:type": "public", "operator:wikidata": "Q1189302", "operator:wikipedia": "en:Toronto District School Board", "phone": "+1-416-396-6620", "school:language": "english", "source": "Contains public sector Datasets made available under the City of Toronto's Open Data License v2.0.", "website": "https://schoolweb.tdsb.on.ca/walterperry/"}}, {"type": "way", "id": 35836165, "nodes": [418985249, 418985251, 4538387113, 4538387112, 418985254, 429364717, 418985249], "tags": {"addr:city": "Scarborough", "addr:housenumber": "945", "addr:postcode": "M1K 1J2", "addr:street": "Danforth Road", "amenity": "school", "fax": "+1-416-396-3287", "isced:level": "2", "name": "Robert Service Senior Public School", "operator": "Toronto District School Board", "operator:short": "TDSB", "operator:type": "public", "operator:wikidata": "Q1189302", "operator:wikipedia": "en:Toronto District School Board", "phone": "+1-416-396-6540", "school:language": "english", "source": "Contains public sector Datasets made available under the City of Toronto's Open Data License v2.0.", "start_date": "1972-09-05", "website": "https://schoolweb.tdsb.on.ca/robertservice"}}, {"type": "way", "id": 35836166, "nodes": [418985258, 10061998401, 2615173270, 2615173271, 2615173274, 2615173276, 2615173273, 2615173265, 2615173259, 418985259, 418985260, 418985261, 418985262, 418985263, 418985258], "tags": {"addr:city": "Toronto", "addr:housenumber": "720", "addr:postcode": "M1K 4C9", "addr:street": "Midland Avenue", "amenity": "school", "isced:level": "3", "name": "South East Year Round Alternative Centre", "operator": "Toronto District School Board", "operator:short": "TDSB", "operator:type": "public", "operator:wikidata": "Q1189302", "operator:wikipedia": "en:Toronto District School Board", "school:language": "english", "source": "yahoo", "start_date": "2006-02-01", "website": "https://www.tdsb.on.ca/MOSS/asp_apps/school_landing_page/index.asp?schno=4800", "wikidata": "Q6842307", "wikipedia": "en:Midland Avenue Collegiate Institute"}}, {"type": "way", "id": 35836168, "nodes": [2520226244, 418985266, 5402767525, 418985267, 5402767527, 2520224743, 2520224740, 2520226244], "tags": {"addr:city": "Scarborough", "addr:housenumber": "30", "addr:postcode": "M1K 3G2", "addr:street": "Corvette Avenue", "amenity": "school", "fax": "+1-416-396-6249", "isced:level": "1", "name": "Corvette Junior Public School", "operator": "Toronto District School Board", "operator:short": "TDSB", "operator:type": "public", "operator:wikidata": "Q1189302", "operator:wikipedia": "en:Toronto District School Board", "phone": "+1-416-396-6180", "school:language": "english", "source": "Contains public sector Datasets made available under the City of Toronto's Open Data License v2.0.", "website": "https://schoolweb.tdsb.on.ca/corvette"}}, {"type": "way", "id": 274163820, "nodes": [2789309349, 2789309344, 2789309343, 2789309346, 2789309345, 2789309347, 2789309348, 2789309349], "tags": {"addr:city": "Toronto", "addr:housenumber": "21", "addr:postcode": "M1K 3N8", "addr:street": "Kenmark Boulevard", "amenity": "school", "denomination": "catholic", "fax": "+1-416-397-6371", "isced:level": "1;2", "name": "St. Maria Goretti Catholic School", "operator": "Toronto Catholic District School Board", "operator:short": "TCDSB", "operator:type": "public", "operator:wikidata": "Q405337", "operator:wikipedia": "en:Toronto Catholic District School Board", "phone": "+1-416-393-5260", "religion": "christian", "school:language": "english", "website": "http://stmariagoretti.tcdsb.org", "wikidata": "Q52698310"}}]}