{"version": 0.6, "generator": "Overpass API 0.7.62.5 1bd436f1", "osm3s": {"timestamp_osm_base": "2025-02-23T00:24:48Z", "copyright": "The data included in this document is from www.openstreetmap.org. The data is made available under ODbL."}, "elements": [{"type": "node", "id": 362117074, "lat": 43.7302342, "lon": -79.5859573}, {"type": "node", "id": 362117094, "lat": 43.7299163, "lon": -79.5869125}, {"type": "node", "id": 362117102, "lat": 43.7297069, "lon": -79.5875993}, {"type": "node", "id": 362117114, "lat": 43.7294742, "lon": -79.5880608}, {"type": "node", "id": 362118532, "lat": 43.7303975, "lon": -79.5852778}, {"type": "node", "id": 363906971, "lat": 43.7521433, "lon": -79.5837531}, {"type": "node", "id": 363906987, "lat": 43.7532334, "lon": -79.5843491}, {"type": "node", "id": 364168386, "lat": 43.7517111, "lon": -79.5858788}, {"type": "node", "id": 364168387, "lat": 43.7519313, "lon": -79.5836912}, {"type": "node", "id": 364168388, "lat": 43.751694, "lon": -79.583721}, {"type": "node", "id": 364168389, "lat": 43.7515107, "lon": -79.5839375}, {"type": "node", "id": 364168391, "lat": 43.7514353, "lon": -79.5841465}, {"type": "node", "id": 364168392, "lat": 43.7513328, "lon": -79.5841987}, {"type": "node", "id": 364168394, "lat": 43.7513005, "lon": -79.5846615}, {"type": "node", "id": 364168395, "lat": 43.7511415, "lon": -79.585608}, {"type": "node", "id": 364263856, "lat": 43.7442647, "lon": -79.5823415}, {"type": "node", "id": 368150986, "lat": 43.7319892, "lon": -79.5891186}, {"type": "node", "id": 368150987, "lat": 43.7322155, "lon": -79.5881689}, {"type": "node", "id": 368150988, "lat": 43.7322651, "lon": -79.5878361}, {"type": "node", "id": 368150989, "lat": 43.7324278, "lon": -79.5864801}, {"type": "node", "id": 368150990, "lat": 43.7323995, "lon": -79.586299}, {"type": "node", "id": 368150991, "lat": 43.7322014, "lon": -79.5854129}, {"type": "node", "id": 368150992, "lat": 43.7320917, "lon": -79.5854178}, {"type": "node", "id": 368150993, "lat": 43.7319396, "lon": -79.5853835}, {"type": "node", "id": 368150994, "lat": 43.7305667, "lon": -79.5849139}, {"type": "node", "id": 368150995, "lat": 43.7304916, "lon": -79.585334}, {"type": "node", "id": 368368915, "lat": 43.751874, "lon": -79.5852142}, {"type": "node", "id": 368368916, "lat": 43.7528938, "lon": -79.5856784}, {"type": "node", "id": 371810044, "lat": 43.7484245, "lon": -79.5848148}, {"type": "node", "id": 371810054, "lat": 43.7481415, "lon": -79.5858566}, {"type": "node", "id": 371810072, "lat": 43.7480594, "lon": -79.5879361}, {"type": "node", "id": 371810092, "lat": 43.7472769, "lon": -79.5875794}, {"type": "node", "id": 371810102, "lat": 43.7464455, "lon": -79.5875244}, {"type": "node", "id": 371810111, "lat": 43.7464887, "lon": -79.5854025}, {"type": "node", "id": 371810123, "lat": 43.7468561, "lon": -79.5840677}, {"type": "node", "id": 726949413, "lat": 43.7538008, "lon": -79.5971825}, {"type": "node", "id": 726949417, "lat": 43.7546066, "lon": -79.5952845}, {"type": "node", "id": 726949421, "lat": 43.7531888, "lon": -79.5947096}, {"type": "node", "id": 726949423, "lat": 43.7542097, "lon": -79.5951235}, {"type": "node", "id": 726949426, "lat": 43.7545386, "lon": -79.597647}, {"type": "node", "id": 726949427, "lat": 43.7529909, "lon": -79.5968119}, {"type": "node", "id": 726949443, "lat": 43.7549994, "lon": -79.5956418}, {"type": "node", "id": 726949444, "lat": 43.7527524, "lon": -79.5965594}, {"type": "node", "id": 932464371, "lat": 43.7354729, "lon": -79.5888583}, {"type": "node", "id": 932464382, "lat": 43.7347802, "lon": -79.5896417}, {"type": "node", "id": 932464386, "lat": 43.7346105, "lon": -79.5904037}, {"type": "node", "id": 932464392, "lat": 43.7354114, "lon": -79.5841607}, {"type": "node", "id": 1253318563, "lat": 43.7349591, "lon": -79.582145}, {"type": "node", "id": 1253318565, "lat": 43.7358132, "lon": -79.5824497}, {"type": "node", "id": 1253318566, "lat": 43.7353483, "lon": -79.5822544}, {"type": "node", "id": 1253318568, "lat": 43.7353334, "lon": -79.5823119}, {"type": "node", "id": 1253766986, "lat": 43.7447537, "lon": -79.5901921}, {"type": "node", "id": 1253767002, "lat": 43.7451881, "lon": -79.5880735}, {"type": "node", "id": 1253772444, "lat": 43.7486303, "lon": -79.5972744}, {"type": "node", "id": 1253772454, "lat": 43.7455764, "lon": -79.5905466}, {"type": "node", "id": 1253772458, "lat": 43.7488679, "lon": -79.5950333}, {"type": "node", "id": 1253773831, "lat": 43.7501089, "lon": -79.5980165}, {"type": "node", "id": 1253773833, "lat": 43.7498799, "lon": -79.5949152}, {"type": "node", "id": 1253773836, "lat": 43.7495891, "lon": -79.5948638}, {"type": "node", "id": 1253773839, "lat": 43.7507016, "lon": -79.5952617}, {"type": "node", "id": 2334073505, "lat": 43.7366302, "lon": -79.5913278}, {"type": "node", "id": 2334073506, "lat": 43.7368438, "lon": -79.5905269}, {"type": "node", "id": 2334073507, "lat": 43.736954, "lon": -79.5893541}, {"type": "node", "id": 2334073508, "lat": 43.7370574, "lon": -79.5901741}, {"type": "node", "id": 2334073509, "lat": 43.7370987, "lon": -79.589459}, {"type": "node", "id": 2334073510, "lat": 43.7373054, "lon": -79.5898976}, {"type": "node", "id": 2334708423, "lat": 43.7340907, "lon": -79.5827013}, {"type": "node", "id": 2334708424, "lat": 43.7344282, "lon": -79.5822342}, {"type": "node", "id": 2334708425, "lat": 43.7345109, "lon": -79.5834831}, {"type": "node", "id": 2334708426, "lat": 43.7346074, "lon": -79.5837978}, {"type": "node", "id": 2334708427, "lat": 43.7346625, "lon": -79.5818814}, {"type": "node", "id": 2334720550, "lat": 43.7455047, "lon": -79.5881207}, {"type": "node", "id": 2334720553, "lat": 43.7456444, "lon": -79.5905789}, {"type": "node", "id": 2334720556, "lat": 43.7458845, "lon": -79.5882146}, {"type": "node", "id": 2334720558, "lat": 43.7458924, "lon": -79.5904168}, {"type": "node", "id": 2334720560, "lat": 43.7459475, "lon": -79.5899877}, {"type": "node", "id": 2334720562, "lat": 43.7462299, "lon": -79.588338}, {"type": "node", "id": 2334720563, "lat": 43.7462299, "lon": -79.5887862}, {"type": "node", "id": 2334902823, "lat": 43.7541252, "lon": -79.5955235}, {"type": "node", "id": 2334902824, "lat": 43.7541569, "lon": -79.5956258}, {"type": "node", "id": 7098869489, "lat": 43.7454076, "lon": -79.5818415}, {"type": "node", "id": 7098869491, "lat": 43.7454406, "lon": -79.5823632}, {"type": "node", "id": 7098869492, "lat": 43.7452972, "lon": -79.5822948}, {"type": "node", "id": 7098869493, "lat": 43.7454251, "lon": -79.581753}, {"type": "node", "id": 7098869494, "lat": 43.7452546, "lon": -79.5816645}, {"type": "node", "id": 7098869495, "lat": 43.7453204, "lon": -79.5813775}, {"type": "node", "id": 7098869496, "lat": 43.7446267, "lon": -79.5810449}, {"type": "node", "id": 7098869497, "lat": 43.7453282, "lon": -79.5828433}, {"type": "way", "id": 32352889, "nodes": [364168386, 368368915, 368368916, 363906987, 363906971, 364168387, 364168388, 364168389, 364168391, 364168392, 364168394, 364168395, 364168386], "tags": {"addr:city": "Etobicoke", "addr:housenumber": "2", "addr:postcode": "M9V 5C7", "addr:street": "Rowntree Road", "amenity": "school", "fax": "+1-416-394-6344", "isced:level": "1;2", "name": "North Kipling Junior Middle School", "operator": "Toronto District School Board", "operator:short": "TDSB", "operator:type": "public", "operator:wikidata": "Q1189302", "operator:wikipedia": "en:Toronto District School Board", "phone": "+1-416-394-6340", "school:language": "english", "source": "Contains public sector Datasets made available under the City of Toronto's Open Data License v2.0.", "start_date": "1999-09-01", "website": "https://schoolweb.tdsb.on.ca/northkipling/"}}, {"type": "way", "id": 32715185, "nodes": [368150986, 368150987, 368150988, 368150989, 368150990, 368150991, 368150992, 368150993, 368150994, 368150995, 362118532, 362117074, 362117094, 362117102, 362117114, 368150986], "tags": {"addr:city": "Toronto", "addr:housenumber": "1675", "addr:postcode": "M9V 3S3", "addr:street": "Martin Grove Road", "amenity": "school", "fax": "+1-416-394-3862", "isced:level": "3", "mascot": "Vikings", "name": "West Humber Collegiate Institute", "operator": "Toronto District School Board", "operator:short": "TDSB", "operator:type": "public", "operator:wikidata": "Q1189302", "operator:wikipedia": "en:Toronto District School Board", "phone": "+1-416-394-7570", "school:language": "english", "source": "Contains public sector Datasets made available under the City of Toronto's Open Data License v2.0.", "website": "http://www.westhumber.com", "wikidata": "Q7985427", "wikipedia": "en:West Humber Collegiate Institute"}}, {"type": "way", "id": 33001311, "nodes": [371810044, 371810054, 371810072, 371810092, 371810102, 371810111, 371810123, 371810044], "tags": {"addr:city": "Toronto", "addr:housenumber": "2580", "addr:postcode": "M9V 3B2", "addr:street": "Kipling Avenue", "amenity": "school", "fax": "+1-416-394-6902", "isced:level": "3", "mascot": "Cougars", "name": "North Albion Collegiate Institute", "operator": "Toronto District School Board", "operator:short": "TDSB", "operator:type": "public", "operator:wikidata": "Q1189302", "operator:wikipedia": "en:Toronto District School Board", "phone": "+1-416-394-7550", "school:language": "english", "source": "Contains public sector Datasets made available under the City of Toronto's Open Data License v2.0.", "website": "http://northalbionci.ca", "wikidata": "Q7053691", "wikipedia": "en:North Albion Collegiate Institute"}}, {"type": "way", "id": 58673503, "nodes": [726949426, 726949443, 726949417, 726949423, 2334902823, 2334902824, 726949413, 726949426], "tags": {"addr:city": "Toronto", "addr:housenumber": "220", "addr:postcode": "M9V 3Z5", "addr:province": "ON", "addr:street": "Mount Olive Drive", "amenity": "school", "denomination": "catholic", "fax": "+1-416-397-6041", "isced:level": "1;2", "name": "St. Angela Catholic School", "operator": "Toronto Catholic District School Board", "operator:short": "TCDSB", "operator:type": "public", "operator:wikidata": "Q405337", "phone": "+1-416-393-5361", "religion": "christian", "school:language": "english", "source": "yahoo", "start_date": "1974-09-03", "website": "http://stangela.tcdsb.org"}}, {"type": "way", "id": 58673504, "nodes": [726949413, 726949427, 726949444, 726949421, 726949423, 2334902823, 2334902824, 726949413], "tags": {"addr:city": "Etobicoke", "addr:housenumber": "202", "addr:postcode": "M9V 3Z5", "addr:street": "Mount Olive Drive", "amenity": "school", "fax": "+1-416-394-6298", "isced:level": "1", "name": "John D Parker Junior School", "operator": "Toronto District School Board", "operator:short": "TDSB", "operator:type": "public", "operator:wikidata": "Q1189302", "operator:wikipedia": "en:Toronto District School Board", "phone": "+1-416-394-7530", "school:language": "english", "source": "Contains public sector Datasets made available under the City of Toronto's Open Data License v2.0.", "start_date": "1974-09-03", "website": "https://schoolweb.tdsb.on.ca/johndparker"}}, {"type": "way", "id": 109508409, "nodes": [1253773831, 1253773839, 1253773833, 1253773836, 1253772458, 1253772444, 1253773831], "tags": {"addr:city": "Etobicoke", "addr:housenumber": "175", "addr:postcode": "M9V 2E3", "addr:street": "Mount Olive Drive", "amenity": "school", "fax": "+1-416-394-6294", "isced:level": "2", "name": "Smithfield Middle School", "operator": "Toronto District School Board", "operator:short": "TDSB", "operator:type": "public", "operator:wikidata": "Q1189302", "operator:wikipedia": "en:Toronto District School Board", "phone": "+1-416-394-7540", "school:language": "english", "source": "Contains public sector Datasets made available under the City of Toronto's Open Data License v2.0.", "website": "https://schoolweb.tdsb.on.ca/smithfield"}}, {"type": "way", "id": 224604306, "nodes": [932464386, 2334073505, 2334073506, 2334073508, 2334073510, 2334073509, 2334073507, 932464371, 932464382, 932464386], "tags": {"addr:city": "Etobicoke", "addr:housenumber": "10", "addr:postcode": "M9V 3R4", "addr:street": "Pittsboro Drive", "amenity": "school", "fax": "+1-416-394-7322", "isced:level": "1;2", "name": "Elmbank Junior Middle Academy", "operator": "Toronto District School Board", "operator:short": "TDSB", "operator:type": "public", "operator:wikidata": "Q1189302", "operator:wikipedia": "en:Toronto District School Board", "phone": "+1-416-394-7560", "school:language": "english", "source": "Contains public sector Datasets made available under the City of Toronto's Open Data License v2.0.", "website": "https://schoolweb.tdsb.on.ca/elmbank/", "wikipedia": "en:List of schools in the Toronto District School Board"}}, {"type": "way", "id": 224672798, "nodes": [932464392, 2334708426, 2334708425, 2334708423, 2334708424, 2334708427, 1253318563, 1253318568, 1253318566, 1253318565, 932464392], "tags": {"addr:city": "Etobicoke", "addr:housenumber": "10", "addr:postcode": "M9V 3M5", "addr:street": "Jamestown Crescent", "amenity": "school", "fax": "+1-416-394-6297", "isced:level": "1;2", "name": "Greenholme Junior Middle School", "operator": "Toronto District School Board", "operator:short": "TDSB", "operator:type": "public", "operator:wikidata": "Q1189302", "operator:wikipedia": "en:Toronto District School Board", "phone": "+1-416-394-7700", "school:language": "english", "source": "Contains public sector Datasets made available under the City of Toronto's Open Data License v2.0.", "website": "https://schoolweb.tdsb.on.ca/greenholme/"}}, {"type": "way", "id": 224673924, "nodes": [1253772454, 2334720553, 2334720558, 2334720560, 2334720563, 2334720562, 2334720556, 2334720550, 1253767002, 1253766986, 1253772454], "tags": {"addr:city": "Etobicoke", "addr:housenumber": "85", "addr:postcode": "M9V 2C9", "addr:street": "Mount Olive Drive", "amenity": "school", "fax": "+1-416-394-6141", "isced:level": "1", "name": "Highfield Junior School", "operator": "Toronto District School Board", "operator:short": "TDSB", "operator:type": "public", "operator:wikidata": "Q1189302", "operator:wikipedia": "en:Toronto District School Board", "phone": "+1-416-394-7510", "school:language": "english", "source": "Contains public sector Datasets made available under the City of Toronto's Open Data License v2.0.", "website": "https://schoolweb.tdsb.on.ca/highfield"}}, {"type": "way", "id": 759918109, "nodes": [7098869497, 364263856, 7098869496, 7098869495, 7098869494, 7098869493, 7098869489, 7098869492, 7098869491, 7098869497], "tags": {"addr:city": "Toronto", "addr:housenumber": "2533", "addr:postcode": "M9V 3A8", "addr:street": "Kipling Avenue", "amenity": "school", "denomination": "catholic", "fax": "+1-416-229-7052", "isced:level": "1;2", "name": "St. Andrew Catholic School", "operator": "Toronto Catholic District School Board", "operator:short": "TCDSB", "operator:type": "public", "operator:wikidata": "Q405337", "phone": "+1-416-393-5295", "religion": "christian", "school:language": "english", "website": "http://standrew.tcdsb.org"}}]}