{"version": 0.6, "generator": "Overpass API 0.7.62.5 1bd436f1", "osm3s": {"timestamp_osm_base": "2025-03-11T10:49:00Z", "copyright": "The data included in this document is from www.openstreetmap.org. The data is made available under ODbL."}, "elements": [{"type": "node", "id": 3519823771, "lat": 43.714363, "lon": -79.3336364, "tags": {"amenity": "restaurant", "name": "Kabul-Tehran Restaurant", "wheelchair": "yes"}}, {"type": "node", "id": 3519823772, "lat": 43.71431, "lon": -79.3338412, "tags": {"amenity": "restaurant", "cuisine": "vietnamese", "name": "Pho Thien Phat", "phone": "+1-647-247-5671", "wheelchair": "yes"}}, {"type": "node", "id": 3519827902, "lat": 43.7141111, "lon": -79.3340002, "tags": {"amenity": "restaurant", "cuisine": "chinese", "name": "Mulan Chinese Cuisine", "phone": "+1-416-421-8866", "wheelchair": "yes"}}, {"type": "node", "id": 4328432341, "lat": 43.7140382, "lon": -79.3349935, "tags": {"amenity": "restaurant", "cuisine": "sushi", "name": "Osaka Sushi", "wheelchair": "yes"}}, {"type": "node", "id": 10737697784, "lat": 43.7210509, "lon": -79.332318, "tags": {"amenity": "restaurant", "name": "Cornerside Cafe"}}]}