{"version": 0.6, "generator": "Overpass API 0.7.62.5 1bd436f1", "osm3s": {"timestamp_osm_base": "2025-03-11T10:42:53Z", "copyright": "The data included in this document is from www.openstreetmap.org. The data is made available under ODbL."}, "elements": [{"type": "node", "id": 381899564, "lat": 43.7479838, "lon": -79.2335513}, {"type": "node", "id": 381899565, "lat": 43.7475352, "lon": -79.233367}, {"type": "node", "id": 381899566, "lat": 43.7473308, "lon": -79.2334168}, {"type": "node", "id": 381899567, "lat": 43.746786, "lon": -79.2332143}, {"type": "node", "id": 381899568, "lat": 43.7470507, "lon": -79.232031}, {"type": "node", "id": 381899569, "lat": 43.7483489, "lon": -79.2325405}, {"type": "node", "id": 385626630, "lat": 43.7389097, "lon": -79.2539881}, {"type": "node", "id": 418526007, "lat": 43.7441393, "lon": -79.2406529}, {"type": "node", "id": 418526009, "lat": 43.7428093, "lon": -79.2400632}, {"type": "node", "id": 418983229, "lat": 43.7420213, "lon": -79.2648403}, {"type": "node", "id": 418983230, "lat": 43.7409289, "lon": -79.2643885}, {"type": "node", "id": 418983231, "lat": 43.7412819, "lon": -79.2627535}, {"type": "node", "id": 418983232, "lat": 43.7423743, "lon": -79.2632053}, {"type": "node", "id": 427636709, "lat": 43.7379833, "lon": -79.2535457}, {"type": "node", "id": 953470513, "lat": 43.7470242, "lon": -79.2321662}, {"type": "node", "id": 2334703670, "lat": 43.7370362, "lon": -79.2547711}, {"type": "node", "id": 2334703671, "lat": 43.7373607, "lon": -79.2533277}, {"type": "node", "id": 2334703672, "lat": 43.7376776, "lon": -79.25738}, {"type": "node", "id": 2334703676, "lat": 43.7385784, "lon": -79.255413}, {"type": "node", "id": 2334703690, "lat": 43.7390002, "lon": -79.2579616}, {"type": "node", "id": 2346711275, "lat": 43.7372673, "lon": -79.2591224}, {"type": "node", "id": 2346711277, "lat": 43.7385216, "lon": -79.2596006}, {"type": "node", "id": 2346711279, "lat": 43.7388497, "lon": -79.2583307}, {"type": "node", "id": 2601139231, "lat": 43.7398441, "lon": -79.2419939}, {"type": "node", "id": 2601139234, "lat": 43.739255, "lon": -79.2417509}, {"type": "node", "id": 6408495423, "lat": 43.7402193, "lon": -79.2406097}, {"type": "node", "id": 6408495424, "lat": 43.7386892, "lon": -79.2399442}, {"type": "node", "id": 6408495425, "lat": 43.7384142, "lon": -79.2411351}, {"type": "node", "id": 6408495426, "lat": 43.7392949, "lon": -79.2415087}, {"type": "node", "id": 6605753307, "lat": 43.7441617, "lon": -79.2388004}, {"type": "node", "id": 6605753308, "lat": 43.7440261, "lon": -79.2395192}, {"type": "node", "id": 6605753309, "lat": 43.7430262, "lon": -79.2391276}, {"type": "node", "id": 6605753310, "lat": 43.7444911, "lon": -79.2389399}, {"type": "node", "id": 6624478223, "lat": 43.7372278, "lon": -79.2539189}, {"type": "node", "id": 6628887131, "lat": 43.7392271, "lon": -79.2401781}, {"type": "way", "id": 33503151, "nodes": [381899564, 381899565, 381899566, 381899567, 953470513, 381899568, 381899569, 381899564], "tags": {"addr:city": "Toronto", "addr:housenumber": "33", "addr:postcode": "M1J 2P7", "addr:street": "Amarillo Drive", "amenity": "school", "denomination": "catholic", "fax": "+1-416-393-5581", "isced:level": "1;2", "name": "St. Nicholas Catholic School", "opendata:type": "102003", "operator": "Toronto Catholic District School Board", "operator:short": "TCDSB", "operator:type": "public", "operator:wikidata": "Q405337", "operator:wikipedia": "en:Toronto Catholic District School Board", "phone": "+1-416-393-5308", "religion": "christian", "school:language": "english", "source": "yahoo", "website": "http://stnicholas.tcdsb.org", "wikidata": "Q53277883"}}, {"type": "way", "id": 35835815, "nodes": [418983229, 418983230, 418983231, 418983232, 418983229], "tags": {"addr:city": "Scarborough", "addr:housenumber": "165", "addr:postcode": "M1K 3W5", "addr:street": "Lord Roberts Drive", "amenity": "school", "fax": "+1-416-396-5771", "isced:level": "1", "name": "Lord Roberts Junior Public School", "operator": "Toronto District School Board", "operator:short": "TDSB", "operator:type": "public", "operator:wikidata": "Q1189302", "operator:wikipedia": "en:Toronto District School Board", "phone": "+1-416-396-6420", "school:language": "english", "source": "Contains public sector Datasets made available under the City of Toronto's Open Data License v2.0.", "website": "https://schoolweb.tdsb.on.ca/lordroberts"}}, {"type": "way", "id": 224672049, "nodes": [2334703676, 2334703670, 6624478223, 2334703671, 427636709, 385626630, 2334703676], "tags": {"addr:city": "Scarborough", "addr:housenumber": "11", "addr:postcode": "M1K 4V4", "addr:street": "Gadsby Drive", "amenity": "school", "fax": "+1-416-396-6293", "isced:level": "1", "name": "Glen Ravine Junior Public School", "operator": "Toronto District School Board", "operator:short": "TDSB", "operator:type": "public", "operator:wikidata": "Q1189302", "operator:wikipedia": "en:Toronto District School Board", "phone": "+1-416-396-6280", "school:language": "english", "source": "Contains public sector Datasets made available under the City of Toronto's Open Data License v2.0.", "website": "https://schoolweb.tdsb.on.ca/glenravine", "wikidata": "Q57633244"}}, {"type": "way", "id": 225859145, "nodes": [2346711275, 2334703672, 2334703690, 2346711279, 2346711277, 2346711275], "tags": {"addr:city": "Toronto", "addr:housenumber": "959", "addr:postcode": "M1K 4G4", "addr:street": "Midland Avenue", "amenity": "school", "denomination": "catholic", "fax": "+1-416-397-6152", "isced:level": "3", "mascot": "Mavericks", "name": "St. Joan of Arc Catholic Academy", "opendata:type": "102004", "operator": "Toronto Catholic District School Board", "operator:short": "TCDSB", "operator:type": "public", "operator:wikidata": "Q405337", "phone": "+1-416-393-5554", "religion": "christian", "school:language": "english", "start_date": "1989-09-01", "website": "https://www.tcdsb.org/o/stjoanofarc", "wikidata": "Q6171642", "wikipedia": "en:St. Joan of Arc Catholic Academy"}}, {"type": "way", "id": 684083281, "nodes": [2601139231, 6408495423, 6628887131, 6408495424, 6408495425, 6408495426, 2601139234, 2601139231], "tags": {"addr:city": "Scarborough", "addr:housenumber": "2850", "addr:postcode": "M1J 2C8", "addr:province": "ON", "addr:street": "Eglinton Avenue East", "amenity": "school", "denomination": "catholic", "isced:level": "3", "name": "\u00c9cole secondaire catholique P\u00e8re-Philippe-Lamarche", "operator": "Conseil scolaire catholique MonAvenir", "operator:type": "public", "operator:wikidata": "Q648393", "phone": "+1-416-986-6414", "religion": "christian", "school:language": "french", "start_date": "2016-09-01"}}, {"type": "way", "id": 703414556, "nodes": [6605753310, 418526007, 418526009, 6605753309, 6605753308, 6605753307, 6605753310], "tags": {"addr:city": "Scarborough", "addr:housenumber": "431", "addr:postcode": "M1J 1J1", "addr:street": "Mccowan Road", "amenity": "school", "fax": "+1-416-396-6488", "isced:level": "1;2", "name": "John McCrae Public School", "operator": "Toronto District School Board", "operator:short": "TDSB", "operator:type": "public", "operator:wikidata": "Q1189302", "operator:wikipedia": "en:Toronto District School Board", "phone": "+1-416-396-6395", "school:language": "english", "source": "yahoo", "start_date": "1971-09-30", "website": "https://schoolweb.tdsb.on.ca/johnmccrae"}}]}