{"version": 0.6, "generator": "Overpass API 0.7.62.5 1bd436f1", "osm3s": {"timestamp_osm_base": "2025-02-19T16:11:12Z", "copyright": "The data included in this document is from www.openstreetmap.org. The data is made available under ODbL."}, "elements": [{"type": "node", "id": 363987946, "lat": 43.7242245, "lon": -79.4935388}, {"type": "node", "id": 363987948, "lat": 43.7245012, "lon": -79.492237}, {"type": "node", "id": 363987962, "lat": 43.7260322, "lon": -79.4926007}, {"type": "node", "id": 363987963, "lat": 43.7261936, "lon": -79.4918158}, {"type": "node", "id": 363988047, "lat": 43.7295527, "lon": -79.4923815}, {"type": "node", "id": 363988050, "lat": 43.7293031, "lon": -79.4935153}, {"type": "node", "id": 363988059, "lat": 43.7292249, "lon": -79.4939595}, {"type": "node", "id": 363989332, "lat": 43.7236959, "lon": -79.5167942}, {"type": "node", "id": 363989342, "lat": 43.7246743, "lon": -79.5173881}, {"type": "node", "id": 363989382, "lat": 43.7269698, "lon": -79.5155117}, {"type": "node", "id": 363989386, "lat": 43.7254276, "lon": -79.5156189}, {"type": "node", "id": 363989389, "lat": 43.724776, "lon": -79.5154484}, {"type": "node", "id": 365508281, "lat": 43.7212717, "lon": -79.4981357}, {"type": "node", "id": 365508282, "lat": 43.7216084, "lon": -79.4965688}, {"type": "node", "id": 365508283, "lat": 43.7226368, "lon": -79.4969979}, {"type": "node", "id": 365508284, "lat": 43.7222877, "lon": -79.498574}, {"type": "node", "id": 431336844, "lat": 43.7337011, "lon": -79.5054281}, {"type": "node", "id": 431336845, "lat": 43.7322153, "lon": -79.5047969}, {"type": "node", "id": 431337238, "lat": 43.7336334, "lon": -79.5042644}, {"type": "node", "id": 431337239, "lat": 43.7335621, "lon": -79.5042545}, {"type": "node", "id": 431337240, "lat": 43.7331239, "lon": -79.5041461}, {"type": "node", "id": 431337241, "lat": 43.7324327, "lon": -79.5038601}, {"type": "node", "id": 689777509, "lat": 43.7299133, "lon": -79.4947955}, {"type": "node", "id": 689777512, "lat": 43.7304908, "lon": -79.4927678}, {"type": "node", "id": 692296231, "lat": 43.7247209, "lon": -79.491273}, {"type": "node", "id": 692296233, "lat": 43.7257599, "lon": -79.4916592}, {"type": "node", "id": 692296234, "lat": 43.7254652, "lon": -79.4915519}, {"type": "node", "id": 889487623, "lat": 43.7265453, "lon": -79.5154035}, {"type": "node", "id": 889487673, "lat": 43.7279089, "lon": -79.5138752}, {"type": "node", "id": 889487845, "lat": 43.7277315, "lon": -79.5156798}, {"type": "node", "id": 889487895, "lat": 43.7268084, "lon": -79.5135719}, {"type": "node", "id": 931448015, "lat": 43.7240992, "lon": -79.5171927}, {"type": "node", "id": 931448470, "lat": 43.7236252, "lon": -79.5167741}, {"type": "node", "id": 931448517, "lat": 43.7242757, "lon": -79.519149}, {"type": "node", "id": 931448568, "lat": 43.7231581, "lon": -79.5187667}, {"type": "node", "id": 931448592, "lat": 43.7235001, "lon": -79.5173496}, {"type": "node", "id": 1381859930, "lat": 43.7256729, "lon": -79.5036922}, {"type": "node", "id": 1381859931, "lat": 43.726153, "lon": -79.5015449}, {"type": "node", "id": 1381859932, "lat": 43.7269053, "lon": -79.5042198}, {"type": "node", "id": 1381859933, "lat": 43.7273853, "lon": -79.5020725}, {"type": "node", "id": 6289308825, "lat": 43.725907, "lon": -79.5156989}, {"type": "node", "id": 6289308826, "lat": 43.7259555, "lon": -79.5153085}, {"type": "node", "id": 6289308840, "lat": 43.7256691, "lon": -79.5152503}, {"type": "node", "id": 6289308841, "lat": 43.7258785, "lon": -79.5138824}, {"type": "node", "id": 6289308842, "lat": 43.7250295, "lon": -79.5136705}, {"type": "node", "id": 6302438298, "lat": 43.7291774, "lon": -79.4944847}, {"type": "node", "id": 6302438299, "lat": 43.7301271, "lon": -79.4943345}, {"type": "node", "id": 6538668486, "lat": 43.7257195, "lon": -79.4940421}, {"type": "way", "id": 32507986, "nodes": [365508281, 365508282, 365508283, 365508284, 365508281], "tags": {"addr:city": "North York", "addr:housenumber": "22", "addr:postcode": "M3M 1C4", "addr:street": "Highview Avenue", "amenity": "school", "fax": "+1-416-395-2549", "isced:level": "1", "name": "Highview Public School", "operator": "Toronto District School Board", "operator:short": "TDSB", "operator:type": "public", "operator:wikidata": "Q1189302", "operator:wikipedia": "en:Toronto District School Board", "phone": "+1-416-395-2540", "school:language": "english", "source": "Contains public sector Datasets made available under the City of Toronto's Open Data License v2.0.", "website": "https://schoolweb.tdsb.on.ca/highview"}}, {"type": "way", "id": 37088713, "nodes": [431336844, 431337238, 431337239, 431337240, 431337241, 431336845, 431336844], "tags": {"addr:city": "North York", "addr:housenumber": "26", "addr:postcode": "M3M 1S5", "addr:street": "Troutbrooke Drive", "amenity": "school", "fax": "+1-416-395-3796", "isced:level": "2", "name": "Beverley Heights Middle School", "operator": "Toronto District School Board", "operator:short": "TDSB", "operator:type": "public", "operator:wikidata": "Q1189302", "operator:wikipedia": "en:Toronto District School Board", "phone": "+1-416-395-3000", "school:language": "english", "source": "Contains public sector Datasets made available under the City of Toronto's Open Data License v2.0.", "website": "https://schoolweb.tdsb.on.ca/beverleyheights"}}, {"type": "way", "id": 54780824, "nodes": [689777509, 6302438298, 363988059, 363988050, 363988047, 689777512, 6302438299, 689777509], "tags": {"addr:city": "North York", "addr:housenumber": "5", "addr:postcode": "M3M 0A8", "addr:street": "Exbury Road", "amenity": "school", "denomination": "catholic", "fax": "+1-416-393-5641", "isced:level": "1;2", "name": "St. Conrad Catholic School", "operator": "Toronto Catholic District School Board", "operator:short": "TCDSB", "operator:type": "public", "operator:wikidata": "Q405337", "phone": "+1-416-393-5396", "religion": "christian", "school:language": "english", "source": "Yahoo", "start_date": "1980-09-01", "website": "http://stconrad.tcdsb.org"}}, {"type": "way", "id": 55040631, "nodes": [692296231, 363987948, 363987946, 6538668486, 363987962, 363987963, 692296233, 692296234, 692296231], "tags": {"addr:city": "North York", "addr:housenumber": "1270", "addr:postcode": "M3M 1H5", "addr:street": "Wilson Avenue", "amenity": "school", "fax": "+1-416-395-4494", "isced:level": "2", "name": "Pierre Laporte Middle School", "operator": "Toronto District School Board", "operator:short": "TDSB", "operator:type": "public", "operator:wikidata": "Q1189302", "operator:wikipedia": "en:Toronto District School Board", "phone": "+1-416-395-3070", "school:language": "english", "source": "Contains public sector Datasets made available under the City of Toronto's Open Data License v2.0.", "start_date": "1972-09-05", "website": "https://www.tdsb.on.ca/MOSS/asp_apps/school_landing_page/index.asp?schno=3213"}}, {"type": "way", "id": 75333612, "nodes": [889487845, 889487673, 889487895, 889487623, 363989382, 889487845], "tags": {"addr:city": "North York", "addr:housenumber": "100", "addr:postcode": "M3L 1L4", "addr:street": "Chalkfarm Drive", "amenity": "school", "fax": "+1-416-395-4488", "isced:level": "1", "name": "Chalkfarm Public School", "operator": "Toronto District School Board", "operator:short": "TDSB", "operator:type": "public", "operator:wikidata": "Q1189302", "operator:wikipedia": "en:Toronto District School Board", "phone": "+1-416-395-2160", "school:language": "english", "source": "Contains public sector Datasets made available under the City of Toronto's Open Data License v2.0.", "website": "https://www.tdsb.on.ca/MOSS/asp_apps/school_landing_page/index.asp?schno=3066&Status=L"}}, {"type": "way", "id": 79795259, "nodes": [363989342, 931448517, 931448568, 931448592, 931448470, 363989332, 931448015, 363989342], "tags": {"addr:city": "Toronto", "addr:housenumber": "36", "addr:postcode": "M3L 1C9", "addr:street": "Yvonne Avenue", "amenity": "school", "denomination": "catholic", "isced:level": "1;2", "name": "St. Andre Catholic School", "operator": "Toronto Catholic District School Board", "operator:short": "TCDSB", "operator:type": "public", "operator:wikidata": "Q405337", "operator:wikipedia": "en:Toronto Catholic District School Board", "religion": "christian", "school:language": "english", "start_date": "2015-01-05", "website": "https://www.tcdsb.org/schools/standre"}}, {"type": "way", "id": 124075636, "nodes": [1381859933, 1381859932, 1381859930, 1381859931, 1381859933], "tags": {"addr:city": "North York", "addr:housenumber": "48", "addr:postcode": "M3M 1L8", "addr:street": "Tumpane Street", "amenity": "school", "fax": "+1-416-395-2953", "isced:level": "1", "name": "Tumpane Public School", "operator": "Toronto District School Board", "operator:short": "TDSB", "operator:type": "public", "operator:wikidata": "Q1189302", "operator:wikipedia": "en:Toronto District School Board", "phone": "+1-416-395-2950", "school:language": "english", "source": "Contains public sector Datasets made available under the City of Toronto's Open Data License v2.0.", "website": "https://tumpaneps.ca/"}}, {"type": "way", "id": 671607407, "nodes": [6289308826, 6289308840, 6289308841, 6289308842, 363989389, 363989386, 6289308825, 6289308826], "tags": {"addr:housenumber": "35", "addr:street": "Heavitree Drive", "amenity": "school", "name": "Suon International Academy", "operator:type": "private"}}]}