{"version": 0.6, "generator": "Overpass API 0.7.62.5 1bd436f1", "osm3s": {"timestamp_osm_base": "2025-03-11T12:48:15Z", "copyright": "The data included in this document is from www.openstreetmap.org. The data is made available under ODbL."}, "elements": [{"type": "node", "id": 544560260, "lat": 43.7414582, "lon": -79.2319596, "tags": {"name": "Golden Tuck Shop", "shop": "convenience"}}, {"type": "node", "id": 555317460, "lat": 43.737989, "lon": -79.246373}, {"type": "node", "id": 555317464, "lat": 43.738006, "lon": -79.246134}, {"type": "node", "id": 555317465, "lat": 43.737297, "lon": -79.246892}, {"type": "node", "id": 555317469, "lat": 43.737835, "lon": -79.24711}, {"type": "node", "id": 555317472, "lat": 43.7374, "lon": -79.246408}, {"type": "node", "id": 1277779437, "lat": 43.7396418, "lon": -79.2363682}, {"type": "node", "id": 1277779548, "lat": 43.7398805, "lon": -79.2364679}, {"type": "node", "id": 3271181703, "lat": 43.7467394, "lon": -79.2315686, "tags": {"shop": "convenience"}}, {"type": "node", "id": 4951853433, "lat": 43.7404061, "lon": -79.2331517, "tags": {"name": "Shorebazaar Supermarket", "shop": "supermarket"}}, {"type": "node", "id": 4951871934, "lat": 43.7398927, "lon": -79.236412}, {"type": "node", "id": 4951871942, "lat": 43.739654, "lon": -79.2363122}, {"type": "node", "id": 6186933050, "lat": 43.738007, "lon": -79.246113}, {"type": "node", "id": 6186944068, "lat": 43.737746, "lon": -79.246231}, {"type": "node", "id": 6186947444, "lat": 43.737749, "lon": -79.246255}, {"type": "node", "id": 6762402712, "lat": 43.7393954, "lon": -79.2382775, "tags": {"addr:city": "Scarborough", "addr:housenumber": "2900", "addr:postcode": "M1J 2E4", "addr:street": "Eglinton Avenue East", "brand": "Circle K", "brand:wikidata": "Q3268010", "brand:wikipedia": "en:Circle K", "name": "Circle K", "shop": "convenience"}}, {"type": "node", "id": 7745285616, "lat": 43.7369303, "lon": -79.2510959, "tags": {"shop": "convenience"}}, {"type": "node", "id": 7745558725, "lat": 43.7370411, "lon": -79.2443745, "tags": {"shop": "convenience"}}, {"type": "node", "id": 7745558731, "lat": 43.737893, "lon": -79.2405693, "tags": {"brand": "On the Run", "brand:wikidata": "Q16931259", "brand:wikipedia": "en:On the Run (convenience store)", "name": "On the Run", "shop": "convenience"}}, {"type": "way", "id": 43806053, "nodes": [6186933050, 6186944068, 6186947444, 555317472, 555317465, 555317469, 555317460, 555317464, 6186933050], "tags": {"addr:city": "Toronto", "addr:housenumber": "2742", "addr:street": "Eglinton Avenue East", "brand": "No Frills", "brand:wikidata": "Q3342407", "brand:wikipedia": "en:No Frills (grocery store)", "building": "retail", "building:levels": "1", "name": "No Frills", "opendata:type": "115001", "shop": "supermarket"}}, {"type": "way", "id": 505186841, "nodes": [4951871942, 1277779437, 1277779548, 4951871934, 4951871942], "tags": {"addr:city": "Toronto", "addr:housenumber": "2922", "addr:street": "Eglinton Avenue East", "building": "retail", "name": "Top Milk", "shop": "convenience"}}]}