{"version": 0.6, "generator": "Overpass API 0.7.62.5 1bd436f1", "osm3s": {"timestamp_osm_base": "2025-03-11T10:46:58Z", "copyright": "The data included in this document is from www.openstreetmap.org. The data is made available under ODbL."}, "elements": [{"type": "node", "id": 1286309781, "lat": 43.7705697, "lon": -79.1863435, "tags": {"addr:city": "Scarborough", "addr:housenumber": "259", "addr:street": "Morningside Avenue", "amenity": "restaurant", "brand": "Pizza Hut", "brand:wikidata": "Q191615", "brand:wikipedia": "en:Pizza Hut", "check_date": "2024-03-13", "cuisine": "pizza", "name": "Pizza Hut", "phone": "+1-416-282-5771"}}, {"type": "node", "id": 1506607196, "lat": 43.7688679, "lon": -79.185835, "tags": {"amenity": "restaurant", "brand": "Shoeless Joe's", "brand:wikidata": "Q106195639", "check_date": "2024-03-30", "cuisine": "grill", "name": "Shoeless Joe's"}}, {"type": "node", "id": 1769355651, "lat": 43.7736626, "lon": -79.1830607, "tags": {"amenity": "restaurant", "check_date": "2024-03-13", "cuisine": "chinese", "name": "House of Wong"}}, {"type": "node", "id": 3951089227, "lat": 43.7677383, "lon": -79.1905272, "tags": {"addr:street": "Rodda Boulevard", "amenity": "restaurant", "brand": "Eggsmart", "brand:wikidata": "Q113001388", "check_date": "2024-03-30", "cuisine": "breakfast", "name": "Eggsmart"}}, {"type": "node", "id": 4333068789, "lat": 43.7685698, "lon": -79.1876078, "tags": {"amenity": "restaurant", "check_date": "2024-03-30", "name": "Chicken Joy"}}, {"type": "node", "id": 7057379598, "lat": 43.7720707, "lon": -79.1848999, "tags": {"amenity": "restaurant", "check_date": "2024-03-13", "cuisine": "chinese", "name": "Hakka No. 1"}}, {"type": "node", "id": 7057379599, "lat": 43.7722176, "lon": -79.1847705, "tags": {"amenity": "restaurant", "brand": "Sunset Grill", "brand:wikidata": "Q62112489", "brand:wikipedia": "en:Sunset Grill (Canadian restaurant chain)", "check_date": "2024-03-13", "cuisine": "american", "name": "Sunset Grill"}}, {"type": "node", "id": 11622259523, "lat": 43.7554603, "lon": -79.1972415, "tags": {"amenity": "restaurant", "check_date": "2024-11-22", "check_date:opening_hours": "2024-11-22", "cuisine": "sandwich", "internet_access": "wlan", "internet_access:fee": "no", "name": "Good Eats BY Juian", "opening_hours:signed": "no", "operator": "Julian", "payment:cash": "yes", "payment:credit_cards": "yes", "payment:debit_cards": "yes", "phone": "+1 5879772152", "website": "https://thegoodeatsbyjulian.com/", "wheelchair": "yes"}}, {"type": "node", "id": 11622259526, "lat": 43.7595674, "lon": -79.1982871, "tags": {"amenity": "restaurant", "check_date": "2024-02-11", "diet:vegetarian": "yes", "name": "Tai chi Restaurant chinese food", "phone": "+1 4162828828", "website": "https://taichichinese.com/location/"}}, {"type": "node", "id": 11622259529, "lat": 43.759606, "lon": -79.1983872, "tags": {"addr:housenumber": "4190", "addr:street": "Kingston Road", "amenity": "restaurant", "check_date": "2024-02-11", "internet_access": "wlan", "internet_access:fee": "no", "name": "Twice As Nice", "payment:cash": "yes", "payment:credit_cards": "yes", "payment:debit_cards": "yes", "phone": "+1 4162816423", "website": "https://twiceasnicefood.com/", "wheelchair": "yes"}}, {"type": "node", "id": 11622259532, "lat": 43.7590004, "lon": -79.1981768, "tags": {"addr:housenumber": "4180", "addr:street": "Kingston Road", "amenity": "restaurant", "check_date": "2024-02-11", "diet:vegetarian": "yes", "internet_access": "wlan", "internet_access:fee": "no", "name": "Twice As Nice", "payment:cash": "yes", "payment:credit_cards": "yes", "payment:debit_cards": "yes", "website": "https://twiceasnicefood.com/", "wheelchair": "yes"}}, {"type": "node", "id": 11670271595, "lat": 43.7753295, "lon": -79.1789609, "tags": {"addr:housenumber": "4630", "addr:street": "Kingston Road", "amenity": "restaurant", "check_date": "2024-03-13", "cuisine": "sushi", "description": "Sushi", "internet_access": "wlan", "internet_access:fee": "no", "name": "Meet Sushi and Boil", "opening_hours": "11:00-23:00", "payment:cash": "yes", "payment:credit_cards": "yes", "payment:debit_cards": "yes", "phone": "+1 6473687566", "website": "https://www.enjoy2eat.ca/meet/index.php", "wheelchair": "yes"}}, {"type": "node", "id": 11961058675, "lat": 43.7685027, "lon": -79.1897573, "tags": {"amenity": "restaurant", "cuisine": "seafood", "name": "Halibut House Fish & Chips"}}]}