{"version": 0.6, "generator": "Overpass API 0.7.62.5 1bd436f1", "osm3s": {"timestamp_osm_base": "2025-03-11T10:42:53Z", "copyright": "The data included in this document is from www.openstreetmap.org. The data is made available under ODbL."}, "elements": [{"type": "node", "id": 41187881, "lat": 43.7703282, "lon": -79.2062277}, {"type": "node", "id": 41187883, "lat": 43.7705594, "lon": -79.2058983}, {"type": "node", "id": 41187885, "lat": 43.7707577, "lon": -79.205658}, {"type": "node", "id": 41187886, "lat": 43.771329, "lon": -79.2059584}, {"type": "node", "id": 41187891, "lat": 43.771613, "lon": -79.206954}, {"type": "node", "id": 41187892, "lat": 43.7719783, "lon": -79.2071761}, {"type": "node", "id": 402288066, "lat": 43.7872823, "lon": -79.2127438}, {"type": "node", "id": 402288067, "lat": 43.7868698, "lon": -79.2110127}, {"type": "node", "id": 402288417, "lat": 43.7868632, "lon": -79.2131884}, {"type": "node", "id": 402288418, "lat": 43.7862415, "lon": -79.2129325}, {"type": "node", "id": 402288419, "lat": 43.786617, "lon": -79.2118581}, {"type": "node", "id": 402288528, "lat": 43.7905414, "lon": -79.2006424}, {"type": "node", "id": 402288745, "lat": 43.7883933, "lon": -79.1969267}, {"type": "node", "id": 402288746, "lat": 43.7883625, "lon": -79.1971293}, {"type": "node", "id": 402288747, "lat": 43.7889935, "lon": -79.197513}, {"type": "node", "id": 402288748, "lat": 43.7889627, "lon": -79.1977262}, {"type": "node", "id": 402288749, "lat": 43.7892705, "lon": -79.1978754}, {"type": "node", "id": 402288750, "lat": 43.7891474, "lon": -79.1984403}, {"type": "node", "id": 402288751, "lat": 43.7889089, "lon": -79.1985469}, {"type": "node", "id": 402288752, "lat": 43.788578, "lon": -79.2002097}, {"type": "node", "id": 402288753, "lat": 43.7888396, "lon": -79.2008066}, {"type": "node", "id": 402288754, "lat": 43.7881086, "lon": -79.2017766}, {"type": "node", "id": 402288755, "lat": 43.7889089, "lon": -79.2029598}, {"type": "node", "id": 428590441, "lat": 43.7887987, "lon": -79.2155388}, {"type": "node", "id": 428590442, "lat": 43.7886899, "lon": -79.2161242}, {"type": "node", "id": 428590443, "lat": 43.7886418, "lon": -79.2166165}, {"type": "node", "id": 428590444, "lat": 43.7882544, "lon": -79.2165012}, {"type": "node", "id": 428590445, "lat": 43.7876205, "lon": -79.2162085}, {"type": "node", "id": 428590446, "lat": 43.7875629, "lon": -79.2161154}, {"type": "node", "id": 428590447, "lat": 43.7875341, "lon": -79.2159912}, {"type": "node", "id": 428590448, "lat": 43.787707, "lon": -79.2150998}, {"type": "node", "id": 505917444, "lat": 43.7747332, "lon": -79.2152789}, {"type": "node", "id": 505917448, "lat": 43.7748487, "lon": -79.214706}, {"type": "node", "id": 505917452, "lat": 43.7749785, "lon": -79.2143862}, {"type": "node", "id": 505917477, "lat": 43.7755498, "lon": -79.2156806}, {"type": "node", "id": 505917480, "lat": 43.7773514, "lon": -79.2152589}, {"type": "node", "id": 505917483, "lat": 43.7771975, "lon": -79.2147726}, {"type": "node", "id": 505917487, "lat": 43.7770988, "lon": -79.2143951}, {"type": "node", "id": 505917493, "lat": 43.7753922, "lon": -79.2136534}, {"type": "node", "id": 505917497, "lat": 43.7759033, "lon": -79.2138753}, {"type": "node", "id": 505917503, "lat": 43.7773832, "lon": -79.21376}, {"type": "node", "id": 505917508, "lat": 43.7782846, "lon": -79.215199}, {"type": "node", "id": 505917510, "lat": 43.7781307, "lon": -79.2143996}, {"type": "node", "id": 505917521, "lat": 43.7781217, "lon": -79.2137728}, {"type": "node", "id": 505917524, "lat": 43.770569, "lon": -79.2082694}, {"type": "node", "id": 505917526, "lat": 43.7716718, "lon": -79.2087342}, {"type": "node", "id": 841368943, "lat": 43.7704269, "lon": -79.2070987}, {"type": "node", "id": 2334952444, "lat": 43.7885894, "lon": -79.1961469}, {"type": "node", "id": 2334952445, "lat": 43.789919, "lon": -79.1967672}, {"type": "node", "id": 2334952446, "lat": 43.7902359, "lon": -79.1979505}, {"type": "node", "id": 2334952447, "lat": 43.7903185, "lon": -79.1982654}, {"type": "node", "id": 2364820228, "lat": 43.7905464, "lon": -79.1995344}, {"type": "node", "id": 4883161255, "lat": 43.77039, "lon": -79.2067727}, {"type": "node", "id": 4883161261, "lat": 43.7713644, "lon": -79.2064102}, {"type": "node", "id": 7108106148, "lat": 43.7751281, "lon": -79.2151755, "tags": {"addr:city": "Scarborough", "addr:housenumber": "80", "addr:postcode": "M1G 3B5", "addr:street": "Slan Avenue", "amenity": "school", "isced:level": "2", "name": "Ben Heppner Vocal Music Academy", "operator": "Toronto District School Board", "operator:short": "TDSB", "operator:type": "public", "operator:wikidata": "Q1189302", "operator:wikipedia": "en:Toronto District School Board", "phone": "+1-416-396-6305", "school:language": "english", "start_date": "2012-09-01", "website": "https://schoolweb.tdsb.on.ca/benheppnervma"}}, {"type": "way", "id": 34617709, "nodes": [402288066, 402288417, 402288418, 402288419, 402288067, 402288066], "tags": {"addr:city": "Scarborough", "addr:housenumber": "370", "addr:postcode": "M1E 4E6", "addr:street": "Military Trail", "amenity": "school", "fax": "+1-416-396-3293", "isced:level": "1;2", "name": "Highcastle Public School", "operator": "Toronto District School Board", "operator:short": "TDSB", "operator:type": "public", "operator:wikidata": "Q1189302", "operator:wikipedia": "en:Toronto District School Board", "phone": "+1-416-396-6325", "school:language": "english", "source": "Contains public sector Datasets made available under the City of Toronto's Open Data License v2.0.", "website": "https://schoolweb.tdsb.on.ca/highcastle", "wikidata": "Q57528725"}}, {"type": "way", "id": 36861511, "nodes": [428590441, 428590442, 428590443, 428590444, 428590445, 428590446, 428590447, 428590448, 428590441], "tags": {"addr:city": "Toronto", "addr:housenumber": "30", "addr:postcode": "M1E 4N1", "addr:street": "Highcastle Road", "amenity": "school", "denomination": "catholic", "fax": "+1-416-393-5148", "isced:level": "1;2", "name": "St. Edmund Campion Catholic School", "operator": "Toronto Catholic District School Board", "operator:short": "TCDSB", "operator:type": "public", "operator:wikidata": "Q405337", "phone": "+1-416-393-5356", "religion": "christian", "school:language": "english", "start_date": "1971-09-09", "website": "http://stedmundcampion.tcdsb.org", "wikidata": "Q57529354", "wikipedia": "en:St Edmund Campion Catholic School"}}, {"type": "way", "id": 41364187, "nodes": [505917444, 505917448, 505917452, 505917493, 505917497, 505917477, 505917444], "tags": {"addr:city": "Scarborough", "addr:housenumber": "80", "addr:postcode": "M1G 3B5", "addr:street": "Slan Avenue", "amenity": "school", "fax": "+1-416-396-8572", "isced:level": "1", "name": "Heather Heights Junior Public School", "operator": "Toronto District School Board", "operator:short": "TDSB", "operator:type": "public", "operator:wikidata": "Q1189302", "operator:wikipedia": "en:Toronto District School Board", "phone": "+1-416-396-6305", "school:language": "english", "source": "Contains public sector Datasets made available under the City of Toronto's Open Data License v2.0.", "website": "https://schoolweb.tdsb.on.ca/heatherheights"}}, {"type": "way", "id": 41364189, "nodes": [505917508, 505917480, 505917483, 505917487, 505917503, 505917521, 505917510, 505917508], "tags": {"addr:city": "Scarborough", "addr:housenumber": "350", "addr:postcode": "M1G 3H4", "addr:street": "Orton Park Road", "amenity": "school", "fax": "+1-416-396-3276", "isced:level": "2", "name": "Henry Hudson Senior Public School", "operator": "Toronto District School Board", "operator:short": "TDSB", "operator:type": "public", "operator:wikidata": "Q1189302", "operator:wikipedia": "en:Toronto District School Board", "phone": "+1-416-396-6310", "school:language": "english", "source": "Contains public sector Datasets made available under the City of Toronto's Open Data License v2.0.", "start_date": "1972-09-05", "website": "https://schoolweb.tdsb.on.ca/henryhudson/Home"}}, {"type": "way", "id": 41364199, "nodes": [505917526, 505917524, 841368943, 4883161255, 41187881, 41187883, 41187885, 41187886, 4883161261, 41187891, 41187892, 505917526], "tags": {"addr:city": "Scarborough", "addr:housenumber": "125", "addr:postcode": "M1G 3G9", "addr:street": "Orton Park Road", "amenity": "school", "fax": "+1-416-396-3353", "isced:level": "1;2", "name": "George B. Little Public School", "operator": "Toronto District School Board", "operator:short": "TDSB", "operator:type": "public", "operator:wikidata": "Q1189302", "operator:wikipedia": "en:Toronto District School Board", "phone": "+1-416-396-6260", "school:language": "english", "source": "Contains public sector Datasets made available under the City of Toronto's Open Data License v2.0.", "website": "https://www.tdsb.on.ca/MOSS/asp_apps/school_landing_page/index.asp?schno=4504"}}, {"type": "way", "id": 224699911, "nodes": [2334952447, 402288749, 402288748, 402288747, 402288746, 402288745, 2334952444, 2334952445, 2334952446, 2334952447], "tags": {"addr:city": "Scarborough", "addr:housenumber": "701", "addr:postcode": "M1E 4P6", "addr:street": "Military Trail", "amenity": "school", "fax": "+1-416-396-8506", "isced:level": "1;2", "name": "Military Trail Public School", "operator": "Toronto District School Board", "operator:short": "TDSB", "operator:type": "public", "operator:wikidata": "Q1189302", "operator:wikipedia": "en:Toronto District School Board", "phone": "+1-416-396-6475", "school:language": "english", "source": "Contains public sector Datasets made available under the City of Toronto's Open Data License v2.0.", "start_date": "1971-09-30", "website": "https://schoolweb.tdsb.on.ca/militarytrail/"}}, {"type": "way", "id": 227844525, "nodes": [2334952447, 2364820228, 402288528, 402288755, 402288754, 402288753, 402288752, 402288751, 402288750, 402288749, 2334952447], "tags": {"addr:city": "Toronto", "addr:housenumber": "685", "addr:postcode": "M1E 4P6", "addr:street": "Military Trail", "amenity": "school", "check_date": "2024-12-01", "denomination": "catholic", "fax": "+1-416-393-5735", "isced:level": "3", "mascot": "Panthers", "name": "St. John Paul II Catholic Secondary School", "opendata:type": "102004", "operator": "Toronto Catholic District School Board", "operator:type": "public", "phone": "+1-416-393-5531", "religion": "christian", "school:language": "english", "start_date": "1983-09-01", "website": "http://blessedpopejohnpaulii.tcdsb.org", "wikidata": "Q4926276", "wikipedia": "en:Blessed Pope John Paul II Catholic Secondary School"}}]}