{"version": 0.6, "generator": "Overpass API 0.7.62.5 1bd436f1", "osm3s": {"timestamp_osm_base": "2025-03-11T10:43:56Z", "copyright": "The data included in this document is from www.openstreetmap.org. The data is made available under ODbL."}, "elements": [{"type": "node", "id": 420581121, "lat": 43.6794671, "lon": -79.4883289}, {"type": "node", "id": 420581124, "lat": 43.6784131, "lon": -79.4878601}, {"type": "node", "id": 420581127, "lat": 43.6787159, "lon": -79.4865881}, {"type": "node", "id": 420581128, "lat": 43.6797411, "lon": -79.4870177}, {"type": "node", "id": 420581129, "lat": 43.6828067, "lon": -79.499028}, {"type": "node", "id": 420581130, "lat": 43.6826815, "lon": -79.4999767}, {"type": "node", "id": 420581131, "lat": 43.6825435, "lon": -79.4999707}, {"type": "node", "id": 420581132, "lat": 43.6824227, "lon": -79.5001258}, {"type": "node", "id": 420581133, "lat": 43.6823536, "lon": -79.5004182}, {"type": "node", "id": 420581134, "lat": 43.6819351, "lon": -79.5000065}, {"type": "node", "id": 420581135, "lat": 43.6811757, "lon": -79.4999349}, {"type": "node", "id": 420581136, "lat": 43.680645, "lon": -79.4997738}, {"type": "node", "id": 420581137, "lat": 43.6810678, "lon": -79.497966}, {"type": "node", "id": 420581138, "lat": 43.6815554, "lon": -79.4982763}, {"type": "node", "id": 420581139, "lat": 43.6821767, "lon": -79.498676}, {"type": "node", "id": 420581140, "lat": 43.682565, "lon": -79.4989684}, {"type": "node", "id": 420582616, "lat": 43.6759754, "lon": -79.4800755}, {"type": "node", "id": 420582617, "lat": 43.6765037, "lon": -79.4780867}, {"type": "node", "id": 420582618, "lat": 43.6758981, "lon": -79.477792}, {"type": "node", "id": 420582619, "lat": 43.6753237, "lon": -79.4797509}, {"type": "node", "id": 420588950, "lat": 43.6696652, "lon": -79.4918509}, {"type": "node", "id": 420588951, "lat": 43.6677617, "lon": -79.4910634}, {"type": "node", "id": 420588953, "lat": 43.6680007, "lon": -79.4900056}, {"type": "node", "id": 420588954, "lat": 43.6699005, "lon": -79.4907826}, {"type": "node", "id": 818627618, "lat": 43.682326, "lon": -79.4804345}, {"type": "node", "id": 818627621, "lat": 43.6787841, "lon": -79.4807926}, {"type": "node", "id": 818627625, "lat": 43.6808988, "lon": -79.4779371}, {"type": "node", "id": 818627630, "lat": 43.6788706, "lon": -79.4804364}, {"type": "node", "id": 818627640, "lat": 43.6813214, "lon": -79.481147}, {"type": "node", "id": 818627645, "lat": 43.681326, "lon": -79.478631}, {"type": "node", "id": 818627648, "lat": 43.6800377, "lon": -79.4820776}, {"type": "node", "id": 818627652, "lat": 43.679176, "lon": -79.4790976}, {"type": "node", "id": 818627669, "lat": 43.682025, "lon": -79.4795925}, {"type": "node", "id": 818627671, "lat": 43.6793728, "lon": -79.4810405}, {"type": "node", "id": 818627677, "lat": 43.6798487, "lon": -79.4786946}, {"type": "node", "id": 818630117, "lat": 43.6748477, "lon": -79.4895292}, {"type": "node", "id": 818630123, "lat": 43.6743673, "lon": -79.4914144}, {"type": "node", "id": 818630207, "lat": 43.6744415, "lon": -79.491566}, {"type": "node", "id": 818630213, "lat": 43.6747069, "lon": -79.4885218}, {"type": "node", "id": 1524328336, "lat": 43.6671472, "lon": -79.4984976}, {"type": "node", "id": 1524328348, "lat": 43.6671559, "lon": -79.4985428}, {"type": "node", "id": 1524328350, "lat": 43.6672082, "lon": -79.4982052}, {"type": "node", "id": 1524328352, "lat": 43.6673761, "lon": -79.4977561}, {"type": "node", "id": 1524328354, "lat": 43.6674175, "lon": -79.4977411}, {"type": "node", "id": 1524328355, "lat": 43.6675614, "lon": -79.4978948}, {"type": "node", "id": 1524328357, "lat": 43.6675636, "lon": -79.4978556}, {"type": "node", "id": 1524328360, "lat": 43.6677489, "lon": -79.4980666}, {"type": "node", "id": 1524328362, "lat": 43.667799, "lon": -79.4980666}, {"type": "node", "id": 1524328365, "lat": 43.6679211, "lon": -79.4991847}, {"type": "node", "id": 1524328375, "lat": 43.6681849, "lon": -79.4983891}, {"type": "node", "id": 1849293393, "lat": 43.6732311, "lon": -79.4900256}, {"type": "node", "id": 1849293394, "lat": 43.6730671, "lon": -79.4883317}, {"type": "node", "id": 1849293395, "lat": 43.6748024, "lon": -79.489859}, {"type": "node", "id": 1849296482, "lat": 43.6770224, "lon": -79.4892734}, {"type": "node", "id": 1849296483, "lat": 43.6774606, "lon": -79.4874277}, {"type": "node", "id": 1849296484, "lat": 43.6779749, "lon": -79.4897058}, {"type": "node", "id": 2242653759, "lat": 43.6731792, "lon": -79.4882522}, {"type": "node", "id": 2340955530, "lat": 43.6752004, "lon": -79.4899841}, {"type": "node", "id": 2340955539, "lat": 43.674786, "lon": -79.4917354}, {"type": "node", "id": 2340955541, "lat": 43.6747866, "lon": -79.4898033}, {"type": "node", "id": 2340955551, "lat": 43.6748875, "lon": -79.4916759}, {"type": "node", "id": 3215275817, "lat": 43.6806608, "lon": -79.4773637}, {"type": "node", "id": 3215275818, "lat": 43.6807081, "lon": -79.4773162}, {"type": "node", "id": 3215275819, "lat": 43.680854, "lon": -79.4772391}, {"type": "node", "id": 3215275820, "lat": 43.680897, "lon": -79.4771203}, {"type": "node", "id": 3215275821, "lat": 43.6809742, "lon": -79.4768116}, {"type": "node", "id": 3215275822, "lat": 43.6812596, "lon": -79.477057}, {"type": "node", "id": 3215275823, "lat": 43.6813993, "lon": -79.4770135}, {"type": "node", "id": 3215275824, "lat": 43.6814121, "lon": -79.4784679}, {"type": "node", "id": 3215275825, "lat": 43.6815109, "lon": -79.4769066}, {"type": "node", "id": 3215275826, "lat": 43.6816139, "lon": -79.4770254}, {"type": "node", "id": 3215275834, "lat": 43.6820475, "lon": -79.4775003}, {"type": "node", "id": 3215275837, "lat": 43.6821162, "lon": -79.4776309}, {"type": "node", "id": 3364858386, "lat": 43.6679004, "lon": -79.4904592}, {"type": "node", "id": 3379077809, "lat": 43.6808985, "lon": -79.4999866}, {"type": "node", "id": 3379077810, "lat": 43.6810611, "lon": -79.5000385}, {"type": "node", "id": 4594260671, "lat": 43.6782831, "lon": -79.4884078}, {"type": "node", "id": 4594260672, "lat": 43.6773324, "lon": -79.4879676}, {"type": "node", "id": 4793678402, "lat": 43.6748425, "lon": -79.4893241}, {"type": "node", "id": 4793678419, "lat": 43.6737401, "lon": -79.4903109}, {"type": "node", "id": 4793678430, "lat": 43.6738782, "lon": -79.4906258}, {"type": "node", "id": 4793678431, "lat": 43.6729298, "lon": -79.4894704}, {"type": "node", "id": 4793678432, "lat": 43.673228, "lon": -79.4878861}, {"type": "node", "id": 4793678433, "lat": 43.6751417, "lon": -79.4909374}, {"type": "node", "id": 6299503520, "lat": 43.6795659, "lon": -79.4788688}, {"type": "node", "id": 6299503521, "lat": 43.6794971, "lon": -79.4812211}, {"type": "node", "id": 6299503569, "lat": 43.679524, "lon": -79.4880568}, {"type": "node", "id": 6317227774, "lat": 43.6810765, "lon": -79.4768996}, {"type": "node", "id": 7543400173, "lat": 43.6730211, "lon": -79.4897705}, {"type": "node", "id": 7543400174, "lat": 43.6733153, "lon": -79.4900282}, {"type": "node", "id": 7543400175, "lat": 43.6731942, "lon": -79.4880893}, {"type": "way", "id": 35983416, "nodes": [420581121, 420581124, 420581127, 420581128, 6299503569, 420581121], "tags": {"addr:city": "York", "addr:housenumber": "175", "addr:postcode": "M6N 2K1", "addr:street": "Cordella Avenue", "amenity": "school", "fax": "+1-416-394-2260", "isced:level": "1", "name": "Cordella Junior Public School", "operator": "Toronto District School Board", "operator:short": "TDSB", "operator:type": "public", "operator:wikidata": "Q1189302", "operator:wikipedia": "en:Toronto District School Board", "phone": "+1-416-394-2258", "school:language": "english", "source": "Contains public sector Datasets made available under the City of Toronto's Open Data License v2.0.", "website": "https://schoolweb.tdsb.on.ca/cordella"}}, {"type": "way", "id": 35983417, "nodes": [420581129, 420581130, 420581131, 420581132, 420581133, 420581134, 420581135, 3379077810, 3379077809, 420581136, 420581137, 420581138, 420581139, 420581140, 420581129], "tags": {"addr:city": "York", "addr:housenumber": "990", "addr:postcode": "M6N 4E2", "addr:street": "Jane Street", "amenity": "school", "fax": "+1-416-394-3118", "isced:level": "1", "name": "Roselands Junior Public School", "operator": "Toronto District School Board", "operator:short": "TDSB", "operator:type": "public", "operator:wikidata": "Q1189302", "operator:wikipedia": "en:Toronto District School Board", "phone": "+1-416-394-3110", "school:language": "english", "source": "Contains public sector Datasets made available under the City of Toronto's Open Data License v2.0.", "website": "https://schoolweb.tdsb.on.ca/roselands"}}, {"type": "way", "id": 35983500, "nodes": [420582616, 420582617, 420582618, 420582619, 420582616], "tags": {"addr:city": "York", "addr:housenumber": "50", "addr:postcode": "M6N 3X3", "addr:street": "Leigh Street", "amenity": "school", "fax": "+1-416-394-4403", "isced:level": "1;2", "name": "Harwood Public School", "operator": "Toronto District School Board", "operator:short": "TDSB", "operator:type": "public", "operator:wikidata": "Q1189302", "operator:wikipedia": "en:Toronto District School Board", "phone": "+1-416-394-2350", "school:language": "english", "source": "Contains public sector Datasets made available under the City of Toronto's Open Data License v2.0.", "website": "https://schoolweb.tdsb.on.ca/harwood"}}, {"type": "way", "id": 35984125, "nodes": [420588950, 420588951, 3364858386, 420588953, 420588954, 420588950], "tags": {"addr:city": "York", "addr:housenumber": "69", "addr:postcode": "M6N 1T6", "addr:street": "Pritchard Avenue", "amenity": "school", "fax": "+1-416-394-4433", "isced:level": "1", "name": "George Syme Community School", "operator": "Toronto District School Board", "operator:short": "TDSB", "operator:type": "public", "operator:wikidata": "Q1189302", "operator:wikipedia": "en:Toronto District School Board", "phone": "+1-416-394-2340", "school:language": "english", "source": "Contains public sector Datasets made available under the City of Toronto's Open Data License v2.0.", "website": "https://www.tdsb.on.ca/MOSS/asp_apps/school_landing_page/index.asp?schno=6137"}}, {"type": "way", "id": 67803041, "nodes": [6299503520, 818627677, 818627625, 818627645, 818627669, 818627618, 818627640, 818627648, 6299503521, 818627671, 818627621, 818627630, 818627652, 6299503520], "tags": {"addr:city": "Toronto", "addr:housenumber": "99", "addr:postcode": "M6L 2H4", "addr:street": "Humber Boulevard", "amenity": "school", "denomination": "catholic", "fax": "+1-416-393-5010", "isced:level": "3", "mascot": "Raiders", "name": "St. Oscar Romero Catholic Secondary School", "opendata:type": "102002", "operator": "Toronto Catholic District School Board", "operator:short": "TCDSB", "operator:type": "public", "operator:wikidata": "Q405337", "operator:wikipedia": "en:Toronto Catholic District School Board", "phone": "+1-416-393-5555", "religion": "christian", "school:language": "english", "start_date": "1989-09-01", "website": "https://www.tcdsb.org/schools/stoscarromero", "wikidata": "Q4785637"}}, {"type": "way", "id": 139055258, "nodes": [1524328365, 1524328375, 1524328362, 1524328360, 1524328355, 1524328357, 1524328354, 1524328352, 1524328350, 1524328336, 1524328348, 1524328365], "tags": {"addr:city": "York", "addr:housenumber": "50", "addr:postcode": "M6N 1W9", "addr:street": "Bernice Crescent", "amenity": "school", "fax": "+1-416-394-4090", "isced:level": "1", "name": "Lambton Park Community School", "operator": "Toronto District School Board", "operator:short": "TDSB", "operator:type": "public", "operator:wikidata": "Q1189302", "operator:wikipedia": "en:Toronto District School Board", "phone": "+1-416-394-3070", "school:language": "english", "source": "Contains public sector Datasets made available under the City of Toronto's Open Data License v2.0.", "website": "https://schoolweb.tdsb.on.ca/lambtonpark/"}}, {"type": "way", "id": 174246889, "nodes": [818630117, 2340955541, 1849293395, 2340955530, 4793678433, 2340955551, 2340955539, 818630207, 818630123, 4793678430, 4793678419, 7543400174, 1849293393, 7543400173, 4793678431, 1849293394, 2242653759, 7543400175, 4793678432, 818630213, 4793678402, 818630117], "tags": {"addr:city": "Toronto", "addr:housenumber": "400", "addr:postcode": "M6N 4R8", "addr:street": "Rockcliffe Boulevard", "amenity": "school", "fax": "+1-416-394-4068", "isced:level": "2", "name": "Rockcliffe Middle School", "operator": "Toronto District School Board", "operator:short": "TDSB", "operator:type": "public", "operator:wikidata": "Q1189302", "operator:wikipedia": "en:Toronto District School Board", "phone": "+1-416-394-3100", "school:language": "english", "website": "https://schoolweb.tdsb.on.ca/rockcliffe"}}, {"type": "way", "id": 174246995, "nodes": [420581124, 4594260671, 1849296484, 1849296482, 4594260672, 1849296483, 420581124], "tags": {"addr:city": "Toronto", "addr:housenumber": "500", "addr:postcode": "M6N 2H8", "addr:street": "Alliance Avenue", "amenity": "school", "fax": "+1-416-394-4482", "isced:level": "3", "name": "Frank Oke Secondary School", "operator": "Toronto District School Board", "operator:short": "TDSB", "operator:type": "public", "operator:wikidata": "Q1189302", "operator:wikipedia": "en:Toronto District School Board", "phone": "+1-416-394-3158", "school:language": "english", "start_date": "1971-09-30", "website": "https://www.tdsb.on.ca/SchoolWeb/_site/viewitem.asp?siteid=10027&pageid=6892&menuid=7898"}}, {"type": "way", "id": 315412924, "nodes": [3215275837, 3215275824, 3215275817, 3215275818, 3215275819, 3215275820, 3215275821, 6317227774, 3215275822, 3215275823, 3215275825, 3215275826, 3215275834, 3215275837], "tags": {"addr:city": "Toronto", "addr:housenumber": "25", "addr:postcode": "M6N 4X8", "addr:street": "Avon Avenue", "amenity": "school", "denomination": "catholic", "fax": "+1-416-393-5083", "isced:level": "1;2", "name": "Santa Maria Catholic School", "operator": "Toronto Catholic District School Board", "operator:short": "TCDSB", "operator:type": "public", "operator:wikidata": "Q405337", "operator:wikipedia": "en:Toronto Catholic District School Board", "phone": "+1-416-393-5368", "religion": "christian", "school:language": "english", "start_date": "1974-09-03", "website": "http://santamaria.tcdsb.org"}}]}