{"version": 0.6, "generator": "Overpass API 0.7.62.5 1bd436f1", "osm3s": {"timestamp_osm_base": "2025-03-11T10:48:00Z", "copyright": "The data included in this document is from www.openstreetmap.org. The data is made available under ODbL."}, "elements": [{"type": "node", "id": 6166939828, "lat": 43.674532, "lon": -79.4592364, "tags": {"addr:city": "Toronto", "addr:housenumber": "1702", "addr:street": "St. Clair Avenue West", "amenity": "restaurant", "cuisine": "brazilian", "name": "Sabor Brazil"}}, {"type": "node", "id": 6166939829, "lat": 43.6739848, "lon": -79.4601712, "tags": {"addr:city": "Toronto", "addr:housenumber": "1745", "addr:street": "St. Clair Avenue West", "amenity": "restaurant", "cuisine": "jamaican", "name": "King's Delight", "takeaway": "yes"}}, {"type": "node", "id": 6385529788, "lat": 43.6740672, "lon": -79.4613055, "tags": {"addr:housenumber": "1772", "addr:street": "St. Clair Avenue West", "amenity": "restaurant", "name": "Banh Cuon Pho Ga", "opening_hours": "Mo-Su 10:00-22:00", "phone": "+1-416-651-3771", "website": "https://www.banhcuonphoga.com/"}}, {"type": "node", "id": 6386823083, "lat": 43.6740961, "lon": -79.4611857, "tags": {"addr:housenumber": "1768", "addr:street": "St Claire Avenue W", "amenity": "restaurant", "name": "Pho Xua", "opening_hours": "Mo-Th,Su 11:30-22:00; Fr,Sa 11:30-23:00", "phone": "+1-416-519-9979", "website": "https://phoxua.ca/"}}, {"type": "node", "id": 7571861739, "lat": 43.6737282, "lon": -79.4629021, "tags": {"addr:housenumber": "1828", "addr:street": "St. Clair Avenue West", "amenity": "restaurant", "check_date": "2025-02-06", "name": "King's Palace", "opening_hours": "Mo-Fr 11:30-21:30; Sa 11:30-22:00; Su off", "phone": "+1 4166580682"}}, {"type": "node", "id": 7571861740, "lat": 43.6740432, "lon": -79.461414, "tags": {"amenity": "restaurant", "cuisine": "caribbean", "name": "Tropical Venue"}}, {"type": "node", "id": 7571861743, "lat": 43.6742063, "lon": -79.4606604, "tags": {"amenity": "restaurant", "cuisine": "vietnamese", "name": "Huong Viet Restaurant"}}, {"type": "node", "id": 7576431684, "lat": 43.6746981, "lon": -79.4585962, "tags": {"amenity": "restaurant", "check_date": "2024-02-14", "cuisine": "portuguese", "level": "0", "name": "Marina\u2019s Casa da Comida", "name:en": "Marina\u2019s Casa da Comida", "opening_hours": "Mo off; Tu-Th,Su 10:00-24:00; Fr-Sa 10:00-02:00", "wheelchair": "no"}}, {"type": "node", "id": 7576447085, "lat": 43.6747259, "lon": -79.4584853, "tags": {"amenity": "restaurant", "check_date": "2023-11-09", "cuisine": "portuguese", "name": "Sabors Tradicionais"}}, {"type": "node", "id": 7576447086, "lat": 43.6747427, "lon": -79.4584144, "tags": {"amenity": "restaurant", "cuisine": "caribbean", "name": "Unique Cafe Restaurant"}}, {"type": "node", "id": 7576447087, "lat": 43.674853, "lon": -79.4578583, "tags": {"amenity": "restaurant", "cuisine": "latin_american", "name": "El Rancherito"}}, {"type": "node", "id": 7576545650, "lat": 43.6749057, "lon": -79.4575648, "tags": {"amenity": "restaurant", "check_date": "2023-11-09", "name": "Flor do Ave", "opening_hours": "Mo-We 08:00-11:00,12:00-21:00; Th-Sa 08:00-11:00,12:00-22:00; Su off"}}, {"type": "node", "id": 7576545652, "lat": 43.6749575, "lon": -79.4573215, "tags": {"amenity": "restaurant", "check_date": "2023-11-09", "cuisine": "brazilian", "name": "Samba"}}, {"type": "node", "id": 11336979602, "lat": 43.674645, "lon": -79.4566077, "tags": {"amenity": "restaurant", "check_date": "2023-11-09", "name": "T\u00e1vora", "opening_hours": "Mo-Th 11:00-19:30; Fr 11:00-20:00; Sa 11:00-19:00; Su 11:00-16:00"}}]}