{"version": 0.6, "generator": "Overpass API 0.7.62.5 1bd436f1", "osm3s": {"timestamp_osm_base": "2025-02-19T15:31:40Z", "copyright": "The data included in this document is from www.openstreetmap.org. The data is made available under ODbL."}, "elements": [{"type": "node", "id": 361358185, "lat": 43.7570746, "lon": -79.5031066}, {"type": "node", "id": 361358195, "lat": 43.7565044, "lon": -79.4994979}, {"type": "node", "id": 361358197, "lat": 43.7571459, "lon": -79.4991595}, {"type": "node", "id": 361358198, "lat": 43.7574768, "lon": -79.4991172}, {"type": "node", "id": 361358200, "lat": 43.757767, "lon": -79.4991877}, {"type": "node", "id": 361358202, "lat": 43.7588564, "lon": -79.4996388}, {"type": "node", "id": 361358203, "lat": 43.7592586, "lon": -79.4997023}, {"type": "node", "id": 361358209, "lat": 43.758892, "lon": -79.5013022}, {"type": "node", "id": 363913546, "lat": 43.7600541, "lon": -79.5037236}, {"type": "node", "id": 363913559, "lat": 43.7592579, "lon": -79.5033699}, {"type": "node", "id": 363913565, "lat": 43.7589549, "lon": -79.5027694}, {"type": "node", "id": 365675911, "lat": 43.7634592, "lon": -79.495102}, {"type": "node", "id": 365675917, "lat": 43.7624884, "lon": -79.4942964}, {"type": "node", "id": 365866949, "lat": 43.7524953, "lon": -79.5037749}, {"type": "node", "id": 365866955, "lat": 43.7536567, "lon": -79.5044779}, {"type": "node", "id": 365866959, "lat": 43.7540346, "lon": -79.5044824}, {"type": "node", "id": 365866962, "lat": 43.7539, "lon": -79.5021564}, {"type": "node", "id": 365866972, "lat": 43.7533281, "lon": -79.5022547}, {"type": "node", "id": 365866978, "lat": 43.7528469, "lon": -79.5021148}, {"type": "node", "id": 401504880, "lat": 43.7540735, "lon": -79.4994548}, {"type": "node", "id": 401504881, "lat": 43.7544053, "lon": -79.4984376}, {"type": "node", "id": 401504882, "lat": 43.7545297, "lon": -79.4979619}, {"type": "node", "id": 401504883, "lat": 43.7540735, "lon": -79.4977322}, {"type": "node", "id": 401504884, "lat": 43.7537654, "lon": -79.4977486}, {"type": "node", "id": 401504885, "lat": 43.7536529, "lon": -79.4980603}, {"type": "node", "id": 401504886, "lat": 43.7535107, "lon": -79.4979619}, {"type": "node", "id": 401504887, "lat": 43.7531374, "lon": -79.4987904}, {"type": "node", "id": 401504890, "lat": 43.7509119, "lon": -79.492437}, {"type": "node", "id": 401504891, "lat": 43.7512608, "lon": -79.4925632}, {"type": "node", "id": 401504892, "lat": 43.7515416, "lon": -79.4926359}, {"type": "node", "id": 401504893, "lat": 43.7513118, "lon": -79.4937919}, {"type": "node", "id": 401504894, "lat": 43.7512265, "lon": -79.4939822}, {"type": "node", "id": 401504919, "lat": 43.7593168, "lon": -79.4932824}, {"type": "node", "id": 401504920, "lat": 43.7591618, "lon": -79.4953843}, {"type": "node", "id": 401504921, "lat": 43.7581737, "lon": -79.4953535}, {"type": "node", "id": 401504922, "lat": 43.7582362, "lon": -79.4947103}, {"type": "node", "id": 401504923, "lat": 43.7579783, "lon": -79.4946211}, {"type": "node", "id": 401504924, "lat": 43.7582096, "lon": -79.4934084}, {"type": "node", "id": 401504925, "lat": 43.7583461, "lon": -79.4926997}, {"type": "node", "id": 401504926, "lat": 43.7588201, "lon": -79.4930724}, {"type": "node", "id": 401504936, "lat": 43.7494704, "lon": -79.487719}, {"type": "node", "id": 401504937, "lat": 43.7492466, "lon": -79.4895197}, {"type": "node", "id": 401504938, "lat": 43.7489243, "lon": -79.4895092}, {"type": "node", "id": 401504939, "lat": 43.7481702, "lon": -79.4891917}, {"type": "node", "id": 401504940, "lat": 43.7485413, "lon": -79.4874933}, {"type": "node", "id": 401505139, "lat": 43.7506592, "lon": -79.4936024}, {"type": "node", "id": 401505151, "lat": 43.758743, "lon": -79.5022819}, {"type": "node", "id": 401505152, "lat": 43.7604606, "lon": -79.5018908}, {"type": "node", "id": 401505153, "lat": 43.7593895, "lon": -79.501392}, {"type": "node", "id": 401505154, "lat": 43.7592236, "lon": -79.5017792}, {"type": "node", "id": 401505155, "lat": 43.7589933, "lon": -79.5020577}, {"type": "node", "id": 406937647, "lat": 43.7465055, "lon": -79.4879354}, {"type": "node", "id": 406937650, "lat": 43.7462117, "lon": -79.489366}, {"type": "node", "id": 406937653, "lat": 43.7444386, "lon": -79.4889312}, {"type": "node", "id": 406937657, "lat": 43.7447527, "lon": -79.4875217}, {"type": "node", "id": 410798839, "lat": 43.763984, "lon": -79.4926893}, {"type": "node", "id": 410798840, "lat": 43.7633345, "lon": -79.49239}, {"type": "node", "id": 410798841, "lat": 43.763132, "lon": -79.4929101}, {"type": "node", "id": 410798842, "lat": 43.762862, "lon": -79.4934897}, {"type": "node", "id": 809316255, "lat": 43.7639206, "lon": -79.4926601}, {"type": "node", "id": 820080020, "lat": 43.7455637, "lon": -79.4892071}, {"type": "node", "id": 1143320382, "lat": 43.7630786, "lon": -79.4930247}, {"type": "node", "id": 1143320383, "lat": 43.7627646, "lon": -79.4937001}, {"type": "node", "id": 3774351950, "lat": 43.7626145, "lon": -79.4947477}, {"type": "node", "id": 3774351951, "lat": 43.7626896, "lon": -79.4943931}, {"type": "node", "id": 6302706992, "lat": 43.7597547, "lon": -79.501562}, {"type": "node", "id": 6302707024, "lat": 43.7482768, "lon": -79.4887184}, {"type": "node", "id": 7102270363, "lat": 43.7452763, "lon": -79.488305, "tags": {"addr:city": "Toronto", "addr:housenumber": "1430", "addr:postcode": "M3M 2W9", "addr:street": "Sheppard Avenue West", "amenity": "school", "fax": "+1-416-395-8047", "isced:level": "1;2", "name": "Africentric Alternative School", "operator": "Toronto District School Board", "operator:short": "TDSB", "operator:type": "public", "operator:wikidata": "Q1189302", "operator:wikipedia": "en:Toronto District School Board", "phone": "+1-416-395-5251", "school:language": "english", "start_date": "2009-09-01", "website": "https://schoolweb.tdsb.on.ca/africentricschool"}}, {"type": "node", "id": 11495379103, "lat": 43.7591756, "lon": -79.4996911}, {"type": "way", "id": 32224231, "nodes": [361358185, 361358195, 361358197, 361358198, 361358200, 361358202, 11495379103, 361358203, 361358209, 361358185], "tags": {"addr:city": "North York", "addr:housenumber": "340", "addr:postcode": "M3J 1T9", "addr:street": "Sentinel Road", "amenity": "school", "fax": "+1-416-395-4211", "isced:level": "3", "mascot": "Saints", "name": "C.W. Jefferys Collegiate Institute", "operator": "Toronto District School Board", "operator:short": "TDSB", "operator:type": "public", "operator:wikidata": "Q1189302", "operator:wikipedia": "en:Toronto District School Board", "phone": "+1-416-395-3170", "school:language": "english", "source": "Contains public sector Datasets made available under the City of Toronto's Open Data License v2.0.", "website": "https://schoolweb.tdsb.on.ca/cwjefferys/", "wikidata": "Q5006949", "wikipedia": "en:C. W. Jefferys Collegiate Institute"}}, {"type": "way", "id": 32532750, "nodes": [365866949, 365866955, 365866959, 365866962, 365866972, 365866978, 365866949], "tags": {"addr:city": "North York", "addr:housenumber": "33", "addr:postcode": "M3J 1G6", "addr:street": "Lamberton Boulevard", "amenity": "school", "fax": "+1-416-395-9569", "isced:level": "1", "name": "Lamberton Public School", "operator": "Toronto District School Board", "operator:short": "TDSB", "operator:type": "public", "operator:wikidata": "Q1189302", "operator:wikipedia": "en:Toronto District School Board", "phone": "+1-416-395-9570", "school:language": "english", "source": "Contains public sector Datasets made available under the City of Toronto's Open Data License v2.0.", "website": "https://www.tdsb.on.ca/MOSS/asp_apps/school_landing_page/index.asp?schno=3187&Status=L"}}, {"type": "way", "id": 34586047, "nodes": [401504880, 401504881, 401504882, 401504883, 401504884, 401504885, 401504886, 401504887, 401504880], "tags": {"addr:city": "North York", "addr:housenumber": "215", "addr:postcode": "M3J 1T7", "addr:street": "Sentinel Road", "amenity": "school", "fax": "+1-416-395-4215", "isced:level": "2", "name": "Elia Middle School", "operator": "Toronto District School Board", "operator:short": "TDSB", "operator:type": "public", "operator:wikidata": "Q1189302", "operator:wikipedia": "en:Toronto District School Board", "phone": "+1-416-395-3020", "school:language": "english", "source": "Contains public sector Datasets made available under the City of Toronto's Open Data License v2.0.", "website": "https://schoolweb.tdsb.on.ca/elia"}}, {"type": "way", "id": 34586050, "nodes": [401504919, 401504920, 401504921, 401504922, 401504923, 401504924, 401504925, 401504926, 401504919], "tags": {"addr:city": "North York", "addr:housenumber": "120", "addr:postcode": "M3J 1R7", "addr:street": "Derrydown Road", "amenity": "school", "fax": "+1-416-395-2313", "isced:level": "1", "name": "Derrydown Public School", "operator": "Toronto District School Board", "operator:short": "TDSB", "operator:type": "public", "operator:wikidata": "Q1189302", "operator:wikipedia": "en:Toronto District School Board", "phone": "+1-416-395-2310", "school:language": "english", "source": "Contains public sector Datasets made available under the City of Toronto's Open Data License v2.0.", "website": "https://schoolweb.tdsb.on.ca/derrydown"}}, {"type": "way", "id": 34586052, "nodes": [401504936, 401504937, 401504938, 401504939, 6302707024, 401504940, 401504936], "tags": {"addr:city": "Toronto", "addr:housenumber": "111", "addr:postcode": "M3J 1P5", "addr:street": "Sharpecroft Boulevard", "amenity": "school", "denomination": "catholic", "fax": "+1-416-393-5131", "isced:level": "1;2", "name": "St. Jerome Catholic School", "opendata:type": "102003", "operator": "Toronto Catholic District School Board", "operator:short": "TCDSB", "operator:type": "public", "operator:wikidata": "Q405337", "phone": "+1-416-393-5294", "religion": "christian", "school:language": "english", "source": "yahoo", "website": "http://stjerome.tcdsb.org"}}, {"type": "way", "id": 34586096, "nodes": [401504894, 401505139, 401504890, 401504891, 401504892, 401504893, 401504894], "tags": {"addr:city": "North York", "addr:housenumber": "50", "addr:postcode": "M3J 1A7", "addr:street": "Stilecroft Drive", "amenity": "school", "fax": "+1-416-395-4446", "isced:level": "1", "name": "Stilecroft Public School", "operator": "Toronto District School Board", "operator:short": "TDSB", "operator:type": "public", "operator:wikidata": "Q1189302", "operator:wikipedia": "en:Toronto District School Board", "phone": "+1-416-395-2910", "school:language": "english", "source": "Contains public sector Datasets made available under the City of Toronto's Open Data License v2.0.", "website": "https://schoolweb.tdsb.on.ca/stilecroft"}}, {"type": "way", "id": 34586100, "nodes": [401505151, 363913565, 363913559, 363913546, 401505152, 6302706992, 401505153, 401505154, 401505155, 401505151], "tags": {"addr:city": "Toronto", "addr:housenumber": "1685", "addr:postcode": "M3J 2G8", "addr:street": "Finch Avenue West", "amenity": "school", "denomination": "catholic", "fax": "+1-416-393-5143", "isced:level": "1;2", "name": "St. Wilfrid Catholic School", "opendata:type": "102003", "operator": "Toronto Catholic District School Board", "operator:short": "TCDSB", "operator:type": "public", "operator:wikidata": "Q405337", "phone": "+1-416-393-5313", "religion": "christian", "school:language": "english", "source": "yahoo", "website": "http://stwilfrid.tcdsb.org"}}, {"type": "way", "id": 34795015, "nodes": [406937647, 406937650, 820080020, 406937653, 406937657, 406937647], "tags": {"addr:city": "North York", "addr:housenumber": "1430", "addr:postcode": "M3M 2W9", "addr:street": "Sheppard Avenue West", "amenity": "school", "fax": "+1-416-395-5250", "isced:level": "1;2", "name": "Sheppard Public School", "operator": "Toronto District School Board", "operator:short": "TDSB", "operator:type": "public", "operator:wikidata": "Q1189302", "operator:wikipedia": "en:Toronto District School Board", "phone": "+1-416-395-2860", "school:language": "english", "website": "https://schoolweb.tdsb.on.ca/sheppard"}}, {"type": "way", "id": 35023686, "nodes": [410798839, 809316255, 410798840, 410798841, 1143320382, 410798842, 1143320383, 365675917, 3774351951, 3774351950, 365675911, 410798839], "tags": {"addr:city": "Toronto", "addr:housenumber": "1440", "addr:postcode": "M3J 3G3", "addr:street": "Finch Avenue West", "amenity": "school", "denomination": "catholic", "fax": "+1-416-397-6062", "isced:level": "3", "mascot": "Wolves", "name": "James Cardinal McGuigan Catholic High School", "operator": "Toronto Catholic District School Board", "operator:short": "TCDSB", "operator:type": "public", "operator:wikidata": "Q405337", "phone": "+1-416-393-5527", "religion": "christian", "school:language": "english", "start_date": "1982-09-01", "website": "http://jamescardinalmcguigan.tcdsb.org", "wikidata": "Q16849420", "wikipedia": "en:James Cardinal McGuigan Catholic High School"}}]}