{"version": 0.6, "generator": "Overpass API 0.7.62.5 1bd436f1", "osm3s": {"timestamp_osm_base": "2025-03-11T12:50:14Z", "copyright": "The data included in this document is from www.openstreetmap.org. The data is made available under ODbL."}, "elements": [{"type": "node", "id": 368127384, "lat": 43.7035378, "lon": -79.5260927, "tags": {"addr:city": "York", "addr:housenumber": "2189-2191", "addr:street": "Weston Road", "name": "Park's Supermarket", "shop": "convenience"}}, {"type": "node", "id": 417231068, "lat": 43.7026267, "lon": -79.5042599, "tags": {"name": "Vinayaka Convenience", "shop": "convenience"}}, {"type": "node", "id": 1985071994, "lat": 43.6998092, "lon": -79.5166868}, {"type": "node", "id": 1985071996, "lat": 43.699842, "lon": -79.5165454}, {"type": "node", "id": 1985071998, "lat": 43.6999534, "lon": -79.5167508}, {"type": "node", "id": 1985071999, "lat": 43.6999862, "lon": -79.5166094}, {"type": "node", "id": 4245225975, "lat": 43.7099696, "lon": -79.5059902, "tags": {"name": "Pelmo Mini Mart", "shop": "convenience"}}, {"type": "node", "id": 4245233286, "lat": 43.7076911, "lon": -79.5054665, "tags": {"name": "George's Food Store", "shop": "convenience"}}, {"type": "node", "id": 4245235158, "lat": 43.703136, "lon": -79.5040343, "tags": {"lottery": "yes", "name": "Lucky Smoke Gift Convenience", "shop": "convenience"}}, {"type": "node", "id": 4245247491, "lat": 43.7012485, "lon": -79.503677, "tags": {"name": "Homeland West Indian Supermarket", "shop": "convenience"}}, {"type": "node", "id": 4414106721, "lat": 43.7008761, "lon": -79.5108922, "tags": {"addr:city": "York", "addr:housenumber": "2013", "addr:province": "ON", "addr:street": "Lawrence Avenue West", "addr:unit": "1", "atm": "yes", "name": "The Corner Store Convenience", "shop": "convenience"}}, {"type": "node", "id": 4414956898, "lat": 43.7004826, "lon": -79.5168223, "tags": {"lottery": "yes", "moneygram": "yes", "name": "Tom's Variety", "shop": "convenience"}}, {"type": "node", "id": 6340934481, "lat": 43.7065963, "lon": -79.531755, "tags": {"name": "Seif Halal Food Market", "shop": "convenience"}}, {"type": "node", "id": 6340934484, "lat": 43.706582, "lon": -79.5315401, "tags": {"name": "Home Town Convenience", "shop": "convenience"}}, {"type": "node", "id": 6340941060, "lat": 43.7031684, "lon": -79.5247333, "tags": {"name": "Sinclair Variety & Gift", "shop": "convenience"}}, {"type": "node", "id": 6340988716, "lat": 43.7023474, "lon": -79.5228257, "tags": {"name": "Min-A-Mart", "shop": "convenience"}}, {"type": "node", "id": 6341002529, "lat": 43.7007826, "lon": -79.5179703, "tags": {"name": "Ausef Foods", "shop": "convenience"}}, {"type": "node", "id": 6341008992, "lat": 43.7010381, "lon": -79.5174278, "tags": {"name": "OK Supermarket", "not:brand:wikidata": "Q3268010", "shop": "convenience"}}, {"type": "node", "id": 6341020716, "lat": 43.6997855, "lon": -79.5171096, "tags": {"name": "Iman Varieties Store", "shop": "convenience"}}, {"type": "node", "id": 6341020720, "lat": 43.699981, "lon": -79.5180279, "tags": {"name": "Kedija Grocery Store", "shop": "convenience"}}, {"type": "node", "id": 6341397532, "lat": 43.6999949, "lon": -79.5160878, "tags": {"addr:housenumber": "1894", "addr:street": "Weston Road", "atm": "yes", "name": "E's Discount", "shop": "convenience"}}, {"type": "node", "id": 6341397533, "lat": 43.6999482, "lon": -79.5159974, "tags": {"addr:housenumber": "1890", "addr:street": "Weston Road", "name": "Waryaa Covenience Store", "shop": "convenience"}}, {"type": "node", "id": 6341397537, "lat": 43.6998762, "lon": -79.5157448, "tags": {"addr:housenumber": "1880", "addr:street": "Weston Road", "name": "Al-Baraka Variety Store", "shop": "convenience"}}, {"type": "node", "id": 6341397562, "lat": 43.6989458, "lon": -79.5133016, "tags": {"addr:housenumber": "1806", "addr:street": "Weston Road", "name": "Global Groceries Canada", "shop": "convenience"}}, {"type": "node", "id": 6341397568, "lat": 43.6987688, "lon": -79.5128528, "tags": {"addr:housenumber": "1794", "addr:street": "Weston Road", "name": "Jam's Grocery Variety", "shop": "convenience"}}, {"type": "node", "id": 6341447988, "lat": 43.6976617, "lon": -79.5101379, "tags": {"addr:city": "Toronto", "addr:housenumber": "1708", "addr:province": "ON", "addr:street": "Weston Road", "name": "Daily Mart", "opening_hours": "24/7", "phone": "+1-313-917-6279", "shop": "convenience"}}, {"type": "node", "id": 6341447997, "lat": 43.6968766, "lon": -79.5093156, "tags": {"name": "NOI African Supermarket", "shop": "convenience"}}, {"type": "node", "id": 6341456299, "lat": 43.695869, "lon": -79.5074987, "tags": {"addr:housenumber": "1615", "addr:street": "Weston Road", "name": "Weston Rd. Convenience Store", "shop": "convenience"}}, {"type": "node", "id": 6357208063, "lat": 43.7095159, "lon": -79.5059697, "tags": {"brand": "Circle K", "brand:wikidata": "Q3268010", "brand:wikipedia": "en:Circle K", "name": "Circle K", "shop": "convenience"}}, {"type": "node", "id": 6357395956, "lat": 43.7077636, "lon": -79.5054857, "tags": {"name": "Oba Market", "shop": "convenience"}}, {"type": "node", "id": 6357395967, "lat": 43.706383, "lon": -79.5051046, "tags": {"name": "Jane Food Store", "shop": "convenience"}}, {"type": "node", "id": 6358036499, "lat": 43.7037943, "lon": -79.5043921, "tags": {"name": "Xpress Tropical Foods & Meat", "shop": "convenience"}}, {"type": "node", "id": 6358036501, "lat": 43.703698, "lon": -79.504352, "tags": {"name": "Kajanth Grocery", "shop": "convenience"}}, {"type": "node", "id": 6358489629, "lat": 43.7011796, "lon": -79.5036507, "tags": {"name": "Ray's Tropical Foods", "shop": "convenience"}}, {"type": "node", "id": 10875495069, "lat": 43.6967696, "lon": -79.5039216, "tags": {"addr:housenumber": "1500", "addr:street": "Jane Street", "brand": "FreshCo", "brand:wikidata": "Q5502915", "name": "FreshCo", "shop": "supermarket"}}, {"type": "way", "id": 187869200, "nodes": [1985071998, 1985071999, 1985071996, 1985071994, 1985071998], "tags": {"building": "commercial", "name": "Weston Village Cafe", "note": "Sign is \"Weston Village Cafe Convenience Store\" so it's tagged as a convenience store", "shop": "convenience"}}]}