{"version": 0.6, "generator": "Overpass API 0.7.62.5 1bd436f1", "osm3s": {"timestamp_osm_base": "2025-03-11T10:42:53Z", "copyright": "The data included in this document is from www.openstreetmap.org. The data is made available under ODbL."}, "elements": [{"type": "node", "id": 40508648, "lat": 43.7680995, "lon": -79.164428}, {"type": "node", "id": 40508649, "lat": 43.7692876, "lon": -79.1649037}, {"type": "node", "id": 40508652, "lat": 43.7688517, "lon": -79.1667499}, {"type": "node", "id": 40511550, "lat": 43.7715945, "lon": -79.1659011}, {"type": "node", "id": 40511553, "lat": 43.7712123, "lon": -79.1677456}, {"type": "node", "id": 40512458, "lat": 43.7713898, "lon": -79.1668558}, {"type": "node", "id": 41182867, "lat": 43.7728526, "lon": -79.1851015}, {"type": "node", "id": 41182870, "lat": 43.7734537, "lon": -79.1863032}, {"type": "node", "id": 41182871, "lat": 43.7727534, "lon": -79.1869383}, {"type": "node", "id": 41182873, "lat": 43.7725923, "lon": -79.1875649}, {"type": "node", "id": 41182874, "lat": 43.772084, "lon": -79.1873417}, {"type": "node", "id": 41182878, "lat": 43.7722328, "lon": -79.1866293}, {"type": "node", "id": 41182881, "lat": 43.77227, "lon": -79.1865263}, {"type": "node", "id": 41182888, "lat": 43.7723877, "lon": -79.1854792}, {"type": "node", "id": 41183335, "lat": 43.7770403, "lon": -79.1907913}, {"type": "node", "id": 41183336, "lat": 43.7767304, "lon": -79.1920616}, {"type": "node", "id": 41183337, "lat": 43.7766375, "lon": -79.1921045}, {"type": "node", "id": 41183340, "lat": 43.7765259, "lon": -79.1921045}, {"type": "node", "id": 41183342, "lat": 43.7763958, "lon": -79.1922419}, {"type": "node", "id": 41183343, "lat": 43.7763524, "lon": -79.1924049}, {"type": "node", "id": 41183345, "lat": 43.7762718, "lon": -79.1925938}, {"type": "node", "id": 41183347, "lat": 43.7761974, "lon": -79.1926796}, {"type": "node", "id": 41183348, "lat": 43.7761312, "lon": -79.1929133}, {"type": "node", "id": 41183349, "lat": 43.7758366, "lon": -79.1927357}, {"type": "node", "id": 41183351, "lat": 43.7740127, "lon": -79.1919567}, {"type": "node", "id": 41183356, "lat": 43.7746047, "lon": -79.1893408}, {"type": "node", "id": 41183358, "lat": 43.7753112, "lon": -79.1896669}, {"type": "node", "id": 41183361, "lat": 43.775441, "lon": -79.1890858}, {"type": "node", "id": 41183362, "lat": 43.775807, "lon": -79.1892378}, {"type": "node", "id": 41183366, "lat": 43.7760363, "lon": -79.1894266}, {"type": "node", "id": 45992503, "lat": 43.7671814, "lon": -79.1777593}, {"type": "node", "id": 45992510, "lat": 43.7677551, "lon": -79.1751924}, {"type": "node", "id": 45993168, "lat": 43.7664167, "lon": -79.1774668}, {"type": "node", "id": 45993171, "lat": 43.7661571, "lon": -79.1773558}, {"type": "node", "id": 45993175, "lat": 43.7667289, "lon": -79.1748104}, {"type": "node", "id": 138609508, "lat": 43.7678422, "lon": -79.1862769}, {"type": "node", "id": 138609510, "lat": 43.7674811, "lon": -79.1878866}, {"type": "node", "id": 138609511, "lat": 43.7663516, "lon": -79.1873987}, {"type": "node", "id": 138609513, "lat": 43.7666844, "lon": -79.185775}, {"type": "node", "id": 276550945, "lat": 43.7613336, "lon": -79.181264}, {"type": "node", "id": 276550946, "lat": 43.7622125, "lon": -79.1816763}, {"type": "node", "id": 276550947, "lat": 43.7624551, "lon": -79.1806786}, {"type": "node", "id": 276550949, "lat": 43.7626636, "lon": -79.1800632}, {"type": "node", "id": 276550950, "lat": 43.7628026, "lon": -79.1796573}, {"type": "node", "id": 276550951, "lat": 43.7629822, "lon": -79.1793269}, {"type": "node", "id": 276550952, "lat": 43.7616152, "lon": -79.1787202}, {"type": "node", "id": 276550953, "lat": 43.7613227, "lon": -79.1792663}, {"type": "node", "id": 276550954, "lat": 43.7611275, "lon": -79.1795491}, {"type": "node", "id": 276550955, "lat": 43.7609659, "lon": -79.1797511}, {"type": "node", "id": 276550956, "lat": 43.7608649, "lon": -79.1800137}, {"type": "node", "id": 276550958, "lat": 43.7606023, "lon": -79.1806197}, {"type": "node", "id": 427823543, "lat": 43.7653938, "lon": -79.1972159}, {"type": "node", "id": 427823544, "lat": 43.7643981, "lon": -79.1967852}, {"type": "node", "id": 427823545, "lat": 43.7646155, "lon": -79.1958546}, {"type": "node", "id": 427823546, "lat": 43.7656193, "lon": -79.1963135}, {"type": "node", "id": 558712679, "lat": 43.769162, "lon": -79.1951583}, {"type": "node", "id": 558712680, "lat": 43.7685352, "lon": -79.1945488}, {"type": "node", "id": 558712684, "lat": 43.7685308, "lon": -79.1943403}, {"type": "node", "id": 841360175, "lat": 43.7689706, "lon": -79.1962392}, {"type": "node", "id": 1028776293, "lat": 43.7596192, "lon": -79.190783}, {"type": "node", "id": 1028776326, "lat": 43.7593247, "lon": -79.1919846}, {"type": "node", "id": 1028776380, "lat": 43.7588121, "lon": -79.190441}, {"type": "node", "id": 1502636433, "lat": 43.7582655, "lon": -79.1954624}, {"type": "node", "id": 1502636435, "lat": 43.7584108, "lon": -79.194738}, {"type": "node", "id": 1502636436, "lat": 43.7585319, "lon": -79.1946977}, {"type": "node", "id": 1502636437, "lat": 43.7585659, "lon": -79.1957576}, {"type": "node", "id": 1502636439, "lat": 43.7585998, "lon": -79.19561}, {"type": "node", "id": 1502636441, "lat": 43.7586628, "lon": -79.195818}, {"type": "node", "id": 1502636443, "lat": 43.7587064, "lon": -79.1956302}, {"type": "node", "id": 1502636444, "lat": 43.7587645, "lon": -79.1935238}, {"type": "node", "id": 1502636449, "lat": 43.7590164, "lon": -79.1957576}, {"type": "node", "id": 1502636450, "lat": 43.7592006, "lon": -79.1957576}, {"type": "node", "id": 2334072273, "lat": 43.7585263, "lon": -79.1916956}, {"type": "node", "id": 2334072295, "lat": 43.7591999, "lon": -79.1919855}, {"type": "node", "id": 2334947097, "lat": 43.7598027, "lon": -79.1951984}, {"type": "node", "id": 2334947099, "lat": 43.7602793, "lon": -79.1953846}, {"type": "node", "id": 2334947100, "lat": 43.7605321, "lon": -79.1942332}, {"type": "node", "id": 2336695594, "lat": 43.7674533, "lon": -79.1961724}, {"type": "node", "id": 2336695595, "lat": 43.7680526, "lon": -79.1936826}, {"type": "node", "id": 2336695596, "lat": 43.7683342, "lon": -79.1938024}, {"type": "node", "id": 2336695597, "lat": 43.7687208, "lon": -79.1948845}, {"type": "node", "id": 2336695598, "lat": 43.768831, "lon": -79.1967447}, {"type": "node", "id": 2336695599, "lat": 43.7690722, "lon": -79.1947033}, {"type": "node", "id": 2336695600, "lat": 43.7692375, "lon": -79.1948082}, {"type": "node", "id": 3373090989, "lat": 43.770115, "lon": -79.1672828}, {"type": "node", "id": 4131885265, "lat": 43.7727038, "lon": -79.1861058}, {"type": "node", "id": 6640708299, "lat": 43.7678224, "lon": -79.1657746}, {"type": "node", "id": 6640708300, "lat": 43.7678679, "lon": -79.1653763}, {"type": "node", "id": 6640708345, "lat": 43.7680045, "lon": -79.1648009}, {"type": "node", "id": 6640708351, "lat": 43.7677081, "lon": -79.1662547}, {"type": "node", "id": 10774518732, "lat": 43.7760851, "lon": -79.1894513}, {"type": "node", "id": 10774518761, "lat": 43.7761328, "lon": -79.1894756}, {"type": "node", "id": 10774518763, "lat": 43.7759322, "lon": -79.1893416}, {"type": "node", "id": 10774518773, "lat": 43.7773324, "lon": -79.190156}, {"type": "node", "id": 10774518793, "lat": 43.7768719, "lon": -79.1914816}, {"type": "node", "id": 10774518795, "lat": 43.777359, "lon": -79.1900859}, {"type": "node", "id": 12123183869, "lat": 43.7753176, "lon": -79.1896699}, {"type": "way", "id": 5520630, "nodes": [40511550, 40512458, 40511553, 3373090989, 40508652, 40508649, 40511550], "tags": {"addr:city": "Toronto", "addr:housenumber": "80", "addr:postcode": "M1E 3Y3", "addr:province": "ON", "addr:street": "Bennett Road", "amenity": "school", "denomination": "catholic", "fax": "+1-416-393-5585", "isced:level": "1;2", "name": "St. Malachy Catholic School", "operator": "Toronto Catholic District School Board", "operator:short": "TCDSB", "operator:type": "public", "operator:wikidata": "Q405337", "phone": "+1-416-393-5336", "religion": "christian", "school:language": "english", "start_date": "1971-09-30", "website": "http://stmalachy.tcdsb.org", "wheelchair": "yes"}}, {"type": "way", "id": 5560209, "nodes": [41182867, 41182870, 41182871, 41182873, 41182874, 41182878, 41182881, 4131885265, 41182888, 41182867], "tags": {"addr:city": "Scarborough", "addr:housenumber": "299", "addr:postcode": "M1E 3G1", "addr:street": "Morningside Avenue", "amenity": "school", "check_date": "2024-03-13", "fax": "+1-416-396-3252", "isced:level": "1;2", "name": "West Hill Public School", "operator": "Toronto District School Board", "operator:short": "TDSB", "operator:type": "public", "operator:wikidata": "Q1189302", "operator:wikipedia": "en:Toronto District School Board", "phone": "+1-416-396-6630", "school:language": "english", "source": "Contains public sector Datasets made available under the City of Toronto's Open Data License v2.0.", "website": "https://schoolweb.tdsb.on.ca/westhillps"}}, {"type": "way", "id": 5560231, "nodes": [10774518795, 10774518773, 41183335, 10774518793, 41183336, 41183337, 41183340, 41183342, 41183343, 41183345, 41183347, 41183348, 41183349, 41183351, 41183356, 41183358, 12123183869, 41183361, 41183362, 10774518763, 41183366, 10774518732, 10774518761, 10774518795], "tags": {"addr:city": "Toronto", "addr:housenumber": "350", "addr:postcode": "M1E 3G3", "addr:street": "Morningside Avenue", "amenity": "school", "fax": "+1-416-396-8300", "isced:level": "3", "mascot": "Warriors", "name": "West Hill Collegiate Institute", "operator": "Toronto District School Board", "operator:short": "TDSB", "operator:type": "public", "operator:wikidata": "Q1189302", "operator:wikipedia": "en:Toronto District School Board", "phone": "+1-416-396-6864", "school:language": "english", "source": "Contains public sector Datasets made available under the City of Toronto's Open Data License v2.0.", "website": "http://schools.tdsb.on.ca/westhill", "wikidata": "Q7985379", "wikipedia": "en:West Hill Collegiate Institute"}}, {"type": "way", "id": 5804475, "nodes": [45992503, 45993168, 45993171, 45993175, 45992510, 45992503], "tags": {"addr:city": "Scarborough", "addr:housenumber": "270", "addr:postcode": "M1E 3V4", "addr:street": "Manse Road", "amenity": "school", "fax": "+1-416-396-5961", "isced:level": "1;2", "name": "Joseph Brant Senior Public School", "operator": "Toronto District School Board", "operator:short": "TDSB", "operator:type": "public", "operator:wikidata": "Q1189302", "operator:wikipedia": "en:Toronto District School Board", "phone": "+1-416-396-6400", "school:language": "english", "source": "Contains public sector Datasets made available under the City of Toronto's Open Data License v2.0.", "start_date": "1971-09-30", "website": "https://schoolweb.tdsb.on.ca/josephbrant"}}, {"type": "way", "id": 14339498, "nodes": [138609508, 138609510, 138609511, 138609513, 138609508], "tags": {"addr:city": "Toronto", "addr:housenumber": "230", "addr:postcode": "M1E 3E1", "addr:street": "Morningside Avenue", "amenity": "school", "denomination": "catholic", "fax": "+1-416-393-5574", "isced:level": "1;2", "name": "St. Martin De Porres Catholic School", "opendata:type": "102003", "operator": "Toronto Catholic District School Board", "operator:short": "TCDSB", "operator:type": "public", "operator:wikidata": "Q405337", "phone": "+1-416-393-5286", "religion": "christian", "school:language": "english", "website": "http://stmartindeporres.tcdsb.org"}}, {"type": "way", "id": 25372485, "nodes": [276550945, 276550946, 276550947, 276550949, 276550950, 276550951, 276550952, 276550953, 276550954, 276550955, 276550956, 276550958, 276550945], "tags": {"addr:city": "Scarborough", "addr:housenumber": "255", "addr:postcode": "M1E 2J3", "addr:street": "Coronation Drive", "amenity": "school", "isced:level": "1", "name": "\u00c9cole \u00e9l\u00e9mentaire Acad\u00e9mie Alexandre-Dumas", "old_name": "Peter Secor Junior Public School", "operator": "Conseil scolaire Viamonde", "operator:type": "public", "operator:wikidata": "Q2994271", "phone": "+1-416-283-7749", "school:language": "french", "start_date": "2012-09-03", "website": "http://csviamonde.ca/ecoles/alexandredumas"}}, {"type": "way", "id": 36804403, "nodes": [427823543, 427823544, 427823545, 427823546, 427823543], "tags": {"addr:city": "Scarborough", "addr:housenumber": "192", "addr:postcode": "M1E 1X2", "addr:street": "Galloway Road", "amenity": "school", "fax": "+1-416-396-3434", "isced:level": "1;2", "name": "Galloway Road Public School", "operator": "Toronto District School Board", "operator:short": "TDSB", "operator:type": "public", "operator:wikidata": "Q1189302", "operator:wikipedia": "en:Toronto District School Board", "phone": "+1-416-396-6245", "school:language": "english", "source": "Contains public sector Datasets made available under the City of Toronto's Open Data License v2.0.", "website": "https://www.tdsb.on.ca/MOSS/asp_apps/school_landing_page/index.asp?schno=4486"}}, {"type": "way", "id": 224604127, "nodes": [1028776326, 2334072295, 2334072273, 1028776380, 1028776293, 1028776326], "tags": {"addr:city": "Scarborough", "addr:housenumber": "20", "addr:postcode": "M1E 2E5", "addr:street": "Waldock Street", "amenity": "school", "fax": "+1-416-396-6214", "isced:level": "1;2", "name": "Eastview Public School", "operator": "Toronto District School Board", "operator:short": "TDSB", "operator:type": "public", "operator:wikidata": "Q1189302", "operator:wikipedia": "en:Toronto District School Board", "phone": "+1-416-396-6210", "school:language": "english", "source": "Contains public sector Datasets made available under the City of Toronto's Open Data License v2.0.", "website": "https://www.tdsb.on.ca/MOSS/asp_apps/school_landing_page/index.asp?schno=4450"}}, {"type": "way", "id": 224699766, "nodes": [2334947100, 2334947099, 2334947097, 1502636450, 1502636449, 1502636443, 1502636441, 1502636437, 1502636439, 1502636433, 1502636435, 1502636436, 1502636444, 2334947100], "tags": {"addr:city": "West Hill", "addr:housenumber": "120", "addr:postcode": "M1E 1W7", "addr:street": "Galloway Road", "amenity": "school", "check_date": "2024-02-14", "fax": "+1-416-396-6770", "isced:level": "3", "name": "Maplewood High School", "operator": "Toronto District School Board", "operator:short": "TDSB", "operator:type": "public", "operator:wikidata": "Q1189302", "operator:wikipedia": "en:Toronto District School Board", "phone": "+1-416-396-6765", "school:language": "english", "source": "Contains public sector Datasets made available under the City of Toronto's Open Data License v2.0.", "website": "https://schoolweb.tdsb.on.ca/maplewood", "wikidata": "Q14875288", "wikipedia:en": "Maplewood High School (Toronto)"}}, {"type": "way", "id": 224815950, "nodes": [2336695598, 841360175, 558712679, 2336695600, 2336695599, 2336695597, 558712680, 558712684, 2336695596, 2336695595, 2336695594, 2336695598], "tags": {"addr:city": "Scarborough", "addr:housenumber": "235", "addr:postcode": "M1E 1X5", "addr:street": "Galloway Road", "amenity": "school", "fax": "+1-416-396-6553", "isced:level": "1;2", "name": "St. Margaret's Public School", "operator": "Toronto District School Board", "operator:short": "TDSB", "operator:type": "public", "operator:wikidata": "Q1189302", "operator:wikipedia": "en:Toronto District School Board", "phone": "+1-416-396-6550", "school:language": "english", "source": "Contains public sector Datasets made available under the City of Toronto's Open Data License v2.0.", "start_date": "1972-09-05", "website": "https://schoolweb.tdsb.on.ca/stmargarets"}}, {"type": "way", "id": 706684298, "nodes": [6640708345, 40508648, 40508649, 40508652, 6640708351, 6640708299, 6640708300, 6640708345], "tags": {"addr:city": "Scarborough", "addr:housenumber": "60", "addr:postcode": "M1E 3Y3", "addr:street": "Bennett Road", "amenity": "school", "fax": "+1-416-396-3355", "isced:level": "1;2", "name": "William G Miller Junior Public School", "operator": "Toronto District School Board", "operator:short": "TDSB", "operator:type": "public", "operator:wikidata": "Q1189302", "operator:wikipedia": "en:Toronto District School Board", "phone": "+1-416-396-6655", "school:language": "english", "source": "Contains public sector Datasets made available under the City of Toronto's Open Data License v2.0.", "website": "https://schoolweb.tdsb.on.ca/williammiller/"}}]}