{"version": 0.6, "generator": "Overpass API 0.7.62.5 1bd436f1", "osm3s": {"timestamp_osm_base": "2025-03-11T10:49:57Z", "copyright": "The data included in this document is from www.openstreetmap.org. The data is made available under ODbL."}, "elements": [{"type": "node", "id": 5706021524, "lat": 43.7380828, "lon": -79.5661756, "tags": {"addr:city": "Etobicoke", "addr:housenumber": "2646", "addr:postcode": "M9V 2X5", "addr:street": "Islington Avenue", "amenity": "restaurant", "name": "Brar's Restaurant", "phone": "+1-416-745-4449", "toilets:wheelchair": "yes", "wheelchair": "yes"}}, {"type": "node", "id": 5706024224, "lat": 43.7385239, "lon": -79.5654702, "tags": {"addr:city": "Etobicoke", "addr:housenumber": "2651", "addr:postcode": "M9V 2X6", "addr:street": "Islington Avenue", "amenity": "restaurant", "name": "Bangali Sweets & Restaurant", "phone": "+1-416-746-9393", "toilets:wheelchair": "yes", "wheelchair": "yes"}}, {"type": "node", "id": 5706095024, "lat": 43.7381756, "lon": -79.5662003, "tags": {"addr:city": "Etobicoke", "addr:housenumber": "2648", "addr:postcode": "M9V 2X5", "addr:street": "Islington Avenue", "amenity": "restaurant", "name": "Asia Garden Restaurant", "phone": "+1-416-749-8333", "wheelchair": "limited"}}, {"type": "node", "id": 5706096255, "lat": 43.7353405, "lon": -79.5591466, "tags": {"addr:city": "Etobicoke", "addr:housenumber": "900", "addr:postcode": "M9V 1A5", "addr:street": "Albion Road", "amenity": "restaurant", "name": "Golden Joy Restaurant", "phone": "+1-416-742-8838", "toilets:wheelchair": "yes", "wheelchair": "yes"}}, {"type": "node", "id": 5706096825, "lat": 43.7379303, "lon": -79.5672632, "tags": {"addr:city": "Etobicoke", "addr:housenumber": "1150", "addr:postcode": "M9V 1A8", "addr:street": "Albion Road", "amenity": "restaurant", "name": "Dosa Darbar", "phone": "+1-416-740-9009", "toilets:wheelchair": "yes", "wheelchair": "yes"}}, {"type": "node", "id": 5706111821, "lat": 43.7345018, "lon": -79.5600625, "tags": {"addr:city": "Etobicoke", "addr:housenumber": "849", "addr:postcode": "M9V 1A3", "addr:street": "Albion Road", "amenity": "restaurant", "name": "Afro Continental Restaurant Bar & Grill", "phone": "+1-416-519-6740", "toilets:wheelchair": "yes", "wheelchair": "yes"}}, {"type": "node", "id": 5706122121, "lat": 43.7342503, "lon": -79.5595228, "tags": {"addr:city": "Etobicoke", "addr:housenumber": "827", "addr:postcode": "M9V 1H2", "addr:street": "Albion Road", "amenity": "restaurant", "name": "Farida's halal roti pastries", "phone": "+1-416-551-3076", "toilets:wheelchair": "no", "wheelchair": "no"}}, {"type": "node", "id": 5709076021, "lat": 43.737942, "lon": -79.567333, "tags": {"addr:city": "Etobicoke", "addr:housenumber": "1152", "addr:postcode": "M9V 1A8", "addr:street": "Albion Road", "amenity": "restaurant", "name": "Indar's Roti & Doubles", "phone": "+1-416-745-0009", "toilets:wheelchair": "no", "wheelchair": "no"}}, {"type": "node", "id": 5709082221, "lat": 43.7380142, "lon": -79.5661523, "tags": {"addr:city": "Etobicoke", "addr:country": "CA", "addr:housenumber": "2642", "addr:postcode": "M9V 2X5", "addr:province": "ON", "addr:street": "Islington Avenue", "amenity": "restaurant", "cuisine": "indian", "name": "Karahi Point", "phone": "+1-416-746-6555", "toilets:wheelchair": "no", "wheelchair": "no"}}, {"type": "node", "id": 5709137824, "lat": 43.7351292, "lon": -79.5588086, "tags": {"addr:city": "Etobicoke", "addr:housenumber": "900", "addr:postcode": "M9V 1A5", "addr:street": "Albion Road", "amenity": "restaurant", "name": "King of Babylon Inc", "phone": "+1-416-746-6637", "toilets:wheelchair": "no", "wheelchair": "limited"}}, {"type": "node", "id": 5709168722, "lat": 43.7388577, "lon": -79.5656188, "tags": {"addr:city": "Etobicoke", "addr:housenumber": "2663", "addr:postcode": "M9V 1L2", "addr:street": "Islington Avenue", "amenity": "restaurant", "name": "Amanecer Salvadore\u00f1o Restaurant", "phone": "+1-416-745-1793", "toilets:wheelchair": "no", "wheelchair": "no"}}, {"type": "node", "id": 5709171821, "lat": 43.7371103, "lon": -79.5664664, "tags": {"addr:city": "Etobicoke", "addr:housenumber": "1123", "addr:postcode": "M9V 4J7", "addr:street": "Albion Road", "amenity": "restaurant", "name": "Madras Dosa", "phone": "+1-416-677-3672", "toilets:wheelchair": "no", "wheelchair": "no"}}, {"type": "node", "id": 5709207823, "lat": 43.7344724, "lon": -79.5599983, "tags": {"addr:city": "Etobicoke", "addr:housenumber": "847", "addr:postcode": "M9V 1A3", "addr:street": "Albion Road", "amenity": "restaurant", "name": "Lemongrass Thai Restaurant", "phone": "+1-416-744-1368", "toilets:wheelchair": "no", "wheelchair": "no"}}, {"type": "node", "id": 5709266124, "lat": 43.7382757, "lon": -79.5662318, "tags": {"addr:city": "Etobicoke", "addr:housenumber": "2652", "addr:postcode": "M9V 2X5", "addr:street": "Islington Avenue", "amenity": "restaurant", "name": "Pakwan", "toilets:wheelchair": "no", "wheelchair": "no"}}, {"type": "node", "id": 5709497928, "lat": 43.7384047, "lon": -79.5663115, "tags": {"addr:city": "Etobicoke", "addr:housenumber": "2658", "addr:postcode": "M9V 2X5", "addr:street": "Islington Avenue", "amenity": "restaurant", "name": "Rajdhani Sweets & Restaurant", "phone": "+1-416-748-7108", "toilets:wheelchair": "no", "wheelchair": "limited"}}, {"type": "node", "id": 5709533045, "lat": 43.7361101, "lon": -79.5637178, "tags": {"addr:city": "Etobicoke", "addr:housenumber": "979", "addr:postcode": "M9V 1A6", "addr:street": "Albion Road", "amenity": "restaurant", "name": "Roti Roti Family Restaurant", "phone": "+1-416-745-9208", "toilets:wheelchair": "no", "wheelchair": "limited"}}, {"type": "node", "id": 5709578123, "lat": 43.7379827, "lon": -79.5675301, "tags": {"addr:city": "Etobicoke", "addr:housenumber": "1158", "addr:postcode": "M9V 1A8", "addr:street": "Albion Road", "amenity": "restaurant", "name": "Rita's Kitchen", "phone": "+1-416-798-4115", "toilets:wheelchair": "yes", "wheelchair": "no"}}, {"type": "node", "id": 5709581221, "lat": 43.7359364, "lon": -79.563337, "tags": {"addr:city": "Etobicoke", "addr:housenumber": "967", "addr:postcode": "M9V 1A6", "addr:street": "Albion Road", "amenity": "restaurant", "name": "Shawarma Royal", "phone": "+1-647-430-3588", "toilets:wheelchair": "no", "wheelchair": "no"}}]}