{"version": 0.6, "generator": "Overpass API 0.7.62.5 1bd436f1", "osm3s": {"timestamp_osm_base": "2025-02-19T13:05:41Z", "copyright": "The data included in this document is from www.openstreetmap.org. The data is made available under ODbL."}, "elements": [{"type": "node", "id": 344210765, "lat": 43.748532, "lon": -79.5111333}, {"type": "node", "id": 344210768, "lat": 43.7476651, "lon": -79.5123687}, {"type": "node", "id": 344210769, "lat": 43.7475036, "lon": -79.512657}, {"type": "node", "id": 344210771, "lat": 43.7474696, "lon": -79.5127805}, {"type": "node", "id": 344210777, "lat": 43.7466877, "lon": -79.512457}, {"type": "node", "id": 344210781, "lat": 43.7474059, "lon": -79.5093802}, {"type": "node", "id": 363910188, "lat": 43.7555408, "lon": -79.5099771}, {"type": "node", "id": 401504269, "lat": 43.7522278, "lon": -79.5210064}, {"type": "node", "id": 401504270, "lat": 43.7512721, "lon": -79.5206657}, {"type": "node", "id": 401504271, "lat": 43.7516121, "lon": -79.5190778}, {"type": "node", "id": 401504280, "lat": 43.7513938, "lon": -79.526149}, {"type": "node", "id": 401504281, "lat": 43.7516545, "lon": -79.5248301}, {"type": "node", "id": 401504282, "lat": 43.7518204, "lon": -79.5244167}, {"type": "node", "id": 401504283, "lat": 43.7519579, "lon": -79.5237801}, {"type": "node", "id": 401504284, "lat": 43.7519721, "lon": -79.523498}, {"type": "node", "id": 401504285, "lat": 43.7519199, "lon": -79.5230977}, {"type": "node", "id": 401504286, "lat": 43.751837, "lon": -79.5228817}, {"type": "node", "id": 401504287, "lat": 43.752106, "lon": -79.5225088}, {"type": "node", "id": 401504288, "lat": 43.7522816, "lon": -79.5219206}, {"type": "node", "id": 401504290, "lat": 43.7541417, "lon": -79.5226431}, {"type": "node", "id": 401504291, "lat": 43.7540588, "lon": -79.5230205}, {"type": "node", "id": 401504292, "lat": 43.7542247, "lon": -79.5234224}, {"type": "node", "id": 401504293, "lat": 43.7544321, "lon": -79.5236931}, {"type": "node", "id": 401504294, "lat": 43.7540706, "lon": -79.5240458}, {"type": "node", "id": 401504295, "lat": 43.7536974, "lon": -79.5247266}, {"type": "node", "id": 401504296, "lat": 43.7530397, "lon": -79.5260472}, {"type": "node", "id": 401504297, "lat": 43.7528797, "lon": -79.5262113}, {"type": "node", "id": 401504299, "lat": 43.7526546, "lon": -79.5263671}, {"type": "node", "id": 401504300, "lat": 43.752465, "lon": -79.5264081}, {"type": "node", "id": 431335700, "lat": 43.7440988, "lon": -79.5084359}, {"type": "node", "id": 431335701, "lat": 43.7442763, "lon": -79.5076537}, {"type": "node", "id": 431335702, "lat": 43.7435373, "lon": -79.5073705}, {"type": "node", "id": 431335703, "lat": 43.7436169, "lon": -79.5069978}, {"type": "node", "id": 431335704, "lat": 43.7433955, "lon": -79.5068801}, {"type": "node", "id": 431335705, "lat": 43.7431373, "lon": -79.5080179}, {"type": "node", "id": 689777513, "lat": 43.7409637, "lon": -79.5031962}, {"type": "node", "id": 689777514, "lat": 43.7403145, "lon": -79.5029388}, {"type": "node", "id": 689777515, "lat": 43.7406963, "lon": -79.5012382}, {"type": "node", "id": 689777516, "lat": 43.741328, "lon": -79.5015118}, {"type": "node", "id": 689777517, "lat": 43.7391421, "lon": -79.50443}, {"type": "node", "id": 689777518, "lat": 43.7374678, "lon": -79.5037327}, {"type": "node", "id": 689777519, "lat": 43.7377856, "lon": -79.5025847}, {"type": "node", "id": 689777520, "lat": 43.7394444, "lon": -79.503282}, {"type": "node", "id": 689777521, "lat": 43.7392739, "lon": -79.5040223}, {"type": "node", "id": 689777522, "lat": 43.7392197, "lon": -79.5040009}, {"type": "node", "id": 931273029, "lat": 43.7411229, "lon": -79.5159211}, {"type": "node", "id": 931273042, "lat": 43.7424692, "lon": -79.5163637}, {"type": "node", "id": 2334637145, "lat": 43.7524845, "lon": -79.5197587}, {"type": "node", "id": 2334637146, "lat": 43.7525947, "lon": -79.5194822}, {"type": "node", "id": 2336695758, "lat": 43.7406831, "lon": -79.5178693}, {"type": "node", "id": 2336695783, "lat": 43.7420609, "lon": -79.5182793}, {"type": "node", "id": 2336696436, "lat": 43.754923, "lon": -79.5110121}, {"type": "node", "id": 2336696437, "lat": 43.7549313, "lon": -79.5096778}, {"type": "node", "id": 2336696438, "lat": 43.7556337, "lon": -79.5113485}, {"type": "node", "id": 2336696439, "lat": 43.7559126, "lon": -79.5101657}, {"type": "node", "id": 2336700705, "lat": 43.7488341, "lon": -79.5136708}, {"type": "node", "id": 2336700706, "lat": 43.749027, "lon": -79.5142284}, {"type": "node", "id": 2336700707, "lat": 43.7496683, "lon": -79.5128834}, {"type": "node", "id": 2336700708, "lat": 43.7509123, "lon": -79.5147645}, {"type": "node", "id": 2336700710, "lat": 43.7511775, "lon": -79.51363}, {"type": "node", "id": 2355286978, "lat": 43.7527649, "lon": -79.5196631}, {"type": "node", "id": 2355286979, "lat": 43.7529537, "lon": -79.5193381}, {"type": "node", "id": 2355286980, "lat": 43.752969, "lon": -79.5197761}, {"type": "node", "id": 2355286981, "lat": 43.753168, "lon": -79.5190979}, {"type": "node", "id": 2355286982, "lat": 43.7544692, "lon": -79.5188507}, {"type": "node", "id": 2355286983, "lat": 43.7544998, "lon": -79.5197478}, {"type": "node", "id": 2355286984, "lat": 43.7545151, "lon": -79.5190202}, {"type": "node", "id": 2355286985, "lat": 43.7545202, "lon": -79.5195218}, {"type": "node", "id": 2355286986, "lat": 43.7545457, "lon": -79.5183279}, {"type": "node", "id": 2355286987, "lat": 43.7546121, "lon": -79.5185116}, {"type": "node", "id": 2355286988, "lat": 43.7546886, "lon": -79.5202565}, {"type": "node", "id": 2355304409, "lat": 43.7413808, "lon": -79.51348}, {"type": "node", "id": 2355304410, "lat": 43.7414929, "lon": -79.5131372}, {"type": "node", "id": 2355304411, "lat": 43.7421674, "lon": -79.5117165}, {"type": "node", "id": 2355304412, "lat": 43.7424108, "lon": -79.5119154}, {"type": "node", "id": 2355304413, "lat": 43.7425646, "lon": -79.5138095}, {"type": "node", "id": 2355304414, "lat": 43.7427686, "lon": -79.5127578}, {"type": "node", "id": 2355304415, "lat": 43.7429411, "lon": -79.5128177}, {"type": "node", "id": 2355304416, "lat": 43.7430888, "lon": -79.5121516}, {"type": "node", "id": 6289309037, "lat": 43.7516169, "lon": -79.5250202}, {"type": "node", "id": 6307052324, "lat": 43.7429803, "lon": -79.512641}, {"type": "node", "id": 6309612017, "lat": 43.7554508, "lon": -79.5115784}, {"type": "node", "id": 6309612018, "lat": 43.7554721, "lon": -79.5114979}, {"type": "node", "id": 6309612019, "lat": 43.7554914, "lon": -79.5116816}, {"type": "node", "id": 6309612021, "lat": 43.7556145, "lon": -79.5116065}, {"type": "node", "id": 6309612023, "lat": 43.7543823, "lon": -79.5107952}, {"type": "node", "id": 6309612024, "lat": 43.7552774, "lon": -79.5111358}, {"type": "node", "id": 6309612025, "lat": 43.7552251, "lon": -79.5114067}, {"type": "node", "id": 6895996515, "lat": 43.7518951, "lon": -79.5228242}, {"type": "node", "id": 6895996516, "lat": 43.7520525, "lon": -79.5226043}, {"type": "node", "id": 6895996517, "lat": 43.7519867, "lon": -79.5227082}, {"type": "node", "id": 6895996518, "lat": 43.7522143, "lon": -79.5222482}, {"type": "way", "id": 30955951, "nodes": [344210765, 344210768, 344210769, 344210771, 344210777, 344210781, 344210765], "tags": {"addr:city": "North York", "addr:housenumber": "315", "addr:postcode": "M3N 1J5", "addr:street": "Grandravine Drive", "amenity": "school", "fax": "+1-416-395-3168", "isced:level": "2", "name": "Oakdale Park Middle School", "opendata:type": "102001", "operator": "Toronto District School Board", "operator:short": "TDSB", "operator:type": "public", "operator:wikidata": "Q1189302", "operator:wikipedia": "en:Toronto District School Board", "phone": "+1-416-395-3060", "school:language": "english", "website": "https://www.tdsb.on.ca/MOSS/asp_apps/school_landing_page/index.asp?schno=3209"}}, {"type": "way", "id": 34586022, "nodes": [401504280, 6289309037, 401504281, 401504282, 401504283, 401504284, 401504285, 401504286, 6895996515, 6895996517, 6895996516, 401504287, 6895996518, 401504288, 401504290, 401504291, 401504292, 401504293, 401504294, 401504295, 401504296, 401504297, 401504299, 401504300, 401504280], "tags": {"addr:city": "Toronto", "addr:housenumber": "755", "addr:postcode": "M3N 1W7", "addr:street": "Oakdale Road", "amenity": "school", "fax": "+1-416-395-6627", "isced:level": "3", "mascot": "Wildcats", "name": "Westview Centennial Secondary School", "operator": "Toronto District School Board", "operator:short": "TDSB", "operator:type": "public", "operator:wikidata": "Q1189302", "operator:wikipedia": "en:Toronto District School Board", "phone": "+1-416-395-3320", "school:language": "english", "source": "Contains public sector Datasets made available under the City of Toronto's Open Data License v2.0.", "website": "https://schoolweb.tdsb.on.ca/westview", "wikidata": "Q7989747", "wikipedia": "en:Westview Centennial Secondary School"}}, {"type": "way", "id": 37088621, "nodes": [431335700, 431335701, 431335702, 431335703, 431335704, 431335705, 431335700], "tags": {"addr:city": "Toronto", "addr:housenumber": "108", "addr:postcode": "M3L 1Z5", "addr:street": "Spenvalley Drive", "amenity": "school", "denomination": "catholic", "fax": "+1-416-393-5430", "isced:level": "1;2", "name": "Blessed Margherita of Citta Castello Catholic School", "opendata:type": "102003", "operator": "Toronto Catholic District School Board", "operator:short": "TCDSB", "operator:type": "public", "operator:wikidata": "Q405337", "phone": "+1-416-393-5409", "religion": "christian", "school:language": "english", "source": "yahoo", "start_date": "1983-09-01", "website": "http://blessedmargherita.tcdsb.org", "wikidata": "Q54862849"}}, {"type": "way", "id": 54780825, "nodes": [689777513, 689777514, 689777515, 689777516, 689777513], "tags": {"addr:city": "Toronto", "addr:housenumber": "1865", "addr:postcode": "M3L 1Y5", "addr:street": "Sheppard Avenue West", "amenity": "school", "denomination": "catholic", "fax": "+1-416-397-6321", "isced:level": "1;2", "name": "St. Martha Catholic School", "operator": "Toronto Catholic District School Board", "operator:short": "TCDSB", "operator:type": "public", "operator:wikidata": "Q405337", "phone": "+1-416-393-5344", "religion": "christian", "school:language": "english", "source": "Yahoo", "start_date": "1971-09-30", "website": "http://stmartha.tcdsb.org"}}, {"type": "way", "id": 54780826, "nodes": [689777517, 689777518, 689777519, 689777520, 689777521, 689777522, 689777517], "tags": {"addr:city": "North York", "addr:housenumber": "35", "addr:postcode": "M3L 1V5", "addr:street": "Calico Drive", "amenity": "school", "fax": "+1-416-395-2134", "isced:level": "1", "name": "Calico Public School", "operator": "Toronto District School Board", "operator:short": "TDSB", "operator:type": "public", "operator:wikidata": "Q1189302", "operator:wikipedia": "en:Toronto District School Board", "phone": "+1-416-395-2130", "school:language": "english", "source": "Contains public sector Datasets made available under the City of Toronto's Open Data License v2.0.", "website": "https://schoolweb.tdsb.on.ca/calico"}}, {"type": "way", "id": 224666147, "nodes": [401504269, 2334637145, 2334637146, 401504271, 401504270, 401504269], "tags": {"addr:city": "North York", "addr:housenumber": "270", "addr:postcode": "M3N 1K8", "addr:street": "Firgrove Crescent", "amenity": "school", "fax": "+1-416-395-5240", "isced:level": "1", "name": "Firgrove Public School", "operator": "Toronto District School Board", "operator:short": "TDSB", "operator:type": "public", "operator:wikidata": "Q1189302", "operator:wikipedia": "en:Toronto District School Board", "phone": "+1-416-395-2420", "school:language": "english", "source": "Contains public sector Datasets made available under the City of Toronto's Open Data License v2.0.", "start_date": "1971-09-09", "website": "https://schoolweb.tdsb.on.ca/firgrove/"}}, {"type": "way", "id": 224815962, "nodes": [931273042, 2336695783, 2336695758, 931273029, 931273042], "tags": {"addr:city": "North York", "addr:housenumber": "75", "addr:postcode": "M3N 1C2", "addr:street": "Stanley Road", "amenity": "school", "fax": "+1-416-395-2893", "isced:level": "1", "name": "Stanley Public School", "operator": "Toronto District School Board", "operator:short": "TDSB", "operator:type": "public", "operator:wikidata": "Q1189302", "operator:wikipedia": "en:Toronto District School Board", "phone": "+1-416-395-2890", "school:language": "english", "source": "Contains public sector Datasets made available under the City of Toronto's Open Data License v2.0.", "website": "https://schoolweb.tdsb.on.ca/stanley"}}, {"type": "way", "id": 224816109, "nodes": [2336696439, 2336696438, 6309612021, 6309612019, 6309612017, 6309612018, 6309612025, 6309612024, 2336696436, 6309612023, 2336696437, 363910188, 2336696439], "tags": {"addr:city": "North York", "addr:housenumber": "65", "addr:postcode": "M3N 1L6", "addr:street": "Topcliff Avenue", "amenity": "school", "fax": "+1-416-395-4529", "isced:level": "1", "name": "Topcliff Public School", "operator": "Toronto District School Board", "operator:short": "TDSB", "operator:type": "public", "operator:wikidata": "Q1189302", "operator:wikipedia": "en:Toronto District School Board", "phone": "+1-416-395-2940", "school:language": "english", "source": "Contains public sector Datasets made available under the City of Toronto's Open Data License v2.0.", "website": "https://schoolweb.tdsb.on.ca/topcliff"}}, {"type": "way", "id": 224816402, "nodes": [2336700708, 2336700706, 2336700705, 2336700707, 2336700710, 2336700708], "tags": {"addr:city": "North York", "addr:housenumber": "25", "addr:postcode": "M3N 1K1", "addr:street": "Yorkwoods Gate", "amenity": "school", "fax": "+1-416-395-6559", "isced:level": "1", "name": "Yorkwoods Public School", "operator": "Toronto District School Board", "operator:short": "TDSB", "operator:type": "public", "operator:wikidata": "Q1189302", "operator:wikipedia": "en:Toronto District School Board", "phone": "+1-416-395-2990", "school:language": "english", "source": "Contains public sector Datasets made available under the City of Toronto's Open Data License v2.0.", "website": "https://www.tdsb.on.ca/MOSS/asp_apps/school_landing_page/index.asp?schno=3296"}}, {"type": "way", "id": 226768928, "nodes": [2355286988, 2355286980, 2355286978, 2355286979, 2355286981, 2355286986, 2355286987, 2355286982, 2355286984, 2355286985, 2355286983, 2355286988], "tags": {"addr:city": "Toronto", "addr:housenumber": "333", "addr:postcode": "M3N 1K9", "addr:street": "Firgrove Crescent", "amenity": "school", "denomination": "catholic", "fax": "+1-416-393-5177", "isced:level": "1;2", "name": "St. Francis de Sales Catholic School", "opendata:type": "102003", "operator": "Toronto Catholic District School Board", "operator:short": "TCDSB", "operator:type": "public", "operator:wikidata": "Q405337", "phone": "+1-416-393-5366", "religion": "christian", "school:language": "english", "start_date": "1971-09-09", "website": "http://stfrancisdesales.tcdsb.org"}}, {"type": "way", "id": 226771308, "nodes": [2355304413, 2355304414, 2355304415, 6307052324, 2355304416, 2355304412, 2355304411, 2355304410, 2355304409, 2355304413], "tags": {"addr:city": "North York", "addr:housenumber": "2745", "addr:postcode": "M3L 2E8", "addr:street": "Jane Street", "amenity": "school", "denomination": "catholic", "fax": "+1-416-393-5135", "isced:level": "1;2", "name": "St. Jane Frances Catholic School", "opendata:type": "102003", "operator": "Toronto Catholic District School Board", "operator:short": "TCDSB", "operator:type": "public", "operator:wikidata": "Q405337", "operator:wikipedia": "en:Toronto Catholic District School Board", "phone": "+1-416-393-5296", "religion": "christian", "school:language": "english", "website": "http://stjanefrances.tcdsb.org"}}]}