{"version": 0.6, "generator": "Overpass API 0.7.62.5 1bd436f1", "osm3s": {"timestamp_osm_base": "2025-03-11T10:42:53Z", "copyright": "The data included in this document is from www.openstreetmap.org. The data is made available under ODbL."}, "elements": [{"type": "node", "id": 358034881, "lat": 43.6955472, "lon": -79.28245}, {"type": "node", "id": 358034885, "lat": 43.6945058, "lon": -79.2820056}, {"type": "node", "id": 358034889, "lat": 43.6958058, "lon": -79.2812908}, {"type": "node", "id": 358034891, "lat": 43.6947644, "lon": -79.2808464}, {"type": "node", "id": 367486895, "lat": 43.7003464, "lon": -79.2786369}, {"type": "node", "id": 367486900, "lat": 43.700799, "lon": -79.2765169}, {"type": "node", "id": 369639314, "lat": 43.6937648, "lon": -79.2845515}, {"type": "node", "id": 369639315, "lat": 43.6931188, "lon": -79.28428}, {"type": "node", "id": 369639316, "lat": 43.6930235, "lon": -79.2847342}, {"type": "node", "id": 369639317, "lat": 43.6926415, "lon": -79.2845385}, {"type": "node", "id": 369639318, "lat": 43.6927288, "lon": -79.284141}, {"type": "node", "id": 369639319, "lat": 43.6926704, "lon": -79.2841164}, {"type": "node", "id": 369639320, "lat": 43.692772, "lon": -79.2836543}, {"type": "node", "id": 369639321, "lat": 43.6938637, "lon": -79.2841854}, {"type": "node", "id": 536290706, "lat": 43.6926856, "lon": -79.2846087}, {"type": "node", "id": 2336703916, "lat": 43.6994766, "lon": -79.2783288}, {"type": "node", "id": 2336703917, "lat": 43.6999175, "lon": -79.2761467}, {"type": "node", "id": 2336703918, "lat": 43.7001999, "lon": -79.2786432}, {"type": "node", "id": 3756356377, "lat": 43.6937854, "lon": -79.2845399}, {"type": "node", "id": 6605847735, "lat": 43.6951095, "lon": -79.284398}, {"type": "node", "id": 6605847736, "lat": 43.6940565, "lon": -79.2839527}, {"type": "node", "id": 12455052667, "lat": 43.6930582, "lon": -79.2837935, "tags": {"natural": "tree"}}, {"type": "way", "id": 31961948, "nodes": [358034881, 358034889, 358034891, 358034885, 358034881], "tags": {"addr:city": "Toronto", "addr:housenumber": "110", "addr:postcode": "M1N 3P1", "addr:street": "Byng Avenue", "amenity": "school", "fax": "+1-416-396-6507", "isced:level": "1", "name": "Oakridge Junior Public School", "operator": "Toronto District School Board", "operator:short": "TDSB", "operator:type": "public", "operator:wikidata": "Q1189302", "operator:wikipedia": "en:Toronto District School Board", "phone": "+1-416-396-6505", "school:language": "english", "source": "Contains public sector Datasets made available under the City of Toronto's Open Data License v2.0.", "website": "https://schoolweb.tdsb.on.ca/oakridge"}}, {"type": "way", "id": 32802125, "nodes": [369639314, 369639315, 369639316, 536290706, 369639317, 369639318, 369639319, 369639320, 12455052667, 369639321, 3756356377, 369639314], "tags": {"addr:city": "Toronto", "addr:housenumber": "14", "addr:postcode": "M1L 3E4", "addr:street": "Pharmacy Avenue", "amenity": "school", "denomination": "catholic", "fax": "+1-416-393-5801", "isced:level": "1;2", "name": "St. Dunstan Catholic School", "operator": "Toronto Catholic District School Board", "operator:short": "TCDSB", "operator:type": "public", "operator:wikidata": "Q405337", "phone": "+1-416-393-5241", "religion": "christian", "school:language": "english", "website": "http://stdunstan.tcdsb.org"}}, {"type": "way", "id": 224816805, "nodes": [367486900, 367486895, 2336703918, 2336703916, 2336703917, 367486900], "tags": {"addr:city": "Scarborough", "addr:housenumber": "644", "addr:postcode": "M1L 3Z3", "addr:street": "Warden Avenue", "amenity": "school", "fax": "+1-416-396-6649", "isced:level": "1;2", "name": "Taylor Creek Public School", "old_name": "Warden Avenue Public School", "operator": "Toronto District School Board", "operator:short": "TDSB", "operator:type": "public", "operator:wikidata": "Q1189302", "operator:wikipedia": "en:Toronto District School Board", "phone": "+1-416-396-6625", "school:language": "english", "source": "Contains public sector Datasets made available under the City of Toronto's Open Data License v2.0.", "website": "https://schoolweb.tdsb.on.ca/taylorcreek"}}, {"type": "way", "id": 703423111, "nodes": [358034881, 358034885, 6605847736, 6605847735, 358034881], "tags": {"addr:city": "Scarborough", "addr:housenumber": "21", "addr:postcode": "M1L 4N7", "addr:street": "Newport Avenue", "amenity": "school", "fax": "+1-416-396-6564", "isced:level": "2", "name": "Samuel Hearne Public School", "operator": "Toronto District School Board", "operator:short": "TDSB", "operator:type": "public", "operator:wikidata": "Q1189302", "operator:wikipedia": "en:Toronto District School Board", "phone": "+1-416-396-6555", "school:language": "english", "source": "Contains public sector Datasets made available under the City of Toronto's Open Data License v2.0.", "start_date": "1973-09-04", "website": "https://schoolweb.tdsb.on.ca/samuelhearne/"}}]}