{"version": 0.6, "generator": "Overpass API 0.7.62.5 1bd436f1", "osm3s": {"timestamp_osm_base": "2025-02-19T13:05:41Z", "copyright": "The data included in this document is from www.openstreetmap.org. The data is made available under ODbL."}, "elements": [{"type": "node", "id": 5793619264, "lat": 43.7562693, "lon": -79.5189115, "tags": {"amenity": "restaurant", "cuisine": "vietnamese", "name": "Pho Com Vietnam"}}, {"type": "node", "id": 5793619275, "lat": 43.7562393, "lon": -79.5181659, "tags": {"amenity": "restaurant", "cuisine": "chinese", "name": "Yummy Yok"}}, {"type": "node", "id": 5793619278, "lat": 43.7561995, "lon": -79.5179433, "tags": {"amenity": "restaurant", "cuisine": "caribbean", "name": "Sunrise Caribbean Restaurant"}}, {"type": "node", "id": 6367927560, "lat": 43.7386629, "lon": -79.5120029, "tags": {"amenity": "restaurant", "cuisine": "caribbean;chinese", "name": "Parrot Nest"}}, {"type": "node", "id": 6367927565, "lat": 43.7385863, "lon": -79.5123687, "tags": {"amenity": "restaurant", "cuisine": "italian", "name": "Cafe Mondiale"}}, {"type": "node", "id": 6367927577, "lat": 43.7396871, "lon": -79.5142789, "tags": {"amenity": "restaurant", "cuisine": "vietnamese", "name": "Pho Cuu Long Mien Tay"}}, {"type": "node", "id": 6368030225, "lat": 43.7409603, "lon": -79.513071, "tags": {"amenity": "restaurant", "cuisine": "vietnamese", "name": "Da Nang Restaurant"}}, {"type": "node", "id": 6368030230, "lat": 43.7420969, "lon": -79.5143169, "tags": {"amenity": "restaurant", "cuisine": "vietnamese", "name": "Banh Cuon Huong Que"}}, {"type": "node", "id": 6369405379, "lat": 43.7516126, "lon": -79.5153494, "tags": {"amenity": "restaurant", "cuisine": "vietnamese", "name": "Pho Chay 88"}}, {"type": "node", "id": 6369406988, "lat": 43.7520789, "lon": -79.5154542, "tags": {"amenity": "restaurant", "cuisine": "vietnamese", "name": "Viet Hoa"}}]}